{
"type": "FeatureCollection",
"features": [
{
  "type": "Feature",
  "id": "way/379738585",
  "properties": {
    "addr:postcode": "6300",
    "addr:street": "Bahnhofplatz",
    "amenity": "pharmacy",
    "branch": "Zug Bahnhof",
    "brand": "Achillea Apotheke",
    "indoor": "yes",
    "level": "0",
    "name": "Zug Apotheke",
    "opening_hours": "Mo-Fr 07:00-21:00; Sa,Su 08:00-20:00",
    "operator": "Dr. Bähler Dropa",
    "website": "https://achillea.ch/standorte/zug-apotheke",
    "wheelchair": "yes",
    "id": "way/379738585"
  },
  "geometry": {
    "type": "Polygon",
    "coordinates": [
      [
        [
          8.5151567,
          47.173503
        ],
        [
          8.5150541,
          47.1735378
        ],
        [
          8.514861,
          47.1733902
        ],
        [
          8.5149653,
          47.173329
        ],
        [
          8.5150146,
          47.1733706
        ],
        [
          8.5151567,
          47.173503
        ]
      ]
    ]
  }
},
{
  "type": "Feature",
  "id": "node/318530558",
  "properties": {
    "amenity": "pharmacy",
    "dispensing": "yes",
    "name": "Drogerie Schilliger",
    "id": "node/318530558"
  },
  "geometry": {
    "type": "Point",
    "coordinates": [
      8.4274168,
      47.1403056
    ]
  }
},
{
  "type": "Feature",
  "id": "node/321679039",
  "properties": {
    "amenity": "pharmacy",
    "delivery:covid19": "yes",
    "fax": "+41 41 780 06 54",
    "name": "Anklin",
    "opening_hours": "Mo-Fr 08:30-12:00,14:00-18:30; Sa 09:00-16:00; PH off",
    "opening_hours:covid19": "same",
    "phone": "+41 41 780 39 19",
    "website": "http://www.anklinapotheke.ch/",
    "wheelchair": "yes",
    "id": "node/321679039"
  },
  "geometry": {
    "type": "Point",
    "coordinates": [
      8.4581358,
      47.1792941
    ]
  }
},
{
  "type": "Feature",
  "id": "node/393982230",
  "properties": {
    "addr:city": "Zug",
    "addr:housenumber": "10",
    "addr:postcode": "6300",
    "addr:street": "Bundesplatz",
    "amenity": "pharmacy",
    "branch": "Zug",
    "brand": "Amavita",
    "name": "Amavita Zug",
    "opening_hours": "Mo-We,Fr 08:00-18:30; Th 08:00-19:00; Sa 09:00-17:00",
    "operator": "GaleniCare",
    "website": "https://www.amavita.ch/de/amavita-apotheke-zug",
    "wheelchair": "yes",
    "id": "node/393982230"
  },
  "geometry": {
    "type": "Point",
    "coordinates": [
      8.5153424,
      47.1716195
    ]
  }
},
{
  "type": "Feature",
  "id": "node/417162565",
  "properties": {
    "addr:city": "Zug",
    "addr:housenumber": "16",
    "addr:postcode": "6300",
    "addr:street": "Grabenstrasse",
    "amenity": "pharmacy",
    "branch": "Zug Kolin-Apotheke",
    "brand": "TopPharm",
    "name": "TopPharm Kolin Apotheke",
    "opening_hours": "Mo 09:00-12:15,13:30-18:30; Tu-Fr 08:00-12:15,13:30-18:30; Sa 08:00-16:00; week 28-33 Mo 09:00-12:15,14:00-18:30; week 28-33 Tu-Fr 08:00-12:15,14:00-18:30; PH off",
    "opening_hours:covid19": "same",
    "operator": "TopPharm Genossenschaft",
    "website": "https://www.apotheke.ch/kolin",
    "wheelchair": "no",
    "id": "node/417162565"
  },
  "geometry": {
    "type": "Point",
    "coordinates": [
      8.5151006,
      47.1656818
    ]
  }
},
{
  "type": "Feature",
  "id": "node/660176172",
  "properties": {
    "addr:city": "Steinhausen",
    "addr:housenumber": "4",
    "addr:postcode": "6312",
    "addr:street": "Blickensdorferstrasse",
    "amenity": "pharmacy",
    "name": "UrsDrogerie Apotheke mit Biolade",
    "website": "http://www.ursdrogerie.ch",
    "id": "node/660176172"
  },
  "geometry": {
    "type": "Point",
    "coordinates": [
      8.4858491,
      47.1969024
    ]
  }
},
{
  "type": "Feature",
  "id": "node/663436665",
  "properties": {
    "addr:city": "Zug",
    "addr:housenumber": "13b",
    "addr:postcode": "6300",
    "addr:street": "Industriestrasse",
    "amenity": "pharmacy",
    "branch": "Zug Metalli",
    "brand": "Achillea Apotheke",
    "dispensing": "yes",
    "name": "Metalli Apotheke",
    "opening_hours": "Mo-We,Fr 09:00-19:00;Sa 09:00-17:00;Th 09:00-21:00;PH closed",
    "opening_hours:covid19": "same",
    "operator": "Dr. Bähler Dropa",
    "website": "https://achillea.ch/standorte/metalli-apotheke",
    "wheelchair": "yes",
    "id": "node/663436665"
  },
  "geometry": {
    "type": "Point",
    "coordinates": [
      8.5173863,
      47.1724716
    ]
  }
},
{
  "type": "Feature",
  "id": "node/1655834253",
  "properties": {
    "amenity": "pharmacy",
    "name": "Arkaden-Apotheke",
    "id": "node/1655834253"
  },
  "geometry": {
    "type": "Point",
    "coordinates": [
      8.429443,
      47.1411657
    ]
  }
},
{
  "type": "Feature",
  "id": "node/2623963074",
  "properties": {
    "amenity": "pharmacy",
    "name": "Gotthard Apotheke Baar",
    "id": "node/2623963074"
  },
  "geometry": {
    "type": "Point",
    "coordinates": [
      8.5236302,
      47.1946768
    ]
  }
},
{
  "type": "Feature",
  "id": "node/3267887805",
  "properties": {
    "addr:city": "Unterägeri",
    "addr:housenumber": "32",
    "addr:postcode": "6314",
    "addr:street": "Zugerstrasse",
    "amenity": "pharmacy",
    "branch": "Unterägeri",
    "brand": "Amavita",
    "dispensing": "yes",
    "name": "Amavita Unterägeri",
    "operator": "GaleniCare",
    "website": "https://www.amavita.ch/de/amavita-apotheke-unterageri",
    "id": "node/3267887805"
  },
  "geometry": {
    "type": "Point",
    "coordinates": [
      8.5795196,
      47.1382235
    ]
  }
},
{
  "type": "Feature",
  "id": "node/3358077152",
  "properties": {
    "addr:housenumber": "11",
    "addr:postcode": "6300",
    "addr:street": "Bahnhofstrasse",
    "amenity": "pharmacy",
    "fax": "+41 41 711 15 79",
    "name": "Spillmann",
    "opening_hours": "Mo-Fr 08:00-18:30; Sa 08:00-16:00",
    "opening_hours:covid19": "same",
    "payment:cash": "yes",
    "payment:maestro": "yes",
    "payment:mastercard": "yes",
    "payment:visa": "yes",
    "payment:visa_electron": "yes",
    "phone": "+41 41 711 15 47",
    "website": "http://www.apotheke-spillmann.ch/",
    "id": "node/3358077152"
  },
  "geometry": {
    "type": "Point",
    "coordinates": [
      8.515584,
      47.1687951
    ]
  }
},
{
  "type": "Feature",
  "id": "node/3901646007",
  "properties": {
    "amenity": "pharmacy",
    "name": "Drogerie Hermann",
    "website": "https://drogerie-hermann.ch/",
    "id": "node/3901646007"
  },
  "geometry": {
    "type": "Point",
    "coordinates": [
      8.5810692,
      47.1379227
    ]
  }
},
{
  "type": "Feature",
  "id": "node/5926537691",
  "properties": {
    "addr:city": "Baar",
    "addr:housenumber": "3",
    "addr:postcode": "6340",
    "addr:street": "Dorfstrasse",
    "alt_name": "TopPharm Rathaus Apotheke Baar",
    "amenity": "pharmacy",
    "branch": "Baar",
    "brand": "TopPharm",
    "dispensing": "yes",
    "healthcare": "pharmacy",
    "name": "TopPharm Rathaus Apotheke",
    "operator": "TopPharm Genossenschaft",
    "website": "https://www.apotheke.ch/rathaus-baar",
    "id": "node/5926537691"
  },
  "geometry": {
    "type": "Point",
    "coordinates": [
      8.5261526,
      47.1943158
    ]
  }
},
{
  "type": "Feature",
  "id": "node/6690547557",
  "properties": {
    "addr:city": "Zug",
    "addr:housenumber": "10",
    "addr:postcode": "6300",
    "addr:street": "Hertizentrum",
    "amenity": "pharmacy",
    "brand": "Rotpunkt Apotheke",
    "dispensing": "yes",
    "healthcare": "pharmacy",
    "name": "Herti Apotheke und Drogerie",
    "phone": "+41 41 711 85 00",
    "shop": "chemist",
    "website": "http://www.hertiapotheke.ch/",
    "id": "node/6690547557"
  },
  "geometry": {
    "type": "Point",
    "coordinates": [
      8.5059724,
      47.1780545
    ]
  }
},
{
  "type": "Feature",
  "id": "node/7492151750",
  "properties": {
    "addr:city": "Zug",
    "addr:housenumber": "12",
    "addr:postcode": "6300",
    "addr:street": "Alpenstrasse",
    "amenity": "pharmacy",
    "branch": "Zug Bahnhof-Apotheke",
    "brand": "TopPharm",
    "name": "TopPharm Bahnhof Apotheke Zug",
    "operator": "TopPharm Genossenschaft",
    "website": "https://www.apotheke.ch/bahnhof-zug",
    "id": "node/7492151750"
  },
  "geometry": {
    "type": "Point",
    "coordinates": [
      8.5149676,
      47.1725785
    ]
  }
}
]
}
