{
"type": "FeatureCollection",
"features": [
{
  "type": "Feature",
  "id": "node/31737225",
  "properties": {
    "amenity": "clinic",
    "name": "Kinderklinik",
    "id": "node/31737225"
  },
  "geometry": {
    "type": "Point",
    "coordinates": [
      7.4857403,
      46.9693422
    ]
  }
},
{
  "type": "Feature",
  "id": "node/303773215",
  "properties": {
    "amenity": "clinic",
    "contact:website": "https://www.rehaclinic.ch/standorte/rehaclinic-stationaer/braunwald/",
    "name": "RehaClinic Braunwald",
    "id": "node/303773215"
  },
  "geometry": {
    "type": "Point",
    "coordinates": [
      8.9947426,
      46.9357589
    ]
  }
},
{
  "type": "Feature",
  "id": "node/597569466",
  "properties": {
    "addr:city": "Holderbank AG",
    "addr:housenumber": "194",
    "addr:postcode": "5113",
    "addr:street": "Von Effingerstrasse",
    "amenity": "clinic",
    "description": "REHA-Haus für Alkoholabhängige",
    "email": "info@effingerhort.ch",
    "emergency": "no",
    "fax": "+41 (0)62 893 33 78",
    "healthcare": "doctor",
    "name": "Effingerhort",
    "phone": "+41 (0)62 887 80 80",
    "website": "http://www.effingerhort.ch/",
    "wikidata": "Q1296214",
    "id": "node/597569466"
  },
  "geometry": {
    "type": "Point",
    "coordinates": [
      8.1768643,
      47.4320023
    ]
  }
},
{
  "type": "Feature",
  "id": "node/855146715",
  "properties": {
    "amenity": "clinic",
    "healthcare": "clinic",
    "healthcare:speciality": "general",
    "name": "Service Médical",
    "name:en": "Medical Service",
    "name:fr": "Service Médical",
    "operator": "United Nations",
    "id": "node/855146715"
  },
  "geometry": {
    "type": "Point",
    "coordinates": [
      6.1401476,
      46.2241828
    ]
  }
},
{
  "type": "Feature",
  "id": "node/869250043",
  "properties": {
    "amenity": "clinic",
    "check_date": "2022-10-27",
    "contact:addr:full": "Länggassstrasse 18, 3012 Bern",
    "contact:email": "bern@pallas-kliniken.ch",
    "contact:fax": "+41 58 3356119",
    "contact:phone": "+41 58 3350000",
    "healthcare": "clinic",
    "healthcare:speciality": "ophthalmology",
    "name": "Augenlaser Zentrum",
    "opening_hours": "Mo-Th 08:00-12:00,13:00-17:30; Fr 08:00-12:15,13:00-17:00",
    "operator": "Pallas Kliniken AG",
    "website": "https://www.pallas-kliniken.ch/de/standorte/bern-3012.html",
    "id": "node/869250043"
  },
  "geometry": {
    "type": "Point",
    "coordinates": [
      7.4337567,
      46.9526069
    ]
  }
},
{
  "type": "Feature",
  "id": "node/1609006619",
  "properties": {
    "addr:city": "Baar",
    "addr:country": "CH",
    "addr:housenumber": "17",
    "addr:postcode": "6340",
    "addr:street": "Landhausstrasse",
    "amenity": "clinic",
    "email": "alzheimer.zug@gmx.ch",
    "healthcare": "clinic",
    "name": "Schweizerische Alzheimervereinigung",
    "phone": "+41 41 760 05 60",
    "id": "node/1609006619"
  },
  "geometry": {
    "type": "Point",
    "coordinates": [
      8.517523,
      47.1946064
    ]
  }
},
{
  "type": "Feature",
  "id": "node/2431011784",
  "properties": {
    "amenity": "clinic",
    "name": "ProAdicta Escape Ambulatorium",
    "payment:bitcoin": "yes",
    "phone": "+41 62 721 61 61",
    "website": "https://proadicta.ch/",
    "id": "node/2431011784"
  },
  "geometry": {
    "type": "Point",
    "coordinates": [
      8.0549832,
      47.3057547
    ]
  }
},
{
  "type": "Feature",
  "id": "node/2440334173",
  "properties": {
    "addr:city": "Genève",
    "addr:country": "CH",
    "addr:housenumber": "70c",
    "addr:postcode": "1202",
    "addr:street": "Rue du Grand-Pré",
    "amenity": "clinic",
    "description": "Traitement ambulatoire de personnes concernées par l’addiction à l’alcool, au tabac, au cannabis, à la cocaïne, aux médicaments, à l’ecstasy, aux amphétamines, aux jeux d’argent, à internet, aux jeux vidéos, au sexe, aux achats, au travail.",
    "email": "Service.Addictologie@hcuge.ch",
    "name": "CAAP Grand-Pré - Service addictologie - Hôpitaux Universitaires de Genève",
    "phone": "+41 22 372 57 50",
    "survey:date": "2013-08-31",
    "website": "https://addictohug.ch/caap-grand-pre/",
    "wheelchair": "yes",
    "id": "node/2440334173"
  },
  "geometry": {
    "type": "Point",
    "coordinates": [
      6.1319393,
      46.2162066
    ]
  }
},
{
  "type": "Feature",
  "id": "node/2528788367",
  "properties": {
    "amenity": "clinic",
    "name": "Vigimed",
    "id": "node/2528788367"
  },
  "geometry": {
    "type": "Point",
    "coordinates": [
      7.0748332,
      46.1055952
    ]
  }
},
{
  "type": "Feature",
  "id": "node/2749268419",
  "properties": {
    "addr:city": "Ecublens",
    "addr:housenumber": "6A",
    "addr:postcode": "1024",
    "addr:street": "Route Louis-Favre",
    "amenity": "clinic",
    "healthcare": "clinic",
    "name": "Centre Médical Arcades EPFL",
    "opening_hours": "Mo-Fr 08:00-18:00",
    "phone": "+41 21 614 63 63",
    "website": "http://www.cm-arcadesepfl.ch/",
    "id": "node/2749268419"
  },
  "geometry": {
    "type": "Point",
    "coordinates": [
      6.5653497,
      46.5235488
    ]
  }
},
{
  "type": "Feature",
  "id": "node/2946346767",
  "properties": {
    "amenity": "clinic",
    "id": "node/2946346767"
  },
  "geometry": {
    "type": "Point",
    "coordinates": [
      6.1953564,
      46.1960489
    ]
  }
},
{
  "type": "Feature",
  "id": "node/3157462905",
  "properties": {
    "amenity": "clinic",
    "contact:addr:full": "Bubenbergplatz 4b, 3011 Bern",
    "contact:email": "ambulatorium-bern@suedhang.ch",
    "contact:fax": "+41 31 8288024",
    "contact:phone": "+41 31 8288000",
    "emergency": "no",
    "healthcare": "clinic",
    "name": "Südhang",
    "social_facility": "healthcare",
    "social_facility:for": "drug_addicted",
    "source": "survey and website",
    "website": "https://www.suedhang.ch",
    "id": "node/3157462905"
  },
  "geometry": {
    "type": "Point",
    "coordinates": [
      7.438513,
      46.948328
    ]
  }
},
{
  "type": "Feature",
  "id": "node/3279430720",
  "properties": {
    "amenity": "clinic",
    "contact:email": "olten@pallas-kliniken.ch",
    "contact:website": "http://www.pallas-kliniken.ch/de/standorte/olten-ch-4600.html",
    "name": "Pallas Klinik",
    "id": "node/3279430720"
  },
  "geometry": {
    "type": "Point",
    "coordinates": [
      7.9097787,
      47.3466799
    ]
  }
},
{
  "type": "Feature",
  "id": "node/3297088011",
  "properties": {
    "addr:city": "Silvaplana",
    "addr:housenumber": "8",
    "addr:postcode": "7513",
    "addr:street": "Via Munterots",
    "amenity": "clinic",
    "healthcare": "clinic",
    "name": "Xsunheitszentrum Silvaplana",
    "id": "node/3297088011"
  },
  "geometry": {
    "type": "Point",
    "coordinates": [
      9.7968666,
      46.4593965
    ]
  }
},
{
  "type": "Feature",
  "id": "node/3600466682",
  "properties": {
    "addr:city": "Kilchberg",
    "addr:housenumber": "60",
    "addr:postcode": "8802",
    "addr:street": "Grütstrasse",
    "amenity": "clinic",
    "email": "kilchberg@zurzachcare.ch",
    "healthcare": "rehabilitation",
    "name": "ZURZACH Care - Rehaklinik Kilchberg",
    "operator": "ZURZACH Care AG",
    "phone": "+41 44 716 70 00",
    "website": "https://www.zurzachcare.ch/kilchberg",
    "id": "node/3600466682"
  },
  "geometry": {
    "type": "Point",
    "coordinates": [
      8.5362854,
      47.3199693
    ]
  }
},
{
  "type": "Feature",
  "id": "node/3668461953",
  "properties": {
    "addr:city": "Onex",
    "addr:housenumber": "126",
    "addr:postcode": "1213",
    "addr:street": "Route de Chancy",
    "amenity": "hospital",
    "emergency": "no",
    "healthcare": "hospital",
    "healthcare:speciality": "dialysis;nephrology",
    "name": "Centre d'hémodialyse d'Onex",
    "id": "node/3668461953"
  },
  "geometry": {
    "type": "Point",
    "coordinates": [
      6.0993861,
      46.1831587
    ]
  }
},
{
  "type": "Feature",
  "id": "node/3670623140",
  "properties": {
    "addr:city": "Les Acacias",
    "addr:housenumber": "3",
    "addr:postcode": "1227",
    "addr:street": "Route des Acacias",
    "amenity": "clinic",
    "description": "Traitement ambulatoire des addictions aux opiacés (héroïne, morphine, méthadone, buprénorphine...)",
    "email": "Service.Addictologie@hcuge.ch",
    "fax": "+41 22 305 55 99",
    "name": "CAAP Arve - Service addictologie - Hôpitaux Universitaires de Genève",
    "opening_hours": "07:00-19:00",
    "phone": "+41 22 305 55 11",
    "website": "https://addictohug.ch/caap-arve/",
    "wheelchair": "yes",
    "id": "node/3670623140"
  },
  "geometry": {
    "type": "Point",
    "coordinates": [
      6.1380469,
      46.1928483
    ]
  }
},
{
  "type": "Feature",
  "id": "node/3671406274",
  "properties": {
    "addr:housenumber": "17",
    "addr:street": "Rue Alfred-Vincent",
    "amenity": "clinic",
    "healthcare": "centre",
    "name": "Centre médical du Léman",
    "opening_hours": "Mo-Fr 08:00-18:00",
    "phone": "+41 22 716 06 60",
    "website": "http://www.cmleman.ch/",
    "id": "node/3671406274"
  },
  "geometry": {
    "type": "Point",
    "coordinates": [
      6.1480698,
      46.2101058
    ]
  }
},
{
  "type": "Feature",
  "id": "node/3724285344",
  "properties": {
    "amenity": "clinic",
    "name": "Dr. med. Sascha Dunst",
    "id": "node/3724285344"
  },
  "geometry": {
    "type": "Point",
    "coordinates": [
      8.0558961,
      47.3908788
    ]
  }
},
{
  "type": "Feature",
  "id": "node/3724285355",
  "properties": {
    "amenity": "clinic",
    "name": "Externer Psychiatrischer Dienst",
    "id": "node/3724285355"
  },
  "geometry": {
    "type": "Point",
    "coordinates": [
      8.0545618,
      47.3901685
    ]
  }
},
{
  "type": "Feature",
  "id": "node/3724285372",
  "properties": {
    "amenity": "clinic",
    "name": "Skinmed",
    "id": "node/3724285372"
  },
  "geometry": {
    "type": "Point",
    "coordinates": [
      8.0561052,
      47.390856
    ]
  }
},
{
  "type": "Feature",
  "id": "node/3772970125",
  "properties": {
    "addr:city": "Zürich",
    "addr:housenumber": "252",
    "addr:postcode": "8005",
    "addr:street": "Limmatstrasse",
    "amenity": "clinic",
    "healthcare": "clinic",
    "healthcare:speciality": "ophthalmology;dermatology;dermatovenereology;phlebology;plastic_surgery",
    "name": "Pallas Klinik",
    "opening_hours": "Mo-Fr 08:00-12:00, 13:00-17:00",
    "operator": "Klinik Pallas AG",
    "id": "node/3772970125"
  },
  "geometry": {
    "type": "Point",
    "coordinates": [
      8.5263966,
      47.3888334
    ]
  }
},
{
  "type": "Feature",
  "id": "node/3885979660",
  "properties": {
    "addr:city": "Wattwil",
    "addr:housenumber": "8",
    "addr:postcode": "9630",
    "addr:street": "Rietwisstrasse",
    "amenity": "clinic",
    "name": "Augenklinik",
    "id": "node/3885979660"
  },
  "geometry": {
    "type": "Point",
    "coordinates": [
      9.0909742,
      47.296845
    ]
  }
},
{
  "type": "Feature",
  "id": "node/3929478636",
  "properties": {
    "amenity": "clinic",
    "name": "Reha- und Kurklinik Eden",
    "id": "node/3929478636"
  },
  "geometry": {
    "type": "Point",
    "coordinates": [
      7.9645182,
      46.7384979
    ]
  }
},
{
  "type": "Feature",
  "id": "node/3956417840",
  "properties": {
    "addr:city": "Wattwil",
    "addr:postcode": "9630",
    "addr:street": "Bahnhofstrasse",
    "amenity": "clinic",
    "healthcare": "clinic",
    "name": "Frauenklinik Casablanca",
    "id": "node/3956417840"
  },
  "geometry": {
    "type": "Point",
    "coordinates": [
      9.0900377,
      47.297261
    ]
  }
},
{
  "type": "Feature",
  "id": "node/3978250421",
  "properties": {
    "addr:city": "Rapperswil SG",
    "addr:housenumber": "21",
    "addr:postcode": "8640",
    "addr:street": "Güterstrasse",
    "amenity": "clinic",
    "email": "klinik@rosenklinik.ch",
    "emergency": "no",
    "healthcare": "clinic",
    "healthcare:speciality": "orthopaedics;orthopaedic_surgery;abdominal_surgery;gastroenterological_surgery;vascular_surgery;thoracic_surgery;physiotherapy;radiology;Anesthesiology",
    "name": "Rosenklinik",
    "opening_hours": "Mo-Fr 08:00-12:00, 13:30-16:00",
    "phone": "+41 55 220 70 00",
    "website": "https://www.rosenklinik.ch/",
    "id": "node/3978250421"
  },
  "geometry": {
    "type": "Point",
    "coordinates": [
      8.8222097,
      47.2264223
    ]
  }
},
{
  "type": "Feature",
  "id": "node/3997648985",
  "properties": {
    "addr:city": "Aarau",
    "addr:housenumber": "4",
    "addr:street": "Bahnhofplatz",
    "amenity": "clinic",
    "healthcare": "clinic",
    "healthcare:speciality": "paediatrics",
    "name": "Kinderarzthaus",
    "id": "node/3997648985"
  },
  "geometry": {
    "type": "Point",
    "coordinates": [
      8.0517942,
      47.3919022
    ]
  }
},
{
  "type": "Feature",
  "id": "node/4016028721",
  "properties": {
    "amenity": "clinic",
    "healthcare": "clinic",
    "name": "Tageszentrum Toggenburg",
    "id": "node/4016028721"
  },
  "geometry": {
    "type": "Point",
    "coordinates": [
      9.164499,
      47.2497597
    ]
  }
},
{
  "type": "Feature",
  "id": "node/4047618128",
  "properties": {
    "amenity": "clinic",
    "name": "Sonnenhof",
    "id": "node/4047618128"
  },
  "geometry": {
    "type": "Point",
    "coordinates": [
      9.0852934,
      47.3817146
    ]
  }
},
{
  "type": "Feature",
  "id": "node/4101711789",
  "properties": {
    "addr:housenumber": "24",
    "addr:street": "Uetlibergstrasse",
    "amenity": "clinic",
    "email": "tcm@kanghua.ch",
    "internet_access": "wlan",
    "name": "Kanghua TCM&Lingua",
    "opening_hours": "Mo-Sa 08:00-19:00",
    "phone": "+41 44 536 35 53",
    "website": "http://www.kanghua.ch",
    "id": "node/4101711789"
  },
  "geometry": {
    "type": "Point",
    "coordinates": [
      8.5205204,
      47.3642808
    ]
  }
},
{
  "type": "Feature",
  "id": "node/4155008523",
  "properties": {
    "healthcare": "clinic",
    "name": "Centre Médical de Morges",
    "id": "node/4155008523"
  },
  "geometry": {
    "type": "Point",
    "coordinates": [
      6.4952819,
      46.5091805
    ]
  }
},
{
  "type": "Feature",
  "id": "node/4172945271",
  "properties": {
    "addr:city": "Lustmühle AR",
    "addr:housenumber": "12",
    "addr:postcode": "9062",
    "addr:street": "Battenhusstrasse",
    "amenity": "clinic",
    "email": "nfo@paracelsus.com",
    "healthcare": "clinic",
    "name": "Paracelsus Klinik Lustmühle",
    "operator": "Lustmühle AG",
    "phone": "+41 71 335 71 71",
    "website": "https://www.paracelsus.com/",
    "id": "node/4172945271"
  },
  "geometry": {
    "type": "Point",
    "coordinates": [
      9.3576916,
      47.3992102
    ]
  }
},
{
  "type": "Feature",
  "id": "node/4176302391",
  "properties": {
    "addr:housenumber": "369",
    "addr:street": "Schaffhauserstrasse",
    "amenity": "clinic",
    "email": "kontakt@gesundwohl-rundum.ch",
    "name": "GesundWohlRundum",
    "phone": "+41 44 310 87 87",
    "website": "http://www.gesundwohl-rundum.ch",
    "id": "node/4176302391"
  },
  "geometry": {
    "type": "Point",
    "coordinates": [
      8.5461447,
      47.4117657
    ]
  }
},
{
  "type": "Feature",
  "id": "node/4179099318",
  "properties": {
    "amenity": "clinic",
    "healthcare": "clinic",
    "name": "Permanence Unisanté du Flon",
    "opening_hours": "Mo-Sa 07:00-21:00; PH,Su 09:00-19:00",
    "operator": "Policlinique médicale et universitaire",
    "id": "node/4179099318"
  },
  "geometry": {
    "type": "Point",
    "coordinates": [
      6.629443,
      46.5210051
    ]
  }
},
{
  "type": "Feature",
  "id": "node/4179125017",
  "properties": {
    "amenity": "clinic",
    "healthcare": "clinic",
    "name": "Centre d'imagerie de Lausanne-Épalinges",
    "short_name": "CILE",
    "id": "node/4179125017"
  },
  "geometry": {
    "type": "Point",
    "coordinates": [
      6.6621512,
      46.5425264
    ]
  }
},
{
  "type": "Feature",
  "id": "node/4179125018",
  "properties": {
    "amenity": "clinic",
    "healthcare": "clinic",
    "name": "Centre médical d'Épalinges",
    "operator": "Groupe Vidy-Med",
    "id": "node/4179125018"
  },
  "geometry": {
    "type": "Point",
    "coordinates": [
      6.6621995,
      46.5425836
    ]
  }
},
{
  "type": "Feature",
  "id": "node/4190469089",
  "properties": {
    "addr:city": "Muttenz",
    "addr:housenumber": "100",
    "addr:postcode": "4132",
    "addr:street": "Kriegackerstrasse",
    "amenity": "clinic",
    "email": "info@rennbahnklinik.ch",
    "name": "Praxisklinik Rennbahn AG",
    "phone": "+41614656464",
    "website": "https://www.rennbahnklinik.ch/",
    "id": "node/4190469089"
  },
  "geometry": {
    "type": "Point",
    "coordinates": [
      7.6336823,
      47.5355036
    ]
  }
},
{
  "type": "Feature",
  "id": "node/4192650247",
  "properties": {
    "amenity": "clinic",
    "contact:addr:full": "Murtenstrasse 21, 3008 Bern",
    "contact:email": "krisenambulanz@upd.ch",
    "contact:fax": "+41 31 6328950",
    "contact:phone": "+41 31 6328811",
    "name": "UPD Kriseninterventionszentrum KIZ",
    "note": "Kriseninterventionszentrum KIZ",
    "operator": "Universitäre Psychiatrische Dienste Bern (UPD) AG",
    "website": "https://www.upd.ch/standorte/",
    "id": "node/4192650247"
  },
  "geometry": {
    "type": "Point",
    "coordinates": [
      7.4256886,
      46.9489569
    ]
  }
},
{
  "type": "Feature",
  "id": "node/4199335192",
  "properties": {
    "amenity": "clinic",
    "description": "Plastische und Ästhetische Chirurgie",
    "email": "info@kliniktiefenbrunnen.ch",
    "healthcare": "clinic",
    "healthcare:speciality": "plastic_surgery",
    "name": "Klinik Tiefenbrunnen",
    "phone": "+41 44 397 17 17",
    "website": "https://www.kliniktiefenbrunnen.ch/",
    "id": "node/4199335192"
  },
  "geometry": {
    "type": "Point",
    "coordinates": [
      8.5681466,
      47.3435979
    ]
  }
},
{
  "type": "Feature",
  "id": "node/4364402492",
  "properties": {
    "addr:housenumber": "42",
    "addr:postcode": "1206",
    "addr:street": "Avenue de Champel",
    "amenity": "clinic",
    "name": "MV Sante - Hempdialyse Code:2045",
    "phone": "+41228393474",
    "id": "node/4364402492"
  },
  "geometry": {
    "type": "Point",
    "coordinates": [
      6.1523777,
      46.18917
    ]
  }
},
{
  "type": "Feature",
  "id": "node/4393923495",
  "properties": {
    "addr:postcode": "1205",
    "amenity": "clinic",
    "name": "Clinique de la Plaine",
    "opening_hours": "Mo-Th 08:00-18:00; Fr 08:00-16:00",
    "phone": "+41225950505",
    "website": "http://www.laplaine.ch",
    "id": "node/4393923495"
  },
  "geometry": {
    "type": "Point",
    "coordinates": [
      6.1384791,
      46.2000751
    ]
  }
},
{
  "type": "Feature",
  "id": "node/4401061790",
  "properties": {
    "addr:postcode": "6900",
    "addr:street": "Via Marco da Carona",
    "amenity": "clinic",
    "name": "Casa Serena",
    "name:de": "Haus Serena",
    "name:fr": "Maison Serena",
    "name:it": "Casa Serena",
    "website": "https://www.lugano.ch/salute-servizi-sociali/anziani/case-anziani/Casa-Serena.html",
    "id": "node/4401061790"
  },
  "geometry": {
    "type": "Point",
    "coordinates": [
      8.9593139,
      46.0135403
    ]
  }
},
{
  "type": "Feature",
  "id": "node/4497868586",
  "properties": {
    "addr:city": "Niederuzwil",
    "addr:housenumber": "3",
    "addr:postcode": "9244",
    "addr:street": "Marktstrasse",
    "amenity": "clinic",
    "healthcare": "clinic",
    "name": "Uzepraxis",
    "opening_hours": "Mo,We-Fr 07:30-12:00,13:30-17:30; Tu 07:30-17:30",
    "opening_hours:covid19": "open",
    "phone": "0719550044",
    "website": "http://uzepraxis.ch/",
    "wheelchair": "yes",
    "id": "node/4497868586"
  },
  "geometry": {
    "type": "Point",
    "coordinates": [
      9.1424995,
      47.4460834
    ]
  }
},
{
  "type": "Feature",
  "id": "node/4512678989",
  "properties": {
    "addr:housenumber": "7",
    "addr:postcode": "2502",
    "addr:street": "Bahnhofstrasse",
    "amenity": "hospital",
    "healthcare": "hospital",
    "name": "Kapp Coaching Therapie",
    "phone": "+41 33 533 35 10",
    "website": "https://www.kapp.ch/",
    "id": "node/4512678989"
  },
  "geometry": {
    "type": "Point",
    "coordinates": [
      7.2435506,
      47.1341332
    ]
  }
},
{
  "type": "Feature",
  "id": "node/4540878862",
  "properties": {
    "amenity": "clinic",
    "email": "empfang@roentgenbaden.ch",
    "fax": "+41 56 222 13 16",
    "healthcare": "clinic",
    "name": "Röntgeninstitut Baden",
    "phone": "+41 56 222 12 02",
    "website": "https://www.roentgen-baden.ch/",
    "id": "node/4540878862"
  },
  "geometry": {
    "type": "Point",
    "coordinates": [
      8.3046683,
      47.4751476
    ]
  }
},
{
  "type": "Feature",
  "id": "node/4591024395",
  "properties": {
    "amenity": "clinic",
    "name": "Rehabilitationsklinik",
    "name:de": "Rehabilitationsklinik",
    "opening_hours": "24/7",
    "wheelchair": "yes",
    "id": "node/4591024395"
  },
  "geometry": {
    "type": "Point",
    "coordinates": [
      9.4264029,
      46.603916
    ]
  }
},
{
  "type": "Feature",
  "id": "node/4610527363",
  "properties": {
    "addr:housenumber": "4",
    "addr:street": "Allmendstrasse",
    "amenity": "clinic",
    "name": "Integra",
    "name:de": "Integra",
    "id": "node/4610527363"
  },
  "geometry": {
    "type": "Point",
    "coordinates": [
      8.2717242,
      47.3568544
    ]
  }
},
{
  "type": "Feature",
  "id": "node/4707791993",
  "properties": {
    "amenity": "clinic",
    "fixme": "resurvey",
    "name": "Evangelisches Pflegeheim",
    "name:de": "Evangelisches Pflegeheim",
    "id": "node/4707791993"
  },
  "geometry": {
    "type": "Point",
    "coordinates": [
      9.3950979,
      47.4420365
    ]
  }
},
{
  "type": "Feature",
  "id": "node/4734683663",
  "properties": {
    "addr:housenumber": "9b",
    "addr:street": "Bachstrasse",
    "amenity": "clinic",
    "level": "1",
    "name": "Santémed",
    "opening_hours": "Mo-Fr 08:00-19:00; PH off",
    "phone": "+41 44 800 36 36",
    "website": "https://www.santemed.ch/de/gesundheitszentren/kloten/",
    "id": "node/4734683663"
  },
  "geometry": {
    "type": "Point",
    "coordinates": [
      8.5824606,
      47.4516338
    ]
  }
},
{
  "type": "Feature",
  "id": "node/4738919421",
  "properties": {
    "amenity": "clinic",
    "contact:addr": "Bühlstrasse 19a, 3012 Bern",
    "contact:email": "soteria@soteria.ch",
    "contact:fax": "+41 31 3050661",
    "contact:phone": "+41 31 3050660",
    "contact:website": "https://www.igsbern.ch/de/soteria/index.php",
    "description:de": "Akutpsychiatrische Klinik mit Spezialisierung auf Psychosen",
    "healthcare": "clinic",
    "healthcare:speciality": "psychiatry",
    "name": "Soteria Bern",
    "opening_hours": "24/7",
    "operator": "Verein Interessengemeinschaft Sozialpsychiatrie Bern",
    "id": "node/4738919421"
  },
  "geometry": {
    "type": "Point",
    "coordinates": [
      7.4289541,
      46.9501858
    ]
  }
},
{
  "type": "Feature",
  "id": "node/4754402326",
  "properties": {
    "contact:email": "wohlen@pallas-kliniken.ch",
    "contact:fax": "+41 58 335 42 19",
    "contact:phone": "+41 58 335 00 00",
    "contact:website": "https://www.pallas-kliniken.ch/de/standorte/wohlen-5610.html",
    "healthcare": "clinic",
    "healthcare:speciality": "ophthalmology",
    "name": "Pallas Zentrum Wohlen",
    "opening_hours": "Mo-Fr 08:00-12:00,13:00-17:00",
    "id": "node/4754402326"
  },
  "geometry": {
    "type": "Point",
    "coordinates": [
      8.2724385,
      47.3472238
    ]
  }
},
{
  "type": "Feature",
  "id": "node/4761712364",
  "properties": {
    "amenity": "clinic",
    "name": "CoOperaHaus",
    "id": "node/4761712364"
  },
  "geometry": {
    "type": "Point",
    "coordinates": [
      7.4761286,
      46.9748059
    ]
  }
},
{
  "type": "Feature",
  "id": "node/4824577805",
  "properties": {
    "addr:city": "Saxon",
    "addr:housenumber": "29",
    "addr:postcode": "1907",
    "addr:street": "Route du Léman",
    "amenity": "clinic",
    "email": "info@cic-groupesante.ch",
    "healthcare": "clinic",
    "name": "Clinique CIC Saxon",
    "phone": "+41 27 743 40 40",
    "website": "http://www.cic-valais.ch",
    "id": "node/4824577805"
  },
  "geometry": {
    "type": "Point",
    "coordinates": [
      7.1641344,
      46.1438474
    ]
  }
},
{
  "type": "Feature",
  "id": "node/4834869922",
  "properties": {
    "addr:housenumber": "31",
    "addr:street": "Laubgasse",
    "amenity": "clinic",
    "healthcare": "psychotherapist",
    "name": "Clienia Psychiatriezentrum Frauenfeld",
    "website": "https://www.clienia.ch/de/standorte/standorte-ambulant/thurgau/frauenfeld",
    "id": "node/4834869922"
  },
  "geometry": {
    "type": "Point",
    "coordinates": [
      8.8897486,
      47.556486
    ]
  }
},
{
  "type": "Feature",
  "id": "node/5087016205",
  "properties": {
    "addr:city": "Winterthur",
    "addr:housenumber": "6",
    "addr:postcode": "8400",
    "addr:street": "Brunngasse",
    "amenity": "clinic",
    "name": "Eulachklinik",
    "website": "https://eulachklinik.ch/",
    "id": "node/5087016205"
  },
  "geometry": {
    "type": "Point",
    "coordinates": [
      8.7252248,
      47.5053184
    ]
  }
},
{
  "type": "Feature",
  "id": "node/5163691224",
  "properties": {
    "amenity": "clinic",
    "name": "Affidea CDRC",
    "name:fr": "Affidea CDRC",
    "id": "node/5163691224"
  },
  "geometry": {
    "type": "Point",
    "coordinates": [
      6.1430966,
      46.186585
    ]
  }
},
{
  "type": "Feature",
  "id": "node/5185924555",
  "properties": {
    "addr:city": "Schattenhalb",
    "addr:place": "Reichenbach",
    "addr:postcode": "3860",
    "amenity": "clinic",
    "healthcare": "clinic",
    "name": "Privatklinik Meiringen",
    "operator": "Privatklinik Meiringen AG",
    "operator:type": "private",
    "website": "https://www.privatklinik-meiringen.ch/",
    "id": "node/5185924555"
  },
  "geometry": {
    "type": "Point",
    "coordinates": [
      8.186882,
      46.7200303
    ]
  }
},
{
  "type": "Feature",
  "id": "node/5193024721",
  "properties": {
    "addr:housenumber": "36",
    "addr:street": "Bahnhofstrasse",
    "amenity": "clinic",
    "name": "mediX Praxis Dübendorf",
    "opening_hours": "Mo-Fr 08:00-12:00, 13:00-18:00",
    "phone": "+41 44 802 10 00",
    "id": "node/5193024721"
  },
  "geometry": {
    "type": "Point",
    "coordinates": [
      8.6202838,
      47.398379
    ]
  }
},
{
  "type": "Feature",
  "id": "node/5273646228",
  "properties": {
    "amenity": "clinic",
    "healthcare": "clinic",
    "level": "0",
    "name": "Zentrum für Reisemedizin",
    "opening_hours": "Mo 16:30-19:00; We 11:30-17:00; Th 16:30-19:00; Fr 9:00-11:00; PH off",
    "website": "https://www.ebpi.uzh.ch/de/services/travelclinic.html",
    "id": "node/5273646228"
  },
  "geometry": {
    "type": "Point",
    "coordinates": [
      8.5454394,
      47.3758735
    ]
  }
},
{
  "type": "Feature",
  "id": "node/5295841440",
  "properties": {
    "addr:city": "Biel/Bienne",
    "addr:country": "CH",
    "addr:housenumber": "32",
    "addr:postcode": "2502",
    "addr:street": "Florastrasse",
    "addr:street:fr": "Rue de Flore",
    "contact:fax": "+41 32 323 66 63",
    "contact:phone": "+41 32 323 66 88",
    "contact:website": "http://chiroplus.ch/",
    "ele": "433",
    "healthcare": "clinic",
    "healthcare:speciality": "chiropractic",
    "level": "6",
    "name": "Chiro Plus",
    "opening_hours": "Mo 08:00-12:00,14:00-18:30;Tu-We,Fr 08:00-12:00,14:00-18:00;Th,Sa-Su off",
    "wheelchair": "yes",
    "id": "node/5295841440"
  },
  "geometry": {
    "type": "Point",
    "coordinates": [
      7.2491405,
      47.1388286
    ]
  }
},
{
  "type": "Feature",
  "id": "node/5297598014",
  "properties": {
    "addr:city": "Zürich",
    "addr:housenumber": "18",
    "addr:postcode": "8004",
    "addr:street": "Kanonengasse",
    "amenity": "clinic",
    "amenity_1": "social_facility",
    "description": "Gynäkologische Sprechstunde",
    "name": "Ambulatorium Kanonengasse",
    "opening_hours": "Mo 08:30-12:00, 13:30-16:30; We-Th 08:30-12:00; Fr 08:30-12:00, 14:00-16:30",
    "operator": "Stadt Zürich, GUD",
    "phone": "+41 44 415 76 06",
    "social_facility": "ambulatory_care",
    "social_facility:for": "underprivileged",
    "website": "https://www.stadt-zuerich.ch/med",
    "id": "node/5297598014"
  },
  "geometry": {
    "type": "Point",
    "coordinates": [
      8.5296854,
      47.3775007
    ]
  }
},
{
  "type": "Feature",
  "id": "node/5297598016",
  "properties": {
    "addr:city": "Zürich",
    "addr:housenumber": "18",
    "addr:postcode": "8004",
    "addr:street": "Kanonengasse",
    "amenity": "clinic",
    "amenity_1": "social_facility",
    "description": "Allgemeinmedizinische Sprechstunde; Infektionsprävention, Spritzentausch",
    "name": "Ambulatorium Kanonengasse",
    "opening_hours": "Mo-Fr 08:00-12:30, 14:30-19:00; Sa-Su 09:30-12:30, 13:00-16:30",
    "operator": "Stadt Zürich, GUD",
    "phone": "+41 44 415 76 10",
    "social_facility": "ambulatory_care",
    "social_facility:for": "underprivileged",
    "website": "https://www.stadt-zuerich.ch/med",
    "id": "node/5297598016"
  },
  "geometry": {
    "type": "Point",
    "coordinates": [
      8.5299678,
      47.3776645
    ]
  }
},
{
  "type": "Feature",
  "id": "node/5305219959",
  "properties": {
    "addr:city": "St. Gallen",
    "addr:housenumber": "311",
    "addr:postcode": "9016",
    "addr:street": "Rorschacher Strasse",
    "amenity": "clinic",
    "healthcare": "clinic",
    "healthcare:speciality": "orthopaedics;rehabilitation",
    "name": "Oberwaid - Das Hotel. Die Klinik.",
    "phone": "+41 71 282 0700",
    "website": "https://oberwaid.ch/fuer-patienten.html",
    "id": "node/5305219959"
  },
  "geometry": {
    "type": "Point",
    "coordinates": [
      9.4201833,
      47.4513456
    ]
  }
},
{
  "type": "Feature",
  "id": "node/5316974819",
  "properties": {
    "amenity": "hospital",
    "entrance": "yes",
    "healthcare": "hospital",
    "id": "node/5316974819"
  },
  "geometry": {
    "type": "Point",
    "coordinates": [
      9.4167256,
      47.3342494
    ]
  }
},
{
  "type": "Feature",
  "id": "node/5327167859",
  "properties": {
    "contact:email": "physiotherapie.linde@hirslanden.ch",
    "contact:phone": "+41 32 366 44 34",
    "contact:website": "https://www.hirslanden.ch/de/klinik-linde/centers/physiotherapie.html",
    "healthcare": "clinic",
    "healthcare:speciality": "physiotherapist",
    "internet_access": "wlan",
    "internet_access:fee": "no",
    "name": "Physiotherapie",
    "opening_hours": "Mo-Th 07:15-19:00; Fr 07:15-17:00; Sa 09:00-12:00; Su,PH off",
    "operator": "Privatklinikgruppe Hirslanden",
    "wheelchair": "yes",
    "id": "node/5327167859"
  },
  "geometry": {
    "type": "Point",
    "coordinates": [
      7.2625433,
      47.1332493
    ]
  }
},
{
  "type": "Feature",
  "id": "node/5439720419",
  "properties": {
    "amenity": "clinic",
    "healthcare": "clinic",
    "name": "Aerztezentrum Medical Centre",
    "id": "node/5439720419"
  },
  "geometry": {
    "type": "Point",
    "coordinates": [
      7.8545481,
      46.6829917
    ]
  }
},
{
  "type": "Feature",
  "id": "node/5442377582",
  "properties": {
    "addr:city": "St. Moritz",
    "addr:housenumber": "2",
    "addr:postcode": "7500",
    "addr:street": "Plazza Paracelsus",
    "amenity": "clinic",
    "healthcare": "clinic",
    "name": "Allgemeinpsychiatrische Tagesklinik St. Moritz, Psychiatrische Dienste Graubünden",
    "opening_hours": "Mo-Fr 08:30-16:00",
    "operator": "Psychiatrische Dienste Graubünden",
    "website": "https://www.pdgr.ch/ATK-St-Moritz.775.0.html",
    "id": "node/5442377582"
  },
  "geometry": {
    "type": "Point",
    "coordinates": [
      9.8356676,
      46.483036
    ]
  }
},
{
  "type": "Feature",
  "id": "node/5461883401",
  "properties": {
    "addr:city": "Montreux",
    "addr:housenumber": "74",
    "addr:postcode": "1820",
    "addr:street": "Grand'Rue",
    "amenity": "clinic",
    "healthcare": "clinic",
    "name": "Centre Imagerie Médicale Montreux",
    "id": "node/5461883401"
  },
  "geometry": {
    "type": "Point",
    "coordinates": [
      6.909191,
      46.4362608
    ]
  }
},
{
  "type": "Feature",
  "id": "node/5462489659",
  "properties": {
    "amenity": "clinic",
    "healthcare": "clinic",
    "name": "Physio to Go",
    "id": "node/5462489659"
  },
  "geometry": {
    "type": "Point",
    "coordinates": [
      7.7532017,
      46.0233783
    ]
  }
},
{
  "type": "Feature",
  "id": "node/5507116088",
  "properties": {
    "addr:housenumber": "9",
    "addr:street": "Bleichestrasse",
    "amenity": "clinic",
    "emergency": "yes",
    "healthcare": "clinic",
    "healthcare:speciality": "psychiatry",
    "name": "Kriseninterventionszentrum KIZ",
    "operator": "Integrierte Psychiatrie Winterthur - Zürcher Unterland",
    "id": "node/5507116088"
  },
  "geometry": {
    "type": "Point",
    "coordinates": [
      8.7178599,
      47.50399
    ]
  }
},
{
  "type": "Feature",
  "id": "node/5507116089",
  "properties": {
    "addr:housenumber": "19",
    "addr:street": "Rudolfstrasse",
    "amenity": "clinic",
    "healthcare": "clinic",
    "healthcare:speciality": "psychiatry",
    "name": "IPW Akut-Tagesklinik",
    "operator": "Integrierte Psychiatrie Winterthur - Zürcher Unterland",
    "id": "node/5507116089"
  },
  "geometry": {
    "type": "Point",
    "coordinates": [
      8.7232705,
      47.5012662
    ]
  }
},
{
  "type": "Feature",
  "id": "node/5516491764",
  "properties": {
    "amenity": "clinic",
    "healthcare": "clinic",
    "healthcare:speciality": "general;ophthalmology;dermatology;cardiology;orthopaedics;plastic_surgery;urology;gynaecology;paediatrics",
    "level": "0;1;2;3",
    "name": "Schlossberg Ärztezentrum und Tagesklinik",
    "website": "https://www.schlossberg-aerztezentrum.ch/",
    "id": "node/5516491764"
  },
  "geometry": {
    "type": "Point",
    "coordinates": [
      8.8943321,
      47.5565806
    ]
  }
},
{
  "type": "Feature",
  "id": "node/5548213221",
  "properties": {
    "addr:city": "Schaffhausen",
    "addr:housenumber": "4",
    "addr:postcode": "8200",
    "addr:street": "Rheinweg",
    "amenity": "clinic",
    "healthcare": "occupational_therapist",
    "name": "Ergo Rhypark GmbH",
    "toilets:wheelchair": "yes",
    "website": "http://www.ergo-rhypark.ch/",
    "wheelchair": "yes",
    "wheelchair:description": "Mit dem Rollstuhl bitte den Seiteneingang benutzen.",
    "id": "node/5548213221"
  },
  "geometry": {
    "type": "Point",
    "coordinates": [
      8.6230709,
      47.6922524
    ]
  }
},
{
  "type": "Feature",
  "id": "node/5577858833",
  "properties": {
    "amenity": "clinic",
    "check_date:opening_hours": "2022-12-11",
    "healthcare": "clinic",
    "healthcare:speciality": "radiology",
    "level": "0",
    "name": "Röntgeninstitut Medical Imaging Luzern",
    "opening_hours:signed": "no",
    "id": "node/5577858833"
  },
  "geometry": {
    "type": "Point",
    "coordinates": [
      8.3069199,
      47.0506304
    ]
  }
},
{
  "type": "Feature",
  "id": "node/5641285832",
  "properties": {
    "addr:city": "Liestal",
    "addr:housenumber": "35",
    "addr:postcode": "4410",
    "addr:street": "Hammerstrasse",
    "amenity": "clinic",
    "health_facility:type": "office",
    "healthcare": "clinic",
    "name": "Ergolz Klinik",
    "website": "https://ergolz-klinik.ch/",
    "id": "node/5641285832"
  },
  "geometry": {
    "type": "Point",
    "coordinates": [
      7.725025,
      47.4994038
    ]
  }
},
{
  "type": "Feature",
  "id": "node/5684601351",
  "properties": {
    "amenity": "doctors",
    "email": "info@airportmedicalcenter.ch",
    "fax": "+41 43 816 56 26",
    "healthcare": "clinic",
    "healthcare:speciality": "general;orthopaedics;urology;dermatology",
    "level": "8",
    "name": "Airport Medical Center",
    "opening_hours": "Mo-Su 08:00-17:00",
    "operator": "Spital Bülach",
    "phone": "+41 43 816 60 00",
    "website": "http://www.airportmedicalcenter.ch/",
    "wheelchair": "yes",
    "id": "node/5684601351"
  },
  "geometry": {
    "type": "Point",
    "coordinates": [
      8.5632601,
      47.4523207
    ]
  }
},
{
  "type": "Feature",
  "id": "node/5797902032",
  "properties": {
    "amenity": "clinic",
    "name": "Limmatklinik",
    "operator": "NSN medical AG",
    "id": "node/5797902032"
  },
  "geometry": {
    "type": "Point",
    "coordinates": [
      8.5133966,
      47.3930186
    ]
  }
},
{
  "type": "Feature",
  "id": "node/5807037463",
  "properties": {
    "addr:city": "Meyrin",
    "addr:housenumber": "21B",
    "addr:postcode": "1217",
    "addr:street": "Rue des Lattes",
    "amenity": "clinic",
    "healthcare": "clinic",
    "name": "Centre Médical de Meyrin, CMM",
    "opening_hours": "Mo-Fr 08:00-18:00",
    "phone": "+41 22 555 40 00",
    "website": "https://cmmeyrin.ch/",
    "id": "node/5807037463"
  },
  "geometry": {
    "type": "Point",
    "coordinates": [
      6.080633,
      46.2381035
    ]
  }
},
{
  "type": "Feature",
  "id": "node/5807037465",
  "properties": {
    "addr:city": "Meyrin",
    "addr:housenumber": "24",
    "addr:postcode": "1217",
    "addr:street": "Promenade des Artisans",
    "amenity": "clinic",
    "healthcare": "clinic",
    "healthcare:speciality": "radiology",
    "name": "X-Ray SA",
    "opening_hours": "Mo-Fr 08:00-18:45",
    "phone": "+41 22 782 58 48",
    "website": "https://xray-radiologie.ch",
    "id": "node/5807037465"
  },
  "geometry": {
    "type": "Point",
    "coordinates": [
      6.079497,
      46.238121
    ]
  }
},
{
  "type": "Feature",
  "id": "node/5834404647",
  "properties": {
    "addr:housenumber": "5",
    "addr:street": "Dorfplatz",
    "amenity": "clinic",
    "healthcare": "clinic",
    "name": "Alpstein Clinic AG",
    "id": "node/5834404647"
  },
  "geometry": {
    "type": "Point",
    "coordinates": [
      9.453312,
      47.3622391
    ]
  }
},
{
  "type": "Feature",
  "id": "node/5835082566",
  "properties": {
    "addr:city": "Bern",
    "addr:housenumber": "19",
    "addr:postcode": "3010",
    "addr:street": "Friedbühlstrasse",
    "amenity": "clinic",
    "contact:fax": "+41 316321015",
    "contact:phone": "+41 316321010",
    "contact:website": "http://www.frauenheilkunde.insel.ch/",
    "healthcare": "clinic",
    "healthcare:speciality": "gynaecology",
    "name": "Universitätsklinik für Frauenheilkunde",
    "old_name": "Frauenspital Bern",
    "opening_hours": "24/7",
    "operator": "Insel Gruppe AG",
    "wheelchair": "yes",
    "id": "node/5835082566"
  },
  "geometry": {
    "type": "Point",
    "coordinates": [
      7.4226969,
      46.9485466
    ]
  }
},
{
  "type": "Feature",
  "id": "node/5935751485",
  "properties": {
    "amenity": "clinic",
    "email": "tagesklinik@spitalfmi.ch",
    "healthcare": "clinic",
    "healthcare:speciality": "psychiatry",
    "name": "Tagesklinik FMI",
    "name:de": "Tagesklinik FMI",
    "website": "https://www.spitalfmi.ch/psychiatrie/standortebereiche/psychiatrische-tagesklinik/",
    "id": "node/5935751485"
  },
  "geometry": {
    "type": "Point",
    "coordinates": [
      7.8436437,
      46.6872778
    ]
  }
},
{
  "type": "Feature",
  "id": "node/5948824485",
  "properties": {
    "amenity": "clinic",
    "contact:addr": "Althaus, Bolligenstrasse 141, 3072 Ostermundigen",
    "contact:email": "nzkp.ambulant@upd.ch",
    "contact:phone": "+41 31 9309996",
    "name": "Notfallzentrum Kinder- Jugendpsychiatrie - NZKJP",
    "opening_hours": "24/7",
    "operator": "UPD AG",
    "short_name": "NZKP",
    "website": "https://www.upd.ch/de/angebot/kinder-und-jugendpsychiatrie/notfallzentrum-nzkjp.php",
    "id": "node/5948824485"
  },
  "geometry": {
    "type": "Point",
    "coordinates": [
      7.4838466,
      46.967327
    ]
  }
},
{
  "type": "Feature",
  "id": "node/5954425430",
  "properties": {
    "addr:city": "Lungern",
    "addr:housenumber": "69",
    "addr:postcode": "6078",
    "addr:street": "Brünigstrasse",
    "amenity": "doctors",
    "emergency": "no",
    "healthcare": "hospital",
    "healthcare:speciality": "general",
    "name": "Praxis Dr. Tolouei",
    "operator": "Mir Tolouei M. Reza",
    "phone": "+41 41 678 18 69",
    "wheelchair": "yes",
    "id": "node/5954425430"
  },
  "geometry": {
    "type": "Point",
    "coordinates": [
      8.1604844,
      46.7878415
    ]
  }
},
{
  "type": "Feature",
  "id": "node/6058199351",
  "properties": {
    "amenity": "clinic",
    "contact:addr:full": "Murtenstrasse 21, 3008 Bern",
    "contact:email": "MemoryClinic@upd.ch",
    "contact:fax": "+41 31 6328950",
    "contact:phone": "+41 31 6324633",
    "name": "UPD Interdisziplinäre Memory Clinic IDMC",
    "note": "Interdisziplinäre Memory Clinic IDMC",
    "operator": "Universitäre Psychiatrische Dienste Bern (UPD) AG",
    "website": "https://www.upd.ch/standorte/",
    "id": "node/6058199351"
  },
  "geometry": {
    "type": "Point",
    "coordinates": [
      7.4258642,
      46.9488356
    ]
  }
},
{
  "type": "Feature",
  "id": "node/6175372679",
  "properties": {
    "amenity": "clinic",
    "healthcare": "clinic",
    "name": "Privat-Klinik im Park",
    "id": "node/6175372679"
  },
  "geometry": {
    "type": "Point",
    "coordinates": [
      8.166629,
      47.4581376
    ]
  }
},
{
  "type": "Feature",
  "id": "node/6295834100",
  "properties": {
    "amenity": "clinic",
    "contact:addr": "Gutenbergstrasse 18, 3011 Bern",
    "contact:email": "info@augenzentrum-gutenberg.ch",
    "contact:fax": "+41 31 3117322",
    "contact:phone": "+41 31 3116022",
    "contact:website": "https://www.augenzentrum-gutenberg.ch/index.php/kontakt2",
    "healthcare": "clinic",
    "healthcare:speciality": "ophthalmology",
    "name": "Augen Zentrum Gutenberg",
    "operator": "Augen Zentrum Gutenberg AG",
    "source": "survey and website",
    "website": "https://www.augenzentrum-gutenberg.ch",
    "id": "node/6295834100"
  },
  "geometry": {
    "type": "Point",
    "coordinates": [
      7.4348287,
      46.9445614
    ]
  }
},
{
  "type": "Feature",
  "id": "node/6295834101",
  "properties": {
    "amenity": "clinic",
    "contact:addr": "Gutenbergstrasse 18, 3011 Bern",
    "contact:email": "info@augenzentrum-fankhauser.ch",
    "contact:fax": "+41 31 3019881",
    "contact:phone": "+41 31 3019880",
    "contact:website": "https://www.augenzentrum-fankhauser.ch/index.php/kontakt2",
    "healthcare": "clinic",
    "healthcare:speciality": "ophthalmology",
    "name": "Augen Zentrum Prof. Fankhauser",
    "operator": "Augen Zentrum Fankhauser AG",
    "source": "survey and website",
    "website": "https://www.augenzentrum-fankhauser.ch",
    "id": "node/6295834101"
  },
  "geometry": {
    "type": "Point",
    "coordinates": [
      7.4347504,
      46.9444648
    ]
  }
},
{
  "type": "Feature",
  "id": "node/6310537835",
  "properties": {
    "amenity": "clinic",
    "healthcare": "clinic",
    "healthcare:speciality": "general;internal",
    "name": "Klinik für Allgemeine Innere Medizin/Hausarztmedizin",
    "phone": "+41 71 494 10 02",
    "website": "https://www.kssg.ch/aim",
    "id": "node/6310537835"
  },
  "geometry": {
    "type": "Point",
    "coordinates": [
      9.3857306,
      47.4308199
    ]
  }
},
{
  "type": "Feature",
  "id": "node/6310537845",
  "properties": {
    "amenity": "clinic",
    "healthcare": "clinic",
    "healthcare:speciality": "gastroenterology",
    "name": "Klinik für Gastroenterologie/ Hepatologie",
    "phone": "+41 71 494 10 65",
    "website": "https://www.kssg.ch/gastroenterologie-hepatologie",
    "id": "node/6310537845"
  },
  "geometry": {
    "type": "Point",
    "coordinates": [
      9.3875653,
      47.4300234
    ]
  }
},
{
  "type": "Feature",
  "id": "node/6316596968",
  "properties": {
    "addr:city": "Feuerthalen",
    "addr:housenumber": "103",
    "addr:postcode": "8245",
    "addr:street": "Zürcherstrasse",
    "amenity": "clinic",
    "healthcare": "clinic",
    "healthcare:speciality": "chinese_medicine;traditional_chinese_medicine",
    "level": "1,_Aufzug_2",
    "name": "TCM Li Nan",
    "operator": "Li Nan",
    "id": "node/6316596968"
  },
  "geometry": {
    "type": "Point",
    "coordinates": [
      8.6361385,
      47.6905762
    ]
  }
},
{
  "type": "Feature",
  "id": "node/6346720475",
  "properties": {
    "addr:city": "Weissbad",
    "addr:housenumber": "1",
    "addr:postcode": "9057",
    "addr:street": "Im Park",
    "amenity": "clinic",
    "email": "praxis@klinikimhof.ch",
    "healthcare": "rehabilitation",
    "name": "Klinik im Hof Nachbehandlungszentrum",
    "phone": "+41 71 798 80 80",
    "website": "https://klinikimhof.ch/",
    "id": "node/6346720475"
  },
  "geometry": {
    "type": "Point",
    "coordinates": [
      9.4331366,
      47.3094656
    ]
  }
},
{
  "type": "Feature",
  "id": "node/6393546690",
  "properties": {
    "addr:city": "Wetzikon",
    "addr:housenumber": "196",
    "addr:postcode": "8620",
    "addr:street": "Bahnhofstrasse",
    "alt_name": "PZW Clienia Wetzikon",
    "amenity": "clinic",
    "email": "info.pzw@clienia.ch",
    "healthcare": "clinic",
    "healthcare:speciality": "psychiatry",
    "name": "Clienia Psychiatriezentrum Wetzikon",
    "operator": "Clienia Schlössli AG",
    "phone": "+41 44 931 39 39",
    "website": "https://www.clienia.ch/de/standorte/standorte-ambulant/zuerich/wetzikon",
    "id": "node/6393546690"
  },
  "geometry": {
    "type": "Point",
    "coordinates": [
      8.8017852,
      47.3272883
    ]
  }
},
{
  "type": "Feature",
  "id": "node/6395624435",
  "properties": {
    "addr:city": "Kilchberg (ZH)",
    "addr:housenumber": "60",
    "addr:postcode": "8802",
    "addr:street": "Grütstrasse",
    "amenity": "clinic",
    "healthcare": "clinic",
    "healthcare:speciality": "radiology",
    "name": "RODIAG Diagnostic Centers Röntgeninstitut",
    "operator": "Rodiag AG",
    "phone": "+41 43 377 40 80",
    "website": "http://www.rodiag.ch",
    "id": "node/6395624435"
  },
  "geometry": {
    "type": "Point",
    "coordinates": [
      8.5361311,
      47.3198844
    ]
  }
},
{
  "type": "Feature",
  "id": "node/6431144287",
  "properties": {
    "amenity": "clinic",
    "name": "Opera Mater Christi",
    "id": "node/6431144287"
  },
  "geometry": {
    "type": "Point",
    "coordinates": [
      9.1447677,
      46.2495282
    ]
  }
},
{
  "type": "Feature",
  "id": "node/6431162085",
  "properties": {
    "amenity": "clinic",
    "name": "Clinica delle Rose",
    "id": "node/6431162085"
  },
  "geometry": {
    "type": "Point",
    "coordinates": [
      9.1441871,
      46.2473146
    ]
  }
},
{
  "type": "Feature",
  "id": "node/6431334438",
  "properties": {
    "addr:housenumber": "23",
    "addr:street": "Richtiarkade",
    "amenity": "clinic",
    "name": "In-Motion",
    "website": "https://www.in-motion.ch/",
    "id": "node/6431334438"
  },
  "geometry": {
    "type": "Point",
    "coordinates": [
      8.5971041,
      47.4099418
    ]
  }
},
{
  "type": "Feature",
  "id": "node/6516560674",
  "properties": {
    "addr:city": "Zürich",
    "addr:housenumber": "62",
    "addr:postcode": "8005",
    "addr:street": "Konradstrasse",
    "amenity": "clinic",
    "check_date:opening_hours": "2022-09-20",
    "email": "info@swsieber.ch",
    "healthcare": "clinic",
    "name": "Fachspital Sune-Egge",
    "opening_hours:signed": "no",
    "operator": "Sozialwerk Pfarrer Sieber",
    "website": "https://www.swsieber.ch/was-wir-tun/betreuen/fachspital/",
    "id": "node/6516560674"
  },
  "geometry": {
    "type": "Point",
    "coordinates": [
      8.5341592,
      47.3817175
    ]
  }
},
{
  "type": "Feature",
  "id": "node/6945957071",
  "properties": {
    "addr:housenumber": "5",
    "addr:street": "route du Pâqui",
    "amenity": "clinic",
    "healthcare": "clinic",
    "healthcare:speciality": "general",
    "name": "Centre médical Tholos",
    "id": "node/6945957071"
  },
  "geometry": {
    "type": "Point",
    "coordinates": [
      7.110383,
      46.8121353
    ]
  }
},
{
  "type": "Feature",
  "id": "node/6990345009",
  "properties": {
    "amenity": "clinic",
    "healthcare": "clinic",
    "healthcare:speciality": "plastic_surgery",
    "level": "1",
    "name": "Clinic Plastica",
    "operator": "Clinic Plastica",
    "website": "https://www.plastica.ch/",
    "id": "node/6990345009"
  },
  "geometry": {
    "type": "Point",
    "coordinates": [
      8.7220852,
      47.4997002
    ]
  }
},
{
  "type": "Feature",
  "id": "node/6990883228",
  "properties": {
    "amenity": "clinic",
    "description": "A 20 minutes de Neuchâtel et moins d'une heure de Delémont, Bienne et Yverdon, nous sommes un établissement privé situé au cœur de l'arc jurassien. Avec près de 2000 interventions par année, la chirurgie est notre mission première.",
    "healthcare": "clinic",
    "name": "Clinique de La Tour",
    "id": "node/6990883228"
  },
  "geometry": {
    "type": "Point",
    "coordinates": [
      6.8264647,
      47.0996235
    ]
  }
},
{
  "type": "Feature",
  "id": "node/7044143562",
  "properties": {
    "amenity": "clinic",
    "healthcare": "clinic",
    "name": "ARUD Zentrum für Suchtmedizin",
    "id": "node/7044143562"
  },
  "geometry": {
    "type": "Point",
    "coordinates": [
      8.5374707,
      47.3769637
    ]
  }
},
{
  "type": "Feature",
  "id": "node/7112617732",
  "properties": {
    "amenity": "clinic",
    "contact:facebook": "https://www.facebook.com/Centre.Douleur.Riviera/",
    "healthcare": "clinic",
    "name": "Centre de la douleur",
    "phone": "+41 21 923 3848",
    "website": "https://www.centredouleur.net/",
    "id": "node/7112617732"
  },
  "geometry": {
    "type": "Point",
    "coordinates": [
      6.8439147,
      46.4601227
    ]
  }
},
{
  "type": "Feature",
  "id": "node/7177682374",
  "properties": {
    "amenity": "clinic",
    "name": "Ärztezentrum Lorze",
    "operator": "Hirslanden Andreasklinik",
    "id": "node/7177682374"
  },
  "geometry": {
    "type": "Point",
    "coordinates": [
      8.4597326,
      47.1811463
    ]
  }
},
{
  "type": "Feature",
  "id": "node/7207641262",
  "properties": {
    "amenity": "clinic",
    "name": "Zürcher Lighthouse",
    "operator": "Stiftung Zürcher Lighthouse",
    "website": "https://www.zuercher-lighthouse.ch",
    "id": "node/7207641262"
  },
  "geometry": {
    "type": "Point",
    "coordinates": [
      8.5636559,
      47.367141
    ]
  }
},
{
  "type": "Feature",
  "id": "node/7218263338",
  "properties": {
    "addr:city": "Basel",
    "addr:housenumber": "144",
    "addr:postcode": "4052",
    "addr:street": "Gellertstrasse",
    "amenity": "clinic",
    "email": "orthopaedie-klinik@usb.ch",
    "fax": "+41 61 265 36 29",
    "healthcare": "clinic",
    "healthcare:speciality": "orthopaedics",
    "level": "0",
    "name": "Orthopädie Klinik am Bethesda Spital",
    "operator": "Universitätsspital Basel",
    "operator:type": "public",
    "phone": "+41 61 315 25 20",
    "website": "https://orthopaedie-klinik.usb.ch",
    "id": "node/7218263338"
  },
  "geometry": {
    "type": "Point",
    "coordinates": [
      7.6167976,
      47.5477715
    ]
  }
},
{
  "type": "Feature",
  "id": "node/7241813240",
  "properties": {
    "addr:city": "Basel",
    "addr:housenumber": "144",
    "addr:postcode": "4052",
    "addr:street": "Gellertstrasse",
    "amenity": "clinic",
    "email": "radiologie@bethesda-spital.ch",
    "healthcare": "clinic",
    "healthcare:speciality": "radiology",
    "level": "-1",
    "name": "Radiologie",
    "opening_hours": "Mo-Fr 07:30-17:30",
    "phone": "+41 61 315 22 77",
    "id": "node/7241813240"
  },
  "geometry": {
    "type": "Point",
    "coordinates": [
      7.6171229,
      47.5476037
    ]
  }
},
{
  "type": "Feature",
  "id": "node/7315912473",
  "properties": {
    "addr:city": "Dielsdorf",
    "addr:housenumber": "11",
    "addr:postcode": "8157",
    "addr:street": "Breitestrasse",
    "amenity": "hospital",
    "healthcare": "hospital",
    "name": "ADUS Klinik",
    "phone": "+41 44 854 64 90",
    "website": "https://www.adus-klinik.ch/",
    "wheelchair": "yes",
    "id": "node/7315912473"
  },
  "geometry": {
    "type": "Point",
    "coordinates": [
      8.4512043,
      47.4785723
    ]
  }
},
{
  "type": "Feature",
  "id": "node/7315952092",
  "properties": {
    "amenity": "hospital",
    "healthcare": "hospital",
    "name": "Adullam Spital und Pflegezentren",
    "id": "node/7315952092"
  },
  "geometry": {
    "type": "Point",
    "coordinates": [
      7.5796527,
      47.5601759
    ]
  }
},
{
  "type": "Feature",
  "id": "node/7316166708",
  "properties": {
    "addr:city": "La Tène",
    "addr:postcode": "2074",
    "addr:street": "Prefargier",
    "amenity": "hospital",
    "healthcare": "hospital",
    "healthcare:speciality": "psychiatry",
    "name": "Centre neuchâtelois de psychiatrie CNP",
    "id": "node/7316166708"
  },
  "geometry": {
    "type": "Point",
    "coordinates": [
      7.0078594,
      47.0058977
    ]
  }
},
{
  "type": "Feature",
  "id": "node/7316172905",
  "properties": {
    "addr:city": "Orselina",
    "addr:housenumber": "38",
    "addr:postcode": "6644",
    "addr:street": "Via Consiglio Mezzano",
    "amenity": "clinic",
    "healthcare": "clinic",
    "name": "Clinica Fondazione Varini",
    "website": "https://www.clinicavarini.ch/",
    "id": "node/7316172905"
  },
  "geometry": {
    "type": "Point",
    "coordinates": [
      8.799939,
      46.1775397
    ]
  }
},
{
  "type": "Feature",
  "id": "node/7316175569",
  "properties": {
    "addr:city": "Brissago",
    "addr:housenumber": "18",
    "addr:postcode": "6614",
    "addr:street": "Via Crodolo",
    "amenity": "clinic",
    "healthcare": "clinic",
    "name": "Clinica Hildebrand",
    "id": "node/7316175569"
  },
  "geometry": {
    "type": "Point",
    "coordinates": [
      8.7144765,
      46.1239811
    ]
  }
},
{
  "type": "Feature",
  "id": "node/7316260930",
  "properties": {
    "addr:city": "Pregassona",
    "addr:housenumber": "34b",
    "addr:postcode": "6963",
    "addr:street": "Via Ceresio",
    "amenity": "clinic",
    "healthcare": "clinic",
    "healthcare:speciality": "psychiatry",
    "name": "Clinica Viarnetto",
    "website": "https://www.clinicaviarnetto.ch/",
    "id": "node/7316260930"
  },
  "geometry": {
    "type": "Point",
    "coordinates": [
      8.9652586,
      46.0199735
    ]
  }
},
{
  "type": "Feature",
  "id": "node/7316900169",
  "properties": {
    "addr:city": "Gunten",
    "addr:housenumber": "40",
    "addr:postcode": "3654",
    "addr:street": "Schönbergstrasse",
    "amenity": "clinic",
    "healthcare": "clinic",
    "name": "Restaurant / Hotel / Rehaklinik Schönberg",
    "website": "https://schoenberg.ch/",
    "id": "node/7316900169"
  },
  "geometry": {
    "type": "Point",
    "coordinates": [
      7.6989955,
      46.7146006
    ]
  }
},
{
  "type": "Feature",
  "id": "node/7316926268",
  "properties": {
    "addr:city": "Biel/Bienne",
    "addr:housenumber": "24",
    "addr:postcode": "2504",
    "addr:street": "Rue de Gottstatt / Gottstattstrasse",
    "amenity": "clinic",
    "healthcare": "yes",
    "name": "Klinik Piano",
    "website": "http://www.klinikpiano.ch/",
    "id": "node/7316926268"
  },
  "geometry": {
    "type": "Point",
    "coordinates": [
      7.265956,
      47.1442363
    ]
  }
},
{
  "type": "Feature",
  "id": "node/7317076196",
  "properties": {
    "addr:city": "Rheinfelden",
    "addr:housenumber": "19",
    "addr:postcode": "4310",
    "addr:street": "Bahnhofstrasse",
    "amenity": "clinic",
    "healthcare": "clinic",
    "name": "Klinik Schützen Rheinfelden",
    "website": "https://www.klinikschuetzen.ch/",
    "id": "node/7317076196"
  },
  "geometry": {
    "type": "Point",
    "coordinates": [
      7.7923915,
      47.5531386
    ]
  }
},
{
  "type": "Feature",
  "id": "node/7317147521",
  "properties": {
    "addr:city": "Rheinfelden",
    "addr:housenumber": "31",
    "addr:postcode": "4310",
    "addr:street": "Roberstenstrasse",
    "amenity": "clinic",
    "healthcare": "clinic",
    "name": "Salina Rehaklinik",
    "phone": "+41 61 836 66 66",
    "website": "https://www.salina-reha.ch/de/rehaklinik/",
    "id": "node/7317147521"
  },
  "geometry": {
    "type": "Point",
    "coordinates": [
      7.7995346,
      47.5588776
    ]
  }
},
{
  "type": "Feature",
  "id": "node/7317160637",
  "properties": {
    "addr:city": "Gontenschwil",
    "addr:housenumber": "837",
    "addr:postcode": "5728",
    "addr:street": "Hasel",
    "amenity": "clinic",
    "healthcare": "clinic",
    "name": "Klinik Im Hasel",
    "website": "http://www.klinikimhasel.ch/",
    "id": "node/7317160637"
  },
  "geometry": {
    "type": "Point",
    "coordinates": [
      8.1228707,
      47.2669639
    ]
  }
},
{
  "type": "Feature",
  "id": "node/7317185391",
  "properties": {
    "addr:city": "Basel",
    "addr:housenumber": "151",
    "addr:postcode": "4052",
    "addr:street": "St. Alban-Ring",
    "amenity": "clinic",
    "healthcare": "clinic",
    "name": "Palliativzentrum Hildegard",
    "website": "https://www.pzhi.ch/",
    "id": "node/7317185391"
  },
  "geometry": {
    "type": "Point",
    "coordinates": [
      7.6108859,
      47.550274
    ]
  }
},
{
  "type": "Feature",
  "id": "node/7317207089",
  "properties": {
    "addr:city": "Acquarossa",
    "addr:postcode": "6716",
    "addr:street": "Casella Postale",
    "amenity": "clinic",
    "healthcare": "clinic",
    "name": "Ospedale Regionale di Bellinzona e Valli - Acquarossa",
    "website": "https://www.eoc.ch/",
    "id": "node/7317207089"
  },
  "geometry": {
    "type": "Point",
    "coordinates": [
      8.939368,
      46.4526747
    ]
  }
},
{
  "type": "Feature",
  "id": "node/7317212529",
  "properties": {
    "addr:city": "Castaneda",
    "addr:housenumber": "53",
    "addr:postcode": "6540",
    "addr:street": "Al Ronc",
    "amenity": "clinic",
    "healthcare": "clinic",
    "name": "Swiss Mountain Clinic AG (formerly Paracelsus Clinica al Ronc)",
    "website": "https://www.swissmountainclinic.com/",
    "id": "node/7317212529"
  },
  "geometry": {
    "type": "Point",
    "coordinates": [
      9.1376014,
      46.2591924
    ]
  }
},
{
  "type": "Feature",
  "id": "node/7317228637",
  "properties": {
    "addr:city": "Herisau",
    "addr:postcode": "9100",
    "addr:street": "Krombach",
    "amenity": "clinic",
    "healthcare": "clinic",
    "name": "Psychiatrisches Zentrum AR",
    "website": "https://www.spitalverbund.ch/pza/home-pza/",
    "id": "node/7317228637"
  },
  "geometry": {
    "type": "Point",
    "coordinates": [
      9.2636346,
      47.3861695
    ]
  }
},
{
  "type": "Feature",
  "id": "node/7317240072",
  "properties": {
    "addr:city": "Chur",
    "addr:housenumber": "2",
    "addr:postcode": "7000",
    "addr:street": "Masanserstrasse",
    "amenity": "clinic",
    "healthcare": "clinic",
    "website": "http://www.zetup.ch/",
    "id": "node/7317240072"
  },
  "geometry": {
    "type": "Point",
    "coordinates": [
      9.5346512,
      46.8517665
    ]
  }
},
{
  "type": "Feature",
  "id": "node/7317240624",
  "properties": {
    "addr:city": "Bellelay",
    "addr:housenumber": "2",
    "addr:postcode": "2713",
    "addr:street": "L'Abbaye",
    "amenity": "clinic",
    "healthcare": "clinic",
    "healthcare:speciality": "psychiatry",
    "name": "Hôpital du jura bernois",
    "website": "https://sante-mentale.ch/",
    "id": "node/7317240624"
  },
  "geometry": {
    "type": "Point",
    "coordinates": [
      7.1690124,
      47.2634576
    ]
  }
},
{
  "type": "Feature",
  "id": "node/7317240625",
  "properties": {
    "addr:city": "Basel",
    "addr:housenumber": "11",
    "addr:postcode": "4010",
    "addr:street": "Hirschgässlein",
    "amenity": "clinic",
    "healthcare": "clinic",
    "name": "Schmerzklinik Basel",
    "website": "https://www.schmerzklinik.ch/",
    "id": "node/7317240625"
  },
  "geometry": {
    "type": "Point",
    "coordinates": [
      7.5933039,
      47.5511046
    ]
  }
},
{
  "type": "Feature",
  "id": "node/7317249753",
  "properties": {
    "addr:city": "Diessenhofen",
    "addr:postcode": "8253",
    "addr:street": "St. Katharinental",
    "amenity": "clinic",
    "healthcare": "clinic",
    "name": "Klinik St. Katharinental",
    "website": "https://www.stgag.ch/",
    "wikidata": "Q27480018",
    "id": "node/7317249753"
  },
  "geometry": {
    "type": "Point",
    "coordinates": [
      8.7379617,
      47.6910919
    ]
  }
},
{
  "type": "Feature",
  "id": "node/7317277717",
  "properties": {
    "addr:city": "Binningen",
    "addr:housenumber": "55",
    "addr:postcode": "4102",
    "addr:street": "Hauptstrasse",
    "amenity": "clinic",
    "healthcare": "clinic",
    "healthcare:speciality": "optometry",
    "name": "Vista Clinic",
    "website": "https://vista.ch/augenklinik/vista-klinik-binningen/",
    "wikidata": "Q50039865",
    "id": "node/7317277717"
  },
  "geometry": {
    "type": "Point",
    "coordinates": [
      7.574842,
      47.5422375
    ]
  }
},
{
  "type": "Feature",
  "id": "node/7330107273",
  "properties": {
    "amenity": "clinic",
    "healthcare": "clinic",
    "healthcare:speciality": "psychiatry",
    "name": "Clinique du Grand-Salève",
    "website": "https://www.grand-saleve.ch/",
    "id": "node/7330107273"
  },
  "geometry": {
    "type": "Point",
    "coordinates": [
      6.1825446,
      46.1675746
    ]
  }
},
{
  "type": "Feature",
  "id": "node/7330134187",
  "properties": {
    "amenity": "clinic",
    "healthcare": "clinic",
    "healthcare:speciality": "rehabilitation",
    "name": "Clinique Bois-Bougy",
    "website": "https://www.bois-bougy.ch/",
    "id": "node/7330134187"
  },
  "geometry": {
    "type": "Point",
    "coordinates": [
      6.2293361,
      46.3757181
    ]
  }
},
{
  "type": "Feature",
  "id": "node/7333650641",
  "properties": {
    "addr:city": "Ringgenberg BE",
    "addr:housenumber": "11",
    "addr:postcode": "3852",
    "addr:street": "Schulhausweg",
    "amenity": "clinic",
    "healthcare": "clinic",
    "name": "Reha­Pflegeklinik Eden",
    "website": "https://www.reha-pflegeklinik.ch/",
    "id": "node/7333650641"
  },
  "geometry": {
    "type": "Point",
    "coordinates": [
      7.8928054,
      46.6999785
    ]
  }
},
{
  "type": "Feature",
  "id": "node/7338512750",
  "properties": {
    "addr:city": "Luzern",
    "addr:housenumber": "1",
    "addr:postcode": "6000",
    "addr:street": "Sonnmatt",
    "amenity": "clinic",
    "email": "luzern@zurzachcare.ch",
    "healthcare": "clinic",
    "name": "ZURZACHCare - Rehaklinik Sonnmatt Luzern",
    "operator": "ZURZACH Care AG",
    "phone": "+41 41 375 67 00",
    "website": "https://www.zurzachcare.ch/sonnmatt-luzern",
    "id": "node/7338512750"
  },
  "geometry": {
    "type": "Point",
    "coordinates": [
      8.3483114,
      47.0598729
    ]
  }
},
{
  "type": "Feature",
  "id": "node/7338724760",
  "properties": {
    "amenity": "clinic",
    "healthcare": "rehabilitation",
    "healthcare:speciality": "neurology",
    "name": "Cereneo",
    "operator": "cereneo Schweiz AG",
    "website": "https://www.cereneo.ch/",
    "id": "node/7338724760"
  },
  "geometry": {
    "type": "Point",
    "coordinates": [
      8.4783741,
      47.0148374
    ]
  }
},
{
  "type": "Feature",
  "id": "node/7340848052",
  "properties": {
    "addr:city": "St. Gallen",
    "addr:housenumber": "26",
    "addr:postcode": "9000",
    "addr:street": "Teufener Strasse",
    "amenity": "clinic",
    "healthcare": "clinic",
    "healthcare:speciality": "psychiatry",
    "name": "Psychiatrie St. Gallen Nord",
    "id": "node/7340848052"
  },
  "geometry": {
    "type": "Point",
    "coordinates": [
      9.3697656,
      47.4194847
    ]
  }
},
{
  "type": "Feature",
  "id": "node/7383484724",
  "properties": {
    "addr:city": "Sembrancher",
    "addr:housenumber": "14",
    "addr:postcode": "1933",
    "addr:street": "Route de la Gravenne",
    "amenity": "hospital",
    "emergency": "yes",
    "healthcare": "hospital",
    "healthcare:speciality": "general",
    "name": "Maison de la Santé de la Gravenne",
    "operator": "Médidranses",
    "operator:type": "public",
    "website": "https://www.medidranse.ch/",
    "wheelchair": "yes",
    "id": "node/7383484724"
  },
  "geometry": {
    "type": "Point",
    "coordinates": [
      7.1462937,
      46.0780451
    ]
  }
},
{
  "type": "Feature",
  "id": "node/7472080008",
  "properties": {
    "amenity": "clinic",
    "healthcare": "clinic",
    "name": "Poliklinik Lifeline",
    "id": "node/7472080008"
  },
  "geometry": {
    "type": "Point",
    "coordinates": [
      8.5451124,
      47.3756202
    ]
  }
},
{
  "type": "Feature",
  "id": "node/7505372397",
  "properties": {
    "amenity": "clinic",
    "healthcare": "clinic",
    "name": "RivieraClinic",
    "id": "node/7505372397"
  },
  "geometry": {
    "type": "Point",
    "coordinates": [
      6.8514771,
      46.4573897
    ]
  }
},
{
  "type": "Feature",
  "id": "node/7587836147",
  "properties": {
    "addr:city": "Leukerbad",
    "addr:housenumber": "14",
    "addr:postcode": "3954",
    "addr:street": "Grunibodenstrasse",
    "amenity": "hospital",
    "healthcare": "hospital",
    "name": "Leukerbad Holiday Home",
    "website": "https://www.leukerbad-holiday.com/de",
    "id": "node/7587836147"
  },
  "geometry": {
    "type": "Point",
    "coordinates": [
      7.6267888,
      46.3823532
    ]
  }
},
{
  "type": "Feature",
  "id": "node/7772509442",
  "properties": {
    "addr:city": "Winterthur",
    "addr:housenumber": "63",
    "addr:postcode": "8400",
    "addr:street": "Haldenstrasse",
    "amenity": "clinic",
    "healthcare": "clinic",
    "healthcare:speciality": "psychiatry",
    "name": "Psychiatrische Poliklinik",
    "operator": "Integrierte Psychiatrie Winterthur – Zürcher Unterland (IPW)",
    "operator:type": "public",
    "id": "node/7772509442"
  },
  "geometry": {
    "type": "Point",
    "coordinates": [
      8.7301794,
      47.5069864
    ]
  }
},
{
  "type": "Feature",
  "id": "node/7772509443",
  "properties": {
    "amenity": "clinic",
    "healthcare": "clinic",
    "healthcare:speciality": "covid19",
    "name": "Covid-19-Testzentrum",
    "opening_hours": "Mo-Su 08:00-12:00, 13:00-16:00",
    "opening_hours:covid19": "open",
    "operator": "Kantonsspital Winterthur (KSW)",
    "operator:type": "public",
    "website": "https://www.ksw.ch/aufenthalt-besuch/coronavirus-covid-19/testzentrum-ksw/",
    "id": "node/7772509443"
  },
  "geometry": {
    "type": "Point",
    "coordinates": [
      8.7266142,
      47.5079658
    ]
  }
},
{
  "type": "Feature",
  "id": "node/7772509445",
  "properties": {
    "addr:city": "Winterthur",
    "addr:housenumber": "24",
    "addr:postcode": "8400",
    "addr:street": "Albanistrasse",
    "amenity": "clinic",
    "healthcare": "clinic",
    "healthcare:speciality": "paediatrics",
    "name": "Sozialpädiatrisches Zentrum SPZ",
    "id": "node/7772509445"
  },
  "geometry": {
    "type": "Point",
    "coordinates": [
      8.7321842,
      47.5060051
    ]
  }
},
{
  "type": "Feature",
  "id": "node/8158697429",
  "properties": {
    "addr:city": "Biel/Bienne",
    "addr:housenumber": "7",
    "addr:postcode": "2502",
    "addr:street": "Rue de la Gare / Bahnhofstrasse",
    "amenity": "hospital",
    "healthcare": "hospital",
    "healthcare:speciality": "applied_kinesiology",
    "name": "MRG Kinésiologie",
    "operator": "Bart Woudman",
    "operator:type": "private_for_profit",
    "id": "node/8158697429"
  },
  "geometry": {
    "type": "Point",
    "coordinates": [
      7.2435324,
      47.1341394
    ]
  }
},
{
  "type": "Feature",
  "id": "node/8204308910",
  "properties": {
    "amenity": "doctors",
    "email": "circle@kispi.uzh.ch",
    "healthcare": "clinic",
    "name": "Kinderpermanence im The Circle",
    "opening_hours": "Mo-Su 08:00-22:45",
    "operator": "Kinderspital Zürich",
    "phone": "+41 44 255 81 12",
    "website": "https://www.kispi.uzh.ch/de/patienten-und-angehoerige/fachbereiche/notfallstation/Documents/Circle-Flyer_def_Web_fin.pdf",
    "id": "node/8204308910"
  },
  "geometry": {
    "type": "Point",
    "coordinates": [
      8.5662739,
      47.4493072
    ]
  }
},
{
  "type": "Feature",
  "id": "node/8250032903",
  "properties": {
    "addr:city": "Verbier",
    "addr:housenumber": "28",
    "addr:postcode": "1936",
    "addr:street": "Route de Verbier Station",
    "amenity": "clinic",
    "healthcare": "clinic",
    "healthcare:speciality": "covid19",
    "name": "Centre de dépistage COVID-19 (Test rapide+PCR)",
    "safety:hand_sanitizer:covid19": "yes",
    "safety:mask:covid19": "yes",
    "website": "https://www.onedoc.ch/fr/centre-de-depistage-covid/verbier/pccxn/arcades-verbier",
    "id": "node/8250032903"
  },
  "geometry": {
    "type": "Point",
    "coordinates": [
      7.2233021,
      46.0968038
    ]
  }
},
{
  "type": "Feature",
  "id": "node/8264333258",
  "properties": {
    "amenity": "clinic",
    "healthcare": "clinic",
    "id": "node/8264333258"
  },
  "geometry": {
    "type": "Point",
    "coordinates": [
      7.0668349,
      47.0559965
    ]
  }
},
{
  "type": "Feature",
  "id": "node/8324056410",
  "properties": {
    "addr:city": "Biel/Bienne",
    "addr:housenumber": "2c",
    "addr:postcode": "2502",
    "addr:street": "Place de la Gare / Bahnhofplatz",
    "addr:street:de": "Bahnhofplatz",
    "addr:street:fr": "Place de la Gare",
    "amenity": "clinic",
    "contact:facebook": "https://www.facebook.com/MEDINBielBienne/",
    "email": "direktion@szb-chb.ch",
    "healthcare": "clinic",
    "healthcare:speciality": "gynaecology;general;cardiology;radiology;neurology;physiotherapy;psychiatry;vaccination",
    "name": "MEDIN",
    "opening_hours": "Mo-Fr 08:00-18:00",
    "operator": "Spitalzentrum Biel AG",
    "phone": "+41 32 324 10 25",
    "website": "https://medin-bielbienne.ch",
    "id": "node/8324056410"
  },
  "geometry": {
    "type": "Point",
    "coordinates": [
      7.242023,
      47.1333674
    ]
  }
},
{
  "type": "Feature",
  "id": "node/8343640021",
  "properties": {
    "addr:city": "Zürich",
    "addr:housenumber": "29",
    "addr:postcode": "8002",
    "addr:street": "Bürglistrasse",
    "amenity": "clinic",
    "healthcare": "clinic",
    "healthcare:speciality": "radiology",
    "name": "Swiss Neuroradiology Institute (SNRI)",
    "website": "https://www.snri.ch/",
    "id": "node/8343640021"
  },
  "geometry": {
    "type": "Point",
    "coordinates": [
      8.5293744,
      47.3609831
    ]
  }
},
{
  "type": "Feature",
  "id": "node/8404199410",
  "properties": {
    "addr:city": "Zürich",
    "addr:housenumber": "255",
    "addr:postcode": "8005",
    "addr:street": "Sihlquai",
    "amenity": "clinic",
    "email": "tagesklinik@forel-klinik.ch",
    "healthcare": "clinic",
    "name": "Forel-Klinik - Tagesklinik und Ambulatorium",
    "opening_hours": "Mo-Fr 08:00–12:00, 12:45–17:00",
    "operator": "Forel Klinik AG",
    "phone": "+41 44 277 56 00",
    "website": "www.forel-klinik.ch/tagesklinik",
    "id": "node/8404199410"
  },
  "geometry": {
    "type": "Point",
    "coordinates": [
      8.5288486,
      47.3879127
    ]
  }
},
{
  "type": "Feature",
  "id": "node/8498857254",
  "properties": {
    "addr:city": "Bern",
    "addr:housenumber": "46",
    "addr:postcode": "3010",
    "addr:street": "Freiburgstrasse",
    "amenity": "clinic",
    "healthcare": "clinic",
    "name": "Geriatrische Universitätsklinik",
    "operator": "Insel Gruppe AG",
    "id": "node/8498857254"
  },
  "geometry": {
    "type": "Point",
    "coordinates": [
      7.4211146,
      46.9465077
    ]
  }
},
{
  "type": "Feature",
  "id": "node/8523455266",
  "properties": {
    "addr:city": "Zürich",
    "addr:housenumber": "3",
    "addr:postcode": "8032",
    "addr:street": "Neumünsterallee",
    "alt_name": "KJPD",
    "amenity": "clinic",
    "healthcare": "clinic",
    "healthcare:speciality": "psychiatry",
    "name": "PUK - Kinder- und Jugendpsychiatrie",
    "operator": "Universitätsklinik Zürich",
    "phone": "+41 43 499 26 26",
    "website": "https://www.pukzh.ch/zuweiser-fachpersonen/kinder-und-jugendliche/",
    "id": "node/8523455266"
  },
  "geometry": {
    "type": "Point",
    "coordinates": [
      8.5568696,
      47.362541
    ]
  }
},
{
  "type": "Feature",
  "id": "node/8699333211",
  "properties": {
    "amenity": "clinic",
    "healthcare": "clinic",
    "name": "Pure Clinic",
    "id": "node/8699333211"
  },
  "geometry": {
    "type": "Point",
    "coordinates": [
      6.1643265,
      46.2919838
    ]
  }
},
{
  "type": "Feature",
  "id": "node/8702470111",
  "properties": {
    "addr:city": "Kilchberg",
    "addr:housenumber": "155A",
    "addr:postcode": "8802",
    "addr:street": "Seestrasse",
    "amenity": "clinic",
    "email": "office@sgk.swiss",
    "healthcare": "clinic",
    "healthcare:speciality": "general",
    "level": "0",
    "name": "Seegarten Klinik AG",
    "opening_hours": "Mo-Fr 08:00-17:30",
    "opening_hours:covid19": "same",
    "phone": "+41 44 716 48 48",
    "website": "https://www.sgk.swiss/",
    "id": "node/8702470111"
  },
  "geometry": {
    "type": "Point",
    "coordinates": [
      8.5506098,
      47.3222685
    ]
  }
},
{
  "type": "Feature",
  "id": "node/8820922063",
  "properties": {
    "addr:city": "Weggis",
    "addr:housenumber": "162",
    "addr:postcode": "6353",
    "addr:street": "Hertensteinstrasse",
    "amenity": "clinic",
    "healthcare": "clinic",
    "healthcare:speciality": "general",
    "name": "Cereneo Praxiszentrum",
    "phone": "+41 41 399 67 00",
    "website": "https://www.cereneo.ch/de/kliniken/#cereneo-Hertenstein",
    "id": "node/8820922063"
  },
  "geometry": {
    "type": "Point",
    "coordinates": [
      8.4030861,
      47.0271737
    ]
  }
},
{
  "type": "Feature",
  "id": "node/8998456884",
  "properties": {
    "amenity": "clinic",
    "email": "flughafen.ambulant@zurzachcare.ch",
    "healthcare": "clinic",
    "level": "0",
    "name": "Ambulantes Zentrum ZURZACH Care",
    "opening_hours": "Mo-Th 07:30-19:00; Fr 07:30-16:00",
    "operator": "ZURZACH Care",
    "phone": "+41 56 269 51 52",
    "website": "https://www.zurzachcare.ch/flughafen-ambulant",
    "id": "node/8998456884"
  },
  "geometry": {
    "type": "Point",
    "coordinates": [
      8.5657467,
      47.4492497
    ]
  }
},
{
  "type": "Feature",
  "id": "node/9028857238",
  "properties": {
    "addr:city": "Zürich",
    "addr:housenumber": "108",
    "addr:postcode": "8004",
    "addr:street": "Badenerstrasse",
    "amenity": "clinic",
    "healthcare": "clinic",
    "name": "Psychiatrische Polyklinik",
    "operator": "Stadt Zürich",
    "phone": "+41 44 412 48 00",
    "website": "https://www.stadt-zuerich.ch/gud/de/index/gesundheitsversorgung/medizin/sozialmedizin/PPZ.html",
    "id": "node/9028857238"
  },
  "geometry": {
    "type": "Point",
    "coordinates": [
      8.5248578,
      47.374378
    ]
  }
},
{
  "type": "Feature",
  "id": "node/9031461442",
  "properties": {
    "addr:housenumber": "14",
    "addr:street": "Promenade de Castellane",
    "amenity": "clinic",
    "healthcare": "clinic",
    "healthcare:speciality": "general",
    "level": "1",
    "name": "Permanence des Halles",
    "opening_hours": "Mo-Fr 08:00-20:00; Sa 09:00-14:00; Su 14:00-20:00",
    "operator": "EHC",
    "id": "node/9031461442"
  },
  "geometry": {
    "type": "Point",
    "coordinates": [
      6.4949298,
      46.5114858
    ]
  }
},
{
  "type": "Feature",
  "id": "node/9031461443",
  "properties": {
    "addr:housenumber": "12",
    "addr:street": "Promenade de Castellane",
    "amenity": "clinic",
    "healthcare": "clinic",
    "healthcare:speciality": "internal",
    "level": "1",
    "name": "Centre digestif des Halles",
    "operator": "EHC",
    "id": "node/9031461443"
  },
  "geometry": {
    "type": "Point",
    "coordinates": [
      6.4950767,
      46.511568
    ]
  }
},
{
  "type": "Feature",
  "id": "node/9032304477",
  "properties": {
    "amenity": "hospital",
    "healthcare": "hospital",
    "name": "Ferraroli ESP",
    "id": "node/9032304477"
  },
  "geometry": {
    "type": "Point",
    "coordinates": [
      8.9226749,
      46.0337727
    ]
  }
},
{
  "type": "Feature",
  "id": "node/9107017439",
  "properties": {
    "addr:city": "Ilanz/Glion",
    "addr:postcode": "7130",
    "addr:street": "Via ospedal",
    "amenity": "hospital",
    "healthcare": "hospital",
    "name": "Spital regiunal Surselva",
    "operator": "Regionalspital Surselva AG",
    "operator:type": "public",
    "id": "node/9107017439"
  },
  "geometry": {
    "type": "Point",
    "coordinates": [
      9.2052594,
      46.7769296
    ]
  }
},
{
  "type": "Feature",
  "id": "node/9124306475",
  "properties": {
    "addr:city": "Vercorin",
    "addr:postcode": "3967",
    "addr:street": "Chemin de Tracuit",
    "amenity": "hospital",
    "emergency": "no",
    "healthcare": "hospital",
    "healthcare:speciality": "massage_therapy",
    "name": "Le Refuge Centre thérapeutique et de bien-être",
    "id": "node/9124306475"
  },
  "geometry": {
    "type": "Point",
    "coordinates": [
      7.5314593,
      46.2543892
    ]
  }
},
{
  "type": "Feature",
  "id": "node/9132644346",
  "properties": {
    "amenity": "clinic",
    "healthcare": "clinic",
    "level": "0",
    "name": "Covid-19-Testzentrum Universitätsspital Basel",
    "id": "node/9132644346"
  },
  "geometry": {
    "type": "Point",
    "coordinates": [
      7.5812519,
      47.5618415
    ]
  }
},
{
  "type": "Feature",
  "id": "node/9151547627",
  "properties": {
    "amenity": "clinic",
    "email": "praxis@orthopaedie-zuerich.ch",
    "healthcare": "clinic",
    "name": "Orthopädie Zentrum Zürich",
    "operator": "Hirslanden Klinik im Park",
    "phone": "+41 44 226 90 00",
    "website": "https://www.hirslanden.ch/de/klinik-im-park/centers/orthopaedie-zentrum-zuerich.html",
    "id": "node/9151547627"
  },
  "geometry": {
    "type": "Point",
    "coordinates": [
      8.5324988,
      47.3510925
    ]
  }
},
{
  "type": "Feature",
  "id": "node/9151547628",
  "properties": {
    "alt_name": "Onko Zentrum Zürich Enge",
    "amenity": "clinic",
    "healthcare": "clinic",
    "name": "Onkozentrum Zürich-Enge",
    "operator": "Onkozentrum Zürich AG",
    "phone": "+41 43 344 33 33",
    "website": "https://ozh.ch/ozh/wir-stellen-uns-vor/",
    "id": "node/9151547628"
  },
  "geometry": {
    "type": "Point",
    "coordinates": [
      8.5322958,
      47.3510859
    ]
  }
},
{
  "type": "Feature",
  "id": "node/9151768393",
  "properties": {
    "alt_name": "Onko Zentrum Zürich Seefeld",
    "amenity": "clinic",
    "name": "Onkozentrum Zürich Seefeld",
    "website": "https://ozh.ch/ozh/standort-seefeld/",
    "id": "node/9151768393"
  },
  "geometry": {
    "type": "Point",
    "coordinates": [
      8.5586867,
      47.3529907
    ]
  }
},
{
  "type": "Feature",
  "id": "node/9166788679",
  "properties": {
    "addr:city": "Zürich",
    "addr:housenumber": "133",
    "addr:postcode": "8005",
    "addr:street": "Hardturmstrasse",
    "amenity": "clinic",
    "email": "mpa.zuerich@integrative-onkologie.ch",
    "name": "ZIO Zentrum für Integrative Onkologie",
    "phone": "+41 44 448 30 00",
    "website": "https://integrative-onkologie.ch/",
    "id": "node/9166788679"
  },
  "geometry": {
    "type": "Point",
    "coordinates": [
      8.5133805,
      47.3929512
    ]
  }
},
{
  "type": "Feature",
  "id": "node/9179770358",
  "properties": {
    "amenity": "clinic",
    "email": "rapperswil@rodiag.ch",
    "healthcare": "clinic",
    "healthcare:speciality": "radiology",
    "name": "RODIAG Diagnostic Centers Röntgeninstitut",
    "phone": "+41 58 401 14 00",
    "website": "http://www.rodiag.ch/default.asp?langid=de&siteid=1&id=1011000",
    "id": "node/9179770358"
  },
  "geometry": {
    "type": "Point",
    "coordinates": [
      8.8239603,
      47.2280885
    ]
  }
},
{
  "type": "Feature",
  "id": "node/9204297722",
  "properties": {
    "addr:housenumber": "37",
    "addr:street": "Route de Sonloup",
    "amenity": "hospital",
    "emergency": "no",
    "healthcare": "rehabilitation",
    "name": "Clinic Les Alpes",
    "website": "https://www.cliniclesalpes.com/",
    "id": "node/9204297722"
  },
  "geometry": {
    "type": "Point",
    "coordinates": [
      6.9390021,
      46.4574666
    ]
  }
},
{
  "type": "Feature",
  "id": "node/9209001816",
  "properties": {
    "addr:city": "Zürich",
    "addr:housenumber": "18",
    "addr:postcode": "8001",
    "addr:street": "Goethestrasse",
    "alt_name": "Medizinisch Radiologische Institut",
    "amenity": "clinic",
    "email": "stadelhofen@mri-roentgen.ch",
    "healthcare": "clinic",
    "name": "MRI Stadelhofen",
    "phone": "+41 44 226 20 90",
    "website": "https://www.mri-roentgen.ch/de/standorte/mri-stadelhofen/",
    "id": "node/9209001816"
  },
  "geometry": {
    "type": "Point",
    "coordinates": [
      8.548012,
      47.3659083
    ]
  }
},
{
  "type": "Feature",
  "id": "node/9220892453",
  "properties": {
    "addr:city": "Bulle",
    "addr:housenumber": "42",
    "addr:postcode": "1630",
    "addr:street": "Chemin de Pré-Vert",
    "amenity": "hospital",
    "emergency": "no",
    "healthcare": "hospital",
    "healthcare:speciality": "cardiology",
    "name": "Cardiologue",
    "operator": "Yves Allaman",
    "operator:type": "private",
    "id": "node/9220892453"
  },
  "geometry": {
    "type": "Point",
    "coordinates": [
      7.06561,
      46.6204357
    ]
  }
},
{
  "type": "Feature",
  "id": "node/9263946618",
  "properties": {
    "addr:city": "Fleurier",
    "addr:housenumber": "5a",
    "addr:postcode": "2114",
    "addr:street": "Avenue de la Gare",
    "amenity": "clinic",
    "healthcare": "clinic",
    "name": "Permanence Volta",
    "id": "node/9263946618"
  },
  "geometry": {
    "type": "Point",
    "coordinates": [
      6.5813639,
      46.9032284
    ]
  }
},
{
  "type": "Feature",
  "id": "node/9326879902",
  "properties": {
    "addr:city": "Sursee",
    "addr:housenumber": "16",
    "addr:postcode": "6210",
    "addr:street": "Spitalstrasse",
    "amenity": "hospital",
    "emergency": "yes",
    "healthcare": "hospital",
    "healthcare:speciality": "general",
    "name": "Luzerner Kantonsspital Sursee",
    "id": "node/9326879902"
  },
  "geometry": {
    "type": "Point",
    "coordinates": [
      8.1174197,
      47.1682642
    ]
  }
},
{
  "type": "Feature",
  "id": "node/9350177868",
  "properties": {
    "addr:city": "Marly",
    "addr:housenumber": "1",
    "addr:postcode": "1723",
    "addr:street": "Impasse du Nouveau-Marché",
    "amenity": "clinic",
    "healthcare": "clinic",
    "name": "Cabinet médical",
    "id": "node/9350177868"
  },
  "geometry": {
    "type": "Point",
    "coordinates": [
      7.1487807,
      46.7830464
    ]
  }
},
{
  "type": "Feature",
  "id": "node/9350177869",
  "properties": {
    "addr:city": "Marly",
    "addr:housenumber": "3",
    "addr:postcode": "1723",
    "addr:street": "Impasse du Nouveau-Marché",
    "amenity": "clinic",
    "healthcare": "clinic",
    "name": "Groupe médical Marly",
    "id": "node/9350177869"
  },
  "geometry": {
    "type": "Point",
    "coordinates": [
      7.1487008,
      46.7831713
    ]
  }
},
{
  "type": "Feature",
  "id": "node/9363777169",
  "properties": {
    "amenity": "clinic",
    "healthcare": "clinic",
    "id": "node/9363777169"
  },
  "geometry": {
    "type": "Point",
    "coordinates": [
      7.3652106,
      47.1822209
    ]
  }
},
{
  "type": "Feature",
  "id": "node/9465659413",
  "properties": {
    "amenity": "clinic",
    "name": "Check-up Zentrum Hirslanden Zürich",
    "opening_hours": "Mo-Fr 08:00-12:00, 13:00-17:00",
    "operator": "Hirslanden Zürich",
    "phone": "+41 44 387 35 79",
    "website": "https://www.hirslanden.ch/de/klinik-hirslanden/centers/checkupzentrum-hirslanden.html",
    "id": "node/9465659413"
  },
  "geometry": {
    "type": "Point",
    "coordinates": [
      8.5844126,
      47.3500976
    ]
  }
},
{
  "type": "Feature",
  "id": "node/9468964973",
  "properties": {
    "addr:city": "Reichenbach im Kandertal",
    "addr:housenumber": "7",
    "addr:postcode": "3713",
    "addr:street": "Ogimatte",
    "amenity": "clinic",
    "healthcare": "clinic",
    "name": "Praxis Ogimatte",
    "id": "node/9468964973"
  },
  "geometry": {
    "type": "Point",
    "coordinates": [
      7.6926098,
      46.6251174
    ]
  }
},
{
  "type": "Feature",
  "id": "node/9497675499",
  "properties": {
    "amenity": "doctors",
    "contact:city": "Bülach",
    "contact:housenumber": "5",
    "contact:postcode": "8180",
    "contact:street": "Zürichstrasse",
    "email": "info@kardioviva.ch",
    "healthcare": "clinic",
    "healthcare:speciality": "Kardiologie",
    "name": "Kardioviva",
    "operator": "Kardioviva",
    "operator:type": "private",
    "phone": "+41 44 365 65 67",
    "website": "http://kardioviva.ch/",
    "id": "node/9497675499"
  },
  "geometry": {
    "type": "Point",
    "coordinates": [
      8.5425334,
      47.5154972
    ]
  }
},
{
  "type": "Feature",
  "id": "node/9497675500",
  "properties": {
    "amenity": "doctors",
    "contact:city": "Bülach",
    "contact:housenumber": "5",
    "contact:postcode": "8180",
    "contact:street": "Zürichstrasse",
    "healthcare": "clinic",
    "healthcare:speciality": "urology",
    "name": "Uroviva",
    "opening_hours": "Mo-Fr 07:00-18:00",
    "operator": "Uroviva",
    "operator:type": "private",
    "website": "https://www.uroviva.ch/",
    "id": "node/9497675500"
  },
  "geometry": {
    "type": "Point",
    "coordinates": [
      8.5425729,
      47.5154347
    ]
  }
},
{
  "type": "Feature",
  "id": "node/9502693894",
  "properties": {
    "amenity": "clinic",
    "healthcare": "clinic",
    "name": "Centre médical des Cadolles",
    "id": "node/9502693894"
  },
  "geometry": {
    "type": "Point",
    "coordinates": [
      6.9251322,
      46.9983961
    ]
  }
},
{
  "type": "Feature",
  "id": "node/9544317890",
  "properties": {
    "amenity": "clinic",
    "healthcare": "clinic",
    "name": "Bahnhofpraxis Langenthal",
    "opening_hours": "Mo-Fr 08:00-12:00,13:40-17:00; Sa-Su off; PH off",
    "website": "https://praxislangenthal.ch/",
    "id": "node/9544317890"
  },
  "geometry": {
    "type": "Point",
    "coordinates": [
      7.7850078,
      47.2173498
    ]
  }
},
{
  "type": "Feature",
  "id": "node/9544337529",
  "properties": {
    "amenity": "clinic",
    "healthcare": "clinic",
    "name": "Ärztehaus im Allmen",
    "opening_hours": "Mo-Fr 07:30-12:00; Mo-Mi 13:30-18:00; Fr 07:30-16:30; Sa-Su off; PH off",
    "phone": "+41 62 923 23 43",
    "website": "https://www.aerztehausimallmen.ch",
    "id": "node/9544337529"
  },
  "geometry": {
    "type": "Point",
    "coordinates": [
      7.7928914,
      47.2083997
    ]
  }
},
{
  "type": "Feature",
  "id": "node/9549563917",
  "properties": {
    "addr:postcode": "1400",
    "amenity": "clinic",
    "email": "info@permanence-lac.ch",
    "name": "Permanence rue du Lac",
    "opening_hours": "Mo-Fr 06:00-18:00; Sa 08:00-14:00",
    "phone": "024 566 70 60",
    "website": "https://www.permanence-lac.ch/",
    "id": "node/9549563917"
  },
  "geometry": {
    "type": "Point",
    "coordinates": [
      6.6405219,
      46.7791299
    ]
  }
},
{
  "type": "Feature",
  "id": "node/9552076030",
  "properties": {
    "alt_name": "Augenklinik",
    "amenity": "doctors",
    "email": "info@airportmedicalcenter.ch",
    "fax": "+41 43 816 70 02",
    "healthcare": "clinic",
    "healthcare:speciality": "ophthalmology",
    "level": "8",
    "name": "Airport Medical Center Eye Clinic",
    "opening_hours": "Mo-Su 08:00-17:30",
    "operator": "Spital Bülach",
    "phone": "+41 43 816 70 00",
    "website": "http://www.airportmedicalcenter.ch/",
    "wheelchair": "yes",
    "id": "node/9552076030"
  },
  "geometry": {
    "type": "Point",
    "coordinates": [
      8.5628075,
      47.4519286
    ]
  }
},
{
  "type": "Feature",
  "id": "node/9562163314",
  "properties": {
    "amenity": "clinic",
    "email": "hello@viselio.com",
    "level": "9",
    "name": "Testcenter beim Radisson Blu",
    "operator": "Viselio",
    "phone": "+41 44 505 12 92",
    "website": "https://www.viselio.com/zrh/",
    "id": "node/9562163314"
  },
  "geometry": {
    "type": "Point",
    "coordinates": [
      8.5640781,
      47.4526417
    ]
  }
},
{
  "type": "Feature",
  "id": "node/9566025272",
  "properties": {
    "addr:housenumber": "86",
    "addr:street": "Avenue du Grand-Champsec",
    "amenity": "clinic",
    "healthcare:speciality": "gynaecology",
    "name": "Policlinique de gynécologie-obstétrique - Centre du Sein",
    "phone": "+41 27 603 85 22",
    "id": "node/9566025272"
  },
  "geometry": {
    "type": "Point",
    "coordinates": [
      7.3877625,
      46.2356963
    ]
  }
},
{
  "type": "Feature",
  "id": "node/9611423948",
  "properties": {
    "amenity": "clinic",
    "email": "rni@hin.ch",
    "healthcare": "clinic",
    "healthcare:speciality": "radiology",
    "name": "Radiologie und Neuroradiologie Institut Rotkreuz",
    "phone": "+41 41 799 44 99",
    "short_name": "RNI Rotkreuz",
    "website": "https://rni-rotkreuz.ch/",
    "id": "node/9611423948"
  },
  "geometry": {
    "type": "Point",
    "coordinates": [
      8.4381252,
      47.1446716
    ]
  }
},
{
  "type": "Feature",
  "id": "node/9658529728",
  "properties": {
    "addr:city": "Winterthur",
    "addr:housenumber": "10",
    "addr:postcode": "8400",
    "addr:street": "Mühlestrasse",
    "amenity": "clinic",
    "healthcare": "clinic",
    "healthcare:speciality": "psychiatry;psychotherapy",
    "name": "IBP Institut",
    "operator": "IBP Institut",
    "operator:type": "private",
    "website": "https://ibp-institut.ch/",
    "id": "node/9658529728"
  },
  "geometry": {
    "type": "Point",
    "coordinates": [
      8.7319593,
      47.4970363
    ]
  }
},
{
  "type": "Feature",
  "id": "node/9660460083",
  "properties": {
    "addr:city": "Basel",
    "addr:housenumber": "26",
    "addr:postcode": "4051",
    "addr:street": "Aeschengraben",
    "amenity": "clinic",
    "healthcare": "clinic",
    "name": "Swiss Pain Institute Basel",
    "name:de": "Schweizer Schmerzinstitut",
    "phone": "+41 79 319 80 00",
    "website": "https://swisspain.ch/basel/",
    "id": "node/9660460083"
  },
  "geometry": {
    "type": "Point",
    "coordinates": [
      7.5927759,
      47.5504287
    ]
  }
},
{
  "type": "Feature",
  "id": "node/9662210482",
  "properties": {
    "addr:city": "Zürich",
    "addr:housenumber": "14",
    "addr:postcode": "8952",
    "addr:street": "Wagistrasse",
    "amenity": "clinic",
    "email": "nuklearmedizin@usz.ch",
    "healthcare": "clinic",
    "name": "PET/CT-MR Zentrum Schlieren USZ Klinik",
    "phone": "+41 43 254 04 11",
    "website": "https://www.usz.ch/",
    "id": "node/9662210482"
  },
  "geometry": {
    "type": "Point",
    "coordinates": [
      8.4583832,
      47.3984275
    ]
  }
},
{
  "type": "Feature",
  "id": "node/9663194216",
  "properties": {
    "amenity": "hospital",
    "healthcare": "hospital",
    "name": "Notfallzentrum",
    "operator": "Berit Klinik",
    "id": "node/9663194216"
  },
  "geometry": {
    "type": "Point",
    "coordinates": [
      9.0838531,
      47.2981793
    ]
  }
},
{
  "type": "Feature",
  "id": "node/9718919171",
  "properties": {
    "addr:city": "Lenzburg",
    "addr:housenumber": "17",
    "addr:postcode": "5600",
    "addr:street": "Dammweg",
    "amenity": "clinic",
    "email": "info@aklb.ch",
    "healthcare": "clinic",
    "healthcare:speciality": "ophthalmology",
    "name": "Augenklinik Lenzburg",
    "note": "Eröffnung am 01. Juli 2022\nTermine ab sofort.",
    "phone": "+41 62 562 14 00",
    "website": "https://www.augenklinik-lenzburg.ch/",
    "id": "node/9718919171"
  },
  "geometry": {
    "type": "Point",
    "coordinates": [
      8.1739565,
      47.3906098
    ]
  }
},
{
  "type": "Feature",
  "id": "node/9720364632",
  "properties": {
    "amenity": "hospital",
    "healthcare": "hospital",
    "name": "GNZ Wattwil",
    "operator": "Berit Klinik",
    "operator:type": "community",
    "id": "node/9720364632"
  },
  "geometry": {
    "type": "Point",
    "coordinates": [
      9.0843135,
      47.2980571
    ]
  }
},
{
  "type": "Feature",
  "id": "node/9720370226",
  "properties": {
    "amenity": "hospital",
    "healthcare": "hospital",
    "name": "Tumor Zentrum Ostschweiz",
    "id": "node/9720370226"
  },
  "geometry": {
    "type": "Point",
    "coordinates": [
      9.0838964,
      47.2975781
    ]
  }
},
{
  "type": "Feature",
  "id": "node/9764353943",
  "properties": {
    "amenity": "clinic",
    "healthcare": "clinic",
    "healthcare:speciality": "orthopaedics;hand_surgery;rheumatology;internal;sugery;osteopathy;physiotherapy;ergotherapy",
    "name": "Klinik Impuls Zürcher Oberland",
    "website": "https://www.klinik-impuls.ch/",
    "id": "node/9764353943"
  },
  "geometry": {
    "type": "Point",
    "coordinates": [
      8.7989759,
      47.3273504
    ]
  }
},
{
  "type": "Feature",
  "id": "node/9767828227",
  "properties": {
    "amenity": "clinic",
    "email": "info@handclinic.ch",
    "healthcare": "clinic",
    "healthcare:speciality": "hand_surgery",
    "name": "handclinic AG Rüti",
    "phone": "+41 55 251 23 23",
    "website": "http://www.handclinic.ch/",
    "id": "node/9767828227"
  },
  "geometry": {
    "type": "Point",
    "coordinates": [
      8.8531577,
      47.2601863
    ]
  }
},
{
  "type": "Feature",
  "id": "node/9767931304",
  "properties": {
    "addr:city": "Rüti (ZH)",
    "amenity": "clinic",
    "healthcare": "clinic",
    "healthcare:speciality": "radiology;radiotherapy",
    "name": "ZRR - Zentrum für Radiotherapie Rüti",
    "website": "https://www.zrr.ch/",
    "id": "node/9767931304"
  },
  "geometry": {
    "type": "Point",
    "coordinates": [
      8.8422905,
      47.259456
    ]
  }
},
{
  "type": "Feature",
  "id": "node/9768060623",
  "properties": {
    "amenity": "clinic",
    "email": "info@geburtshaus-zho.ch",
    "healthcare": "birthing_centre",
    "healthcare:speciality": "midwife",
    "name": "Geburtshaus Zürcher Oberland",
    "phone": "+41449399900",
    "website": "https://geburtshaus-zho.ch/",
    "id": "node/9768060623"
  },
  "geometry": {
    "type": "Point",
    "coordinates": [
      8.8472584,
      47.3323461
    ]
  }
},
{
  "type": "Feature",
  "id": "node/9770559736",
  "properties": {
    "alt_name": "Uroklinik Rapperswil",
    "amenity": "clinic",
    "email": "uroclinic.rapperswil@hin.ch",
    "healthcare": "clinic",
    "healthcare:speciality": "urology",
    "name": "uroclinic Rapperswil",
    "phone": "+41 55 210 74 74",
    "website": "https://uroclinic.ch/kontakt/uroclinic-rapperswil",
    "id": "node/9770559736"
  },
  "geometry": {
    "type": "Point",
    "coordinates": [
      8.8218901,
      47.2280276
    ]
  }
},
{
  "type": "Feature",
  "id": "node/9770566632",
  "properties": {
    "amenity": "clinic",
    "email": "rapperswil@psych.ch",
    "healthcare": "clinic",
    "healthcare:speciality": "psychiatry;psychotherapy",
    "name": "Psychiatriezentrum Linthgebiet, Standort Rapperswil",
    "operator": "Psychiatrie-Dienste Süd Kanton St. Gallen",
    "phone": "+41 58 178 76 11",
    "website": "https://psych.ch/standorte/psychiatrie-zentrum-linthgebiet-standort-rapperswil#0",
    "id": "node/9770566632"
  },
  "geometry": {
    "type": "Point",
    "coordinates": [
      8.8178185,
      47.2255667
    ]
  }
},
{
  "type": "Feature",
  "id": "node/9786615070",
  "properties": {
    "amenity": "clinic",
    "email": "uznach@psych.ch",
    "healthcare": "clinic",
    "healthcare:speciality": "psychiatry;psychotherapy",
    "name": "Psychiatrie-Zentrum Linthgebiet",
    "operator": "Psychiatrie-Dienste Süd Kanton St. Gallen",
    "phone": "+41 58 178 76 11",
    "website": "https://psych.ch/standorte/psychiatrie-zentrum-linthgebiet-standort-uznach#0",
    "id": "node/9786615070"
  },
  "geometry": {
    "type": "Point",
    "coordinates": [
      8.9837341,
      47.2243785
    ]
  }
},
{
  "type": "Feature",
  "id": "node/9786676756",
  "properties": {
    "alt_name": "Rodiag Jona",
    "amenity": "clinic",
    "email": "jona@rodiag.ch",
    "healthcare": "clinic",
    "healthcare:speciality": "radiology",
    "name": "RODIAG Diagnostic Centers Röntgeninstitut",
    "phone": "0800 440 014",
    "website": "https://www.rodiag.ch/willkommen/standorte/jona/",
    "id": "node/9786676756"
  },
  "geometry": {
    "type": "Point",
    "coordinates": [
      8.8525138,
      47.2305492
    ]
  }
},
{
  "type": "Feature",
  "id": "node/9789746388",
  "properties": {
    "addr:housenumber": "59",
    "addr:postcode": "8058",
    "addr:street": "The Circle",
    "amenity": "clinic",
    "healthcare": "clinic",
    "level": "0",
    "name": "USZ / Balgrist",
    "opening_hours": "Mo-Fr 08:00-12:00,13:00-17:00",
    "operator": "Universitätsspital Zürich",
    "phone": "+41 44 255 11 11",
    "website": "https://www.usz.ch/standorte/usz-flughafen/",
    "wheelchair": "yes",
    "id": "node/9789746388"
  },
  "geometry": {
    "type": "Point",
    "coordinates": [
      8.5663944,
      47.4492451
    ]
  }
},
{
  "type": "Feature",
  "id": "node/9850204699",
  "properties": {
    "addr:city": "Wattwil",
    "addr:housenumber": "20",
    "addr:postcode": "9630",
    "addr:street": "Bahnhofstrasse",
    "amenity": "clinic",
    "healthcare": "clinic",
    "name": "Team Radiologie plus",
    "id": "node/9850204699"
  },
  "geometry": {
    "type": "Point",
    "coordinates": [
      9.0876137,
      47.2984277
    ]
  }
},
{
  "type": "Feature",
  "id": "node/9853341103",
  "properties": {
    "addr:city": "Genève",
    "addr:housenumber": "100",
    "addr:street": "Route de Frontenex",
    "amenity": "hospital",
    "emergency": "no",
    "healthcare": "hospital",
    "healthcare:speciality": "psychiatry",
    "name": "Pôle Positif",
    "phone": "+41 22 321 93 73",
    "website": "https://www.polepositif.ch",
    "wheelchair": "yes",
    "id": "node/9853341103"
  },
  "geometry": {
    "type": "Point",
    "coordinates": [
      6.1727019,
      46.204179
    ]
  }
},
{
  "type": "Feature",
  "id": "node/9901602630",
  "properties": {
    "addr:city": "St. Gallen",
    "addr:housenumber": "7",
    "addr:postcode": "9000",
    "addr:street": "Wassergasse",
    "amenity": "clinic",
    "email": "stgallen-einstein@medbase.ch",
    "healthcare": "clinic",
    "level": "2",
    "name": "MedBase St. Gallen Einsten",
    "opening_hours": "Mo-Th 07:30-17:30; Fr 07:30-16:00",
    "phone": "+41 71 227 10 60",
    "website": "www.medbase.ch",
    "id": "node/9901602630"
  },
  "geometry": {
    "type": "Point",
    "coordinates": [
      9.3744211,
      47.4214584
    ]
  }
},
{
  "type": "Feature",
  "id": "node/9907581752",
  "properties": {
    "addr:city": "Lausanne",
    "addr:housenumber": "4",
    "addr:postcode": "1007",
    "addr:street": "Avenue Marc-Dufour",
    "amenity": "clinic",
    "email": "centre@maxillo.ch",
    "healthcare": "clinic",
    "name": "Centre de chirurgie maxillo-faciale",
    "opening_hours": "Lu-Je 08:00 - 18:00 / Ve 08:00 - 17:00",
    "operator": "Clinique Cécile",
    "source": "website",
    "website": "https://maxillo.ch/",
    "id": "node/9907581752"
  },
  "geometry": {
    "type": "Point",
    "coordinates": [
      6.6213248,
      46.5200036
    ]
  }
},
{
  "type": "Feature",
  "id": "node/9990748725",
  "properties": {
    "addr:city": "Reichenburg",
    "addr:housenumber": "60",
    "addr:postcode": "8864",
    "addr:street": "Kantonsstrasse",
    "amenity": "clinic",
    "healthcare": "clinic",
    "name": "Ärztezentrum Reichenburg",
    "operator": "Ärztezentrum Reichenburg AG",
    "id": "node/9990748725"
  },
  "geometry": {
    "type": "Point",
    "coordinates": [
      8.9793726,
      47.167642
    ]
  }
},
{
  "type": "Feature",
  "id": "node/10007195115",
  "properties": {
    "addr:city": "Kilchberg (ZH)",
    "addr:housenumber": "2",
    "addr:postcode": "8802",
    "addr:street": "Bahnhofstrasse",
    "amenity": "clinic",
    "healthcare": "clinic",
    "name": "Dr. med. Annemarie Koch-Holch & Dr. med. James Koch",
    "website": "https://dr-kochholch.ch/",
    "id": "node/10007195115"
  },
  "geometry": {
    "type": "Point",
    "coordinates": [
      8.5480809,
      47.3244424
    ]
  }
},
{
  "type": "Feature",
  "id": "node/10067038643",
  "properties": {
    "addr:city": "Montagny-près-Yverdon",
    "addr:country": "CH",
    "addr:housenumber": "55, 55c",
    "addr:place": "En Chamard",
    "addr:postcode": "1442",
    "amenity": "clinic",
    "healthcare": "clinic",
    "name": "Les Toises - Centre de psychiatrie et psychothérapie",
    "website": "https://www.lestoises.ch/",
    "id": "node/10067038643"
  },
  "geometry": {
    "type": "Point",
    "coordinates": [
      6.6209044,
      46.7922274
    ]
  }
},
{
  "type": "Feature",
  "id": "node/10083537140",
  "properties": {
    "addr:housenumber": "23",
    "addr:street": "Ziegelrain",
    "amenity": "clinic",
    "healthcare": "clinic",
    "name": "Hausärzte Zentrum Aarau",
    "website": "https://hausaerzte-aarau.ch/",
    "id": "node/10083537140"
  },
  "geometry": {
    "type": "Point",
    "coordinates": [
      8.0434271,
      47.3910276
    ]
  }
},
{
  "type": "Feature",
  "id": "node/10085965775",
  "properties": {
    "amenity": "clinic",
    "contact:fax": "+41 31 370 01 61",
    "contact:phone": "+41 31 370 01 60",
    "healthcare": "clinic",
    "name": "Ärztezentrum Südbahnhof",
    "opening_hours": "Mo-Fr 08:00-12:00, 13:00-17:00",
    "website": "https://www.suedbahnhof.ch/",
    "id": "node/10085965775"
  },
  "geometry": {
    "type": "Point",
    "coordinates": [
      7.4299799,
      46.9365348
    ]
  }
},
{
  "type": "Feature",
  "id": "node/10103304277",
  "properties": {
    "amenity": "clinic",
    "check_date": "2022-10-15",
    "healthcare": "clinic",
    "name": "Centre Urgences Broye",
    "short_name": "CUB",
    "id": "node/10103304277"
  },
  "geometry": {
    "type": "Point",
    "coordinates": [
      6.9354023,
      46.8191515
    ]
  }
},
{
  "type": "Feature",
  "id": "node/10103304278",
  "properties": {
    "amenity": "clinic",
    "check_date": "2022-10-15",
    "healthcare": "clinic",
    "name": "Centre Médico-Chirurgical de la Broye",
    "short_name": "CM+CB",
    "id": "node/10103304278"
  },
  "geometry": {
    "type": "Point",
    "coordinates": [
      6.9353695,
      46.8191697
    ]
  }
},
{
  "type": "Feature",
  "id": "node/10212544712",
  "properties": {
    "amenity": "clinic",
    "healthcare": "clinic",
    "id": "node/10212544712"
  },
  "geometry": {
    "type": "Point",
    "coordinates": [
      9.256669,
      47.4435301
    ]
  }
},
{
  "type": "Feature",
  "id": "node/10215653415",
  "properties": {
    "addr:city": "Biel/Bienne",
    "addr:city:de": "Biel",
    "addr:city:fr": "Bienne",
    "addr:postcode": "2501",
    "addr:street": "Chante-Merle / Vogelsang",
    "addr:street:de": "Vogelsang",
    "addr:street:fr": "Chante-Merle",
    "amenity": "clinic",
    "healthcare": "clinic",
    "healthcare:speciality": "psychiatry",
    "name": "Kriseninterventionsstation Biel KIB",
    "name:de": "Kriseninterventionsstation Biel KIB",
    "id": "node/10215653415"
  },
  "geometry": {
    "type": "Point",
    "coordinates": [
      7.2423892,
      47.1477953
    ]
  }
},
{
  "type": "Feature",
  "id": "node/10215653416",
  "properties": {
    "addr:city": "Biel/Bienne",
    "addr:city:de": "Biel",
    "addr:city:fr": "Bienne",
    "addr:postcode": "2501",
    "addr:street": "Chante-Merle / Vogelsang",
    "addr:street:de": "Vogelsang",
    "addr:street:fr": "Chante-Merle",
    "amenity": "clinic",
    "healthcare": "clinic",
    "healthcare:speciality": "psychiatry",
    "name": "Psychiatrie Biel/Bienne Ambulatorium",
    "name:de": "Psychiatrie Biel/Bienne Ambulatorium",
    "id": "node/10215653416"
  },
  "geometry": {
    "type": "Point",
    "coordinates": [
      7.2424304,
      47.147821
    ]
  }
},
{
  "type": "Feature",
  "id": "node/10221155923",
  "properties": {
    "addr:housenumber": "31",
    "addr:street": "Sonneggstrasse",
    "amenity": "clinic",
    "check_date": "2022-11-27",
    "email": "info@spitex-arth-goldau.ch",
    "healthcare": "clinic",
    "name": "Spitex Regio Arth-Goldau",
    "operator:type": "private",
    "payment:mastercard": "yes",
    "payment:visa": "yes",
    "phone": "+41 41 859 14 00",
    "website": "https://www.spitex-arth-goldau.ch/",
    "wheelchair": "yes",
    "id": "node/10221155923"
  },
  "geometry": {
    "type": "Point",
    "coordinates": [
      8.5489096,
      47.0454326
    ]
  }
},
{
  "type": "Feature",
  "id": "node/10251141087",
  "properties": {
    "amenity": "clinic",
    "healthcare": "clinic",
    "name": "Ärztehaus Gossau",
    "id": "node/10251141087"
  },
  "geometry": {
    "type": "Point",
    "coordinates": [
      9.263895,
      47.4162565
    ]
  }
}
]
}
