{
"type": "FeatureCollection",
"features": [
{
  "type": "Feature",
  "id": "way/192244566",
  "properties": {
    "addr:city": "Schaffhausen",
    "addr:housenumber": "1",
    "addr:postcode": "8200",
    "addr:street": "Beckenstube",
    "amenity": "police",
    "email": "info@shpol.ch",
    "fax": "+41 52 624 50 70",
    "name": "Polizeistation Schaffhausen",
    "operator": "Schaffhauser Polizei",
    "phone": "+41 52 624 24 24",
    "website": "http://www.shpol.ch",
    "wheelchair": "limited",
    "id": "way/192244566"
  },
  "geometry": {
    "type": "Polygon",
    "coordinates": [
      [
        [
          8.6353344,
          47.6949943
        ],
        [
          8.6353634,
          47.695003
        ],
        [
          8.6353486,
          47.6950351
        ],
        [
          8.6353104,
          47.6951328
        ],
        [
          8.63523,
          47.6951173
        ],
        [
          8.6351671,
          47.6951043
        ],
        [
          8.6351339,
          47.6950975
        ],
        [
          8.6351099,
          47.6951413
        ],
        [
          8.6350298,
          47.695121
        ],
        [
          8.6350488,
          47.6950848
        ],
        [
          8.6350558,
          47.6950735
        ],
        [
          8.6350771,
          47.6950809
        ],
        [
          8.6351304,
          47.6949616
        ],
        [
          8.6351696,
          47.6949653
        ],
        [
          8.6352222,
          47.6949759
        ],
        [
          8.6353344,
          47.6949943
        ]
      ]
    ]
  }
},
{
  "type": "Feature",
  "id": "node/29885122",
  "properties": {
    "addr:city": "Neuhausen am Rheinfall",
    "addr:housenumber": "26",
    "addr:postcode": "8212",
    "addr:street": "Rheingoldstrasse",
    "amenity": "police",
    "fax": "+41 52 632 89 39",
    "name": "Polizeistation Neuhausen am Rheinfall",
    "opening_hours": "Mo 07:00-11:30,13:45-17:00; Tu,We,Fr 13:45-17:00; Th 13:45-18:00",
    "operator": "Schaffhauser Polizei",
    "phone": "+41 52 632 89 20",
    "id": "node/29885122"
  },
  "geometry": {
    "type": "Point",
    "coordinates": [
      8.6217342,
      47.6807674
    ]
  }
},
{
  "type": "Feature",
  "id": "node/436132061",
  "properties": {
    "addr:city": "Stein am Rhein",
    "addr:country": "CH",
    "addr:housenumber": "12",
    "addr:postcode": "8260",
    "addr:street": "Chlini Schanz",
    "amenity": "police",
    "fax": "+41 52 741 34 93",
    "name": "Polizeistation Stein am Rhein",
    "operator": "Schaffhauser Polizei",
    "phone": "+41 52 741 22 04",
    "url": "http://www.shpol.ch/",
    "id": "node/436132061"
  },
  "geometry": {
    "type": "Point",
    "coordinates": [
      8.8603742,
      47.6607428
    ]
  }
},
{
  "type": "Feature",
  "id": "node/436132162",
  "properties": {
    "addr:city": "Stein am Rhein",
    "addr:postcode": "8260",
    "addr:street": "Rathausplatz",
    "amenity": "police",
    "name": "Stadtpolizei Stein am Rhein",
    "operator": "Stadt Stein am Rhein",
    "phone": "+41 52 742 20 10",
    "wheelchair": "no",
    "id": "node/436132162"
  },
  "geometry": {
    "type": "Point",
    "coordinates": [
      8.8596279,
      47.6592124
    ]
  }
},
{
  "type": "Feature",
  "id": "node/2441591782",
  "properties": {
    "addr:city": "Schaffhausen",
    "addr:housenumber": "1",
    "addr:postcode": "8200",
    "addr:street": "Beckenstube",
    "alt_name": "Kapo",
    "amenity": "police",
    "name": "Kommando Schaffhauser Polizei",
    "operator": "Schaffhauser Polizei",
    "phone": "+41 52 624 24 24",
    "website": "http://www.shpol.ch",
    "id": "node/2441591782"
  },
  "geometry": {
    "type": "Point",
    "coordinates": [
      8.6351058,
      47.6945605
    ]
  }
},
{
  "type": "Feature",
  "id": "node/4428671449",
  "properties": {
    "addr:city": "Thayngen",
    "addr:housenumber": "32",
    "addr:postcode": "8240",
    "addr:street": "Dorfstrasse",
    "amenity": "police",
    "emergency_telephone_code": "+41 52 624 24 24",
    "name": "Polizeistation Thayngen",
    "operator": "Schaffhauser Polizei",
    "id": "node/4428671449"
  },
  "geometry": {
    "type": "Point",
    "coordinates": [
      8.7103224,
      47.7475949
    ]
  }
},
{
  "type": "Feature",
  "id": "node/7477816859",
  "properties": {
    "addr:city": "Beringen",
    "addr:housenumber": "8",
    "addr:postcode": "8222",
    "addr:street": "Zelgstrasse",
    "amenity": "police",
    "name": "Polizeistation Klettgau",
    "operator": "Schaffhauser Polizei",
    "website": "http://www.shpol.ch/Regionalpolizei.10163.0.html",
    "id": "node/7477816859"
  },
  "geometry": {
    "type": "Point",
    "coordinates": [
      8.5740218,
      47.6963156
    ]
  }
},
{
  "type": "Feature",
  "id": "node/8520267281",
  "properties": {
    "addr:city": "Schaffhausen",
    "addr:housenumber": "1",
    "addr:postcode": "8200",
    "addr:street": "Beckenstube 1",
    "amenity": "police",
    "name": "Stadtpolizei Schaffhausen",
    "operator": "Stadt Schaffhausen",
    "id": "node/8520267281"
  },
  "geometry": {
    "type": "Point",
    "coordinates": [
      8.6352839,
      47.6950397
    ]
  }
}
]
}
