{
"type": "FeatureCollection",
"features": [
{
  "type": "Feature",
  "id": "node/29456226",
  "properties": {
    "addr:city": "Winterthur",
    "addr:housenumber": "24",
    "addr:postcode": "8400",
    "addr:street": "Hermann-Götz-Strasse",
    "alt_name": "Kapo",
    "amenity": "police",
    "name": "Polizeiposten Winterthur Ost",
    "operator": "Kantonspolizei Zürich",
    "operator:wikidata": "Q1728099",
    "operator:wikipedia": "de:Kantonspolizei Zürich",
    "phone": "+41 52 268 52 22",
    "id": "node/29456226"
  },
  "geometry": {
    "type": "Point",
    "coordinates": [
      8.7302601,
      47.5046673
    ]
  }
},
{
  "type": "Feature",
  "id": "node/29885122",
  "properties": {
    "addr:city": "Neuhausen am Rheinfall",
    "addr:housenumber": "26",
    "addr:postcode": "8212",
    "addr:street": "Rheingoldstrasse",
    "amenity": "police",
    "fax": "+41 52 632 89 39",
    "name": "Polizeistation Neuhausen am Rheinfall",
    "opening_hours": "Mo 07:00-11:30,13:45-17:00; Tu,We,Fr 13:45-17:00; Th 13:45-18:00",
    "operator": "Schaffhauser Polizei",
    "phone": "+41 52 632 89 20",
    "wheelchair": "no",
    "id": "node/29885122"
  },
  "geometry": {
    "type": "Point",
    "coordinates": [
      8.6217342,
      47.6807674
    ]
  }
},
{
  "type": "Feature",
  "id": "node/119484102",
  "properties": {
    "addr:city": "Zürich",
    "addr:country": "CH",
    "addr:housenumber": "10",
    "addr:postcode": "8006",
    "addr:street": "Röslistrasse",
    "amenity": "police",
    "name": "Quartierwache Unterstrass",
    "opening_hours": "Mo-Fr 08:00-14:00; Tu 08:00-17:00",
    "operator": "Stadtpolizei Zürich",
    "phone": "+41 44 411 83 43",
    "id": "node/119484102"
  },
  "geometry": {
    "type": "Point",
    "coordinates": [
      8.5411342,
      47.3883166
    ]
  }
},
{
  "type": "Feature",
  "id": "node/130113036",
  "properties": {
    "addr:city": "Zürich",
    "addr:country": "CH",
    "addr:housenumber": "2",
    "addr:postcode": "8002",
    "addr:street": "Bederstrasse",
    "amenity": "police",
    "check_date:opening_hours": "2018-11-08",
    "contact:fax": "+41 44 281 00 10",
    "contact:phone": "+41 44 411 81 43",
    "name": "Quartierwache Enge",
    "opening_hours": "Mo-Fr 07:00-17:00; Tu 07:00-12:00",
    "operator": "Stadtpolizei Zürich",
    "operator:wikidata": "Q2327949",
    "website": "https://www.stadt-zuerich.ch/pd/de/index/stadtpolizei_zuerich/ueber_uns/standorte/quartierwachen/enge.html",
    "id": "node/130113036"
  },
  "geometry": {
    "type": "Point",
    "coordinates": [
      8.5313927,
      47.3653405
    ]
  }
},
{
  "type": "Feature",
  "id": "node/264064249",
  "properties": {
    "addr:city": "Wallisellen",
    "addr:housenumber": "16",
    "addr:postcode": "8304",
    "addr:street": "Neugutstrasse",
    "alt_name": "Kapo",
    "amenity": "police",
    "name": "Polizeiposten Wallisellen",
    "operator": "Kantonspolizei Zürich",
    "operator:wikidata": "Q1728099",
    "operator:wikipedia": "de:Kantonspolizei Zürich",
    "phone": "+41 44 839 10 20",
    "id": "node/264064249"
  },
  "geometry": {
    "type": "Point",
    "coordinates": [
      8.5967147,
      47.4117193
    ]
  }
},
{
  "type": "Feature",
  "id": "node/264796684",
  "properties": {
    "addr:city": "Dietlikon",
    "addr:housenumber": "60",
    "addr:postcode": "8305",
    "addr:street": "Bahnhofstrasse",
    "amenity": "police",
    "name": "Polizeiposten Dietlikon",
    "operator": "Kantonspolizei Zürich",
    "operator:wikidata": "Q1728099",
    "operator:wikipedia": "de:Kantonspolizei Zürich",
    "id": "node/264796684"
  },
  "geometry": {
    "type": "Point",
    "coordinates": [
      8.6186672,
      47.4246442
    ]
  }
},
{
  "type": "Feature",
  "id": "node/271215645",
  "properties": {
    "addr:city": "Zürich",
    "addr:housenumber": "260",
    "addr:postcode": "8008",
    "addr:street": "Bellerivestrasse",
    "alt_name": "Dienstgebäude Tiefenbrunnen Wasserschutzpolizei",
    "amenity": "police",
    "description": "Städtische Seepolizei und Gewässerschutz",
    "name": "Wache Wasserschutzpolizei",
    "opening_hours": "Tu,Th 07:30-13:00; We,Fr 13:00-16:30",
    "operator": "Stadtpolizei Zürich",
    "phone": "+41 44 411 84 42",
    "wheelchair": "yes",
    "id": "node/271215645"
  },
  "geometry": {
    "type": "Point",
    "coordinates": [
      8.5623665,
      47.3480497
    ]
  }
},
{
  "type": "Feature",
  "id": "node/274826295",
  "properties": {
    "addr:city": "Zürich",
    "addr:country": "CH",
    "addr:housenumber": "3",
    "addr:postcode": "8008",
    "addr:street": "Riesbachstrasse",
    "amenity": "police",
    "name": "Quartierwache Riesbach",
    "opening_hours": "Mo 07:00-13:00; Tu-Fr 08:00-17:00; Th 08:00-13:00",
    "operator": "Stadtpolizei Zürich",
    "phone": "+41 44 411 82 63",
    "wheelchair": "no",
    "id": "node/274826295"
  },
  "geometry": {
    "type": "Point",
    "coordinates": [
      8.553662,
      47.3605777
    ]
  }
},
{
  "type": "Feature",
  "id": "node/282951415",
  "properties": {
    "addr:city": "Fällanden",
    "addr:housenumber": "10",
    "addr:postcode": "8117",
    "addr:street": "Schwerzenbachstrasse",
    "amenity": "police",
    "name": "Polizeiposten Fällanden",
    "operator": "Kantonspolizei Zürich",
    "operator:wikidata": "Q1728099",
    "operator:wikipedia": "de:Kantonspolizei Zürich",
    "phone": "+41 44 806 40 60",
    "id": "node/282951415"
  },
  "geometry": {
    "type": "Point",
    "coordinates": [
      8.6407135,
      47.3716992
    ]
  }
},
{
  "type": "Feature",
  "id": "node/291384182",
  "properties": {
    "addr:city": "Schwyz",
    "addr:housenumber": "7",
    "addr:postcode": "6430",
    "addr:street": "Bahnhofstrasse",
    "alt_name": "Kapo SZ",
    "amenity": "police",
    "email": "kapo@sz.ch",
    "name": "Polizeiposten Schwyz Hauptposten",
    "opening_hours": "Mo-Fr 08:00-11:30,14:00-17:30; Sa 09:30-11:30",
    "operator": "Kantonspolizei Schwyz",
    "phone": "+41 41 819 28 37",
    "website": "https://www.sz.ch/behoerden/sicherheit-polizei/kantonspolizei/standorte/standort-hauptposten-schwyz.html/72-416-411-408-2795-2779/strasse/Bahnhofstrasse%207%2C%206430%20Schwyz/l/de",
    "id": "node/291384182"
  },
  "geometry": {
    "type": "Point",
    "coordinates": [
      8.65035,
      47.0210886
    ]
  }
},
{
  "type": "Feature",
  "id": "node/304645242",
  "properties": {
    "addr:city": "Buchs",
    "addr:housenumber": "11",
    "addr:postcode": "8107",
    "addr:street": "Badenerstrasse",
    "amenity": "police",
    "name": "Polizeiposten Buchs",
    "operator": "Kantonspolizei Zürich",
    "operator:wikidata": "Q1728099",
    "operator:wikipedia": "de:Kantonspolizei Zürich",
    "phone": "+41 44 847 60 30",
    "website": "https://www.kapo.zh.ch/",
    "wheelchair": "limited",
    "id": "node/304645242"
  },
  "geometry": {
    "type": "Point",
    "coordinates": [
      8.4357835,
      47.457772
    ]
  }
},
{
  "type": "Feature",
  "id": "node/307669469",
  "properties": {
    "addr:city": "Wädenswil",
    "addr:housenumber": "4a",
    "addr:postcode": "8820",
    "addr:street": "Schönenbergstrasse",
    "alt_name": "KomPol Wädenswil",
    "amenity": "police",
    "description": "Polizeiposten und Fundbüro",
    "loc_name": "Gemeindepolizei Wädenswil",
    "name": "Polizeiposten Stadtpolizei Wädenswil",
    "operator": "Stadt Wädenswil",
    "phone": "+41 44 789 74 00",
    "source": "+41 44 789 74 00",
    "id": "node/307669469"
  },
  "geometry": {
    "type": "Point",
    "coordinates": [
      8.6712536,
      47.2292784
    ]
  }
},
{
  "type": "Feature",
  "id": "node/320132833",
  "properties": {
    "addr:city": "Uster",
    "addr:housenumber": "82",
    "addr:postcode": "8610",
    "addr:street": "Oberlandstrasse",
    "amenity": "police",
    "level": "2",
    "name": "Polizeiposten Stadtpolizei Uster",
    "operator": "Stadt Uster",
    "phone": "+41 44 944 76 66",
    "id": "node/320132833"
  },
  "geometry": {
    "type": "Point",
    "coordinates": [
      8.7155155,
      47.3538334
    ]
  }
},
{
  "type": "Feature",
  "id": "node/324711565",
  "properties": {
    "addr:city": "Rotkreuz",
    "addr:housenumber": "12",
    "addr:postcode": "6343",
    "addr:street": "Luzernerstrasse",
    "amenity": "police",
    "name": "Polizeidienststelle Rotkreuz / Risch",
    "opening_hours": "Mo 16:00-18:00; Tu-Fr 09:45-11:45",
    "operator": "Zuger Polizei",
    "phone": "+41 41 799 71 20",
    "website": "https://www.zg.ch/behoerden/sicherheitsdirektion/zuger-polizei/polizeidienststellen/polizeidienststelle-rotkreuz-risch",
    "id": "node/324711565"
  },
  "geometry": {
    "type": "Point",
    "coordinates": [
      8.4265064,
      47.1401134
    ]
  }
},
{
  "type": "Feature",
  "id": "node/335780668",
  "properties": {
    "addr:city": "Unterägeri",
    "addr:housenumber": "46",
    "addr:postcode": "6314",
    "addr:street": "Zugerstrasse",
    "amenity": "police",
    "email": "info.polizei@zg.ch",
    "name": "Polizeidienststelle Ägerital",
    "opening_hours": "Mo 16:00-18:00; Tu 09:45-11:45; We 15:30-17:00; Th 09:45-11:45; Fr 09:45-11:45",
    "operator": "Zuger Polizei",
    "phone": "+41 41 723 66 80",
    "website": "https://www.zg.ch/behoerden/sicherheitsdirektion/zuger-polizei/polizeidienststellen/polizeidienststelle-aegerital",
    "id": "node/335780668"
  },
  "geometry": {
    "type": "Point",
    "coordinates": [
      8.577133,
      47.1382501
    ]
  }
},
{
  "type": "Feature",
  "id": "node/362688400",
  "properties": {
    "addr:city": "Zürich",
    "addr:country": "CH",
    "addr:housenumber": "160",
    "addr:postcode": "8049",
    "addr:street": "Limmattalstrasse",
    "amenity": "police",
    "name": "Quartierwache Höngg",
    "opening_hours": "Mo-Fr 08:00-12:00, 13:00-17:00; We-Th 08:00-12:00",
    "operator": "Stadtpolizei Zürich",
    "id": "node/362688400"
  },
  "geometry": {
    "type": "Point",
    "coordinates": [
      8.5010076,
      47.4016256
    ]
  }
},
{
  "type": "Feature",
  "id": "node/383897745",
  "properties": {
    "addr:city": "Stäfa",
    "addr:housenumber": "26",
    "addr:postcode": "8712",
    "addr:street": "Bahnhofstrasse",
    "alt_name": "Kapo",
    "amenity": "police",
    "name": "Polizeiposten Stäfa",
    "opening_hours": "Mo-Fr 08:00-12:00,13:00-17:00",
    "operator": "Kantonspolizei Zürich",
    "operator:wikidata": "Q1728099",
    "operator:wikipedia": "de:Kantonspolizei Zürich",
    "phone": "+41 44 928 17 00",
    "id": "node/383897745"
  },
  "geometry": {
    "type": "Point",
    "coordinates": [
      8.7218374,
      47.2400471
    ]
  }
},
{
  "type": "Feature",
  "id": "node/392389131",
  "properties": {
    "addr:city": "Fehraltorf",
    "addr:country": "CH",
    "addr:housenumber": "1",
    "addr:postcode": "8320",
    "addr:street": "Kirchgasse",
    "alt_name": "KomPol Fehraltorf-Russikon",
    "amenity": "police",
    "name": "Polizeiposten Gemeindepolizei Fehraltorf-Russikon",
    "opening_hours": "Mo,We-Th 14:00-18:15; Fr 07:30-14:00",
    "operator": "Stadt Fehraltorf-Russikon",
    "phone": "+41 43 355 77 30",
    "id": "node/392389131"
  },
  "geometry": {
    "type": "Point",
    "coordinates": [
      8.7528366,
      47.3869737
    ]
  }
},
{
  "type": "Feature",
  "id": "node/431290189",
  "properties": {
    "addr:city": "Wetzikon",
    "addr:country": "CH",
    "addr:housenumber": "196",
    "addr:postcode": "8620",
    "addr:street": "Bahnhofstrasse",
    "alt_name": "Kapo",
    "amenity": "police",
    "name": "Polizeiposten Wetzikon (Kantonspolizei)",
    "operator": "Kantonspolizei Zürich",
    "operator:wikidata": "Q1728099",
    "operator:wikipedia": "de:Kantonspolizei Zürich",
    "phone": "+41 43 488 20 40",
    "id": "node/431290189"
  },
  "geometry": {
    "type": "Point",
    "coordinates": [
      8.8018541,
      47.3272962
    ]
  }
},
{
  "type": "Feature",
  "id": "node/436132061",
  "properties": {
    "addr:city": "Stein am Rhein",
    "addr:country": "CH",
    "addr:housenumber": "12",
    "addr:postcode": "8260",
    "addr:street": "Chlini Schanz",
    "amenity": "police",
    "fax": "+41 52 741 34 93",
    "name": "Polizeistation Stein am Rhein",
    "operator": "Schaffhauser Polizei",
    "phone": "+41 52 741 22 04",
    "url": "http://www.shpol.ch/",
    "id": "node/436132061"
  },
  "geometry": {
    "type": "Point",
    "coordinates": [
      8.8603742,
      47.6607428
    ]
  }
},
{
  "type": "Feature",
  "id": "node/436132162",
  "properties": {
    "addr:city": "Stein am Rhein",
    "addr:postcode": "8260",
    "addr:street": "Rathausplatz",
    "amenity": "police",
    "name": "Stadtpolizei Stein am Rhein",
    "operator": "Stadt Stein am Rhein",
    "phone": "+41 52 742 20 10",
    "wheelchair": "no",
    "id": "node/436132162"
  },
  "geometry": {
    "type": "Point",
    "coordinates": [
      8.8596279,
      47.6592124
    ]
  }
},
{
  "type": "Feature",
  "id": "node/454974838",
  "properties": {
    "addr:city": "Zürich",
    "addr:country": "CH",
    "addr:housenumber": "1",
    "addr:postcode": "8005",
    "addr:street": "Fabrikstrasse",
    "amenity": "police",
    "name": "Regionalwache Industrie",
    "opening_hours": "24/7",
    "operator": "Stadtpolizei Zürich",
    "operator:wikidata": "Q2327949",
    "id": "node/454974838"
  },
  "geometry": {
    "type": "Point",
    "coordinates": [
      8.5295366,
      47.387443
    ]
  }
},
{
  "type": "Feature",
  "id": "node/457701595",
  "properties": {
    "addr:city": "Einsiedeln",
    "addr:housenumber": "20a",
    "addr:postcode": "8840",
    "addr:street": "Eisenbahnstrasse",
    "amenity": "police",
    "name": "Polizeiposten Einsiedeln",
    "operator": "Kantonspolizei Schwyz",
    "phone": "+41 41 819 58 88",
    "website": "http://www.einsiedeln.ch/bezirk/wo-ist-was/polizeiposten",
    "id": "node/457701595"
  },
  "geometry": {
    "type": "Point",
    "coordinates": [
      8.7491763,
      47.1287135
    ]
  }
},
{
  "type": "Feature",
  "id": "node/471042094",
  "properties": {
    "addr:city": "Effretikon",
    "addr:housenumber": "3",
    "addr:postcode": "8307",
    "addr:street": "Rikonerstrasse",
    "amenity": "police",
    "name": "Polizeiposten Effretikon",
    "operator": "Kantonspolizei Zürich",
    "operator:wikidata": "Q1728099",
    "operator:wikipedia": "de:Kantonspolizei Zürich",
    "phone": "+41 52 355 37 00",
    "id": "node/471042094"
  },
  "geometry": {
    "type": "Point",
    "coordinates": [
      8.68615,
      47.4283414
    ]
  }
},
{
  "type": "Feature",
  "id": "node/483418095",
  "properties": {
    "addr:city": "Uster",
    "addr:housenumber": "15",
    "addr:postcode": "8610",
    "addr:street": "Weiherallee",
    "alt_name": "Kapo",
    "amenity": "police",
    "name": "Polizeiposten Uster",
    "operator": "Kantonspolizei Zürich",
    "operator:wikidata": "Q1728099",
    "operator:wikipedia": "de:Kantonspolizei Zürich",
    "phone": "+41 44 943 79 00",
    "id": "node/483418095"
  },
  "geometry": {
    "type": "Point",
    "coordinates": [
      8.7055247,
      47.3462002
    ]
  }
},
{
  "type": "Feature",
  "id": "node/532251110",
  "properties": {
    "addr:city": "Birmensdorf (ZH)",
    "addr:housenumber": "3",
    "addr:postcode": "8903",
    "addr:street": "Stallikonerstrasse",
    "amenity": "police",
    "name": "Polizeiposten Birmensdorf",
    "operator": "Kantonspolizei Zürich",
    "operator:wikidata": "Q1728099",
    "operator:wikipedia": "de:Kantonspolizei Zürich",
    "phone": "+41 44 739 16 60",
    "wheelchair": "yes",
    "id": "node/532251110"
  },
  "geometry": {
    "type": "Point",
    "coordinates": [
      8.4376703,
      47.3540323
    ]
  }
},
{
  "type": "Feature",
  "id": "node/563313615",
  "properties": {
    "addr:city": "Dübendorf",
    "addr:housenumber": "18",
    "addr:postcode": "8600",
    "addr:street": "Wilstrasse",
    "alt_name": "KomPol Dübendorf",
    "amenity": "police",
    "name": "Polizeiposten Stadtpolizei Dübendorf",
    "opening_hours": "Mo-Fr 08:00-11:30, 13:30-16:30",
    "operator": "Stadt Dübendorf",
    "phone": "+41 44 801 69 00",
    "website": "http://www.duebendorf.ch",
    "wheelchair": "no",
    "id": "node/563313615"
  },
  "geometry": {
    "type": "Point",
    "coordinates": [
      8.6165483,
      47.3961321
    ]
  }
},
{
  "type": "Feature",
  "id": "node/656566476",
  "properties": {
    "addr:city": "Zürich",
    "addr:country": "CH",
    "addr:housenumber": "105",
    "addr:postcode": "8004",
    "addr:street": "Militärstrasse",
    "amenity": "police",
    "name": "Regionalwache Aussersihl",
    "opening_hours": "24/7",
    "operator": "Stadtpolizei Zürich",
    "id": "node/656566476"
  },
  "geometry": {
    "type": "Point",
    "coordinates": [
      8.5288494,
      47.3790011
    ]
  }
},
{
  "type": "Feature",
  "id": "node/660176171",
  "properties": {
    "addr:city": "Steinhausen",
    "addr:housenumber": "3",
    "addr:postcode": "6312",
    "addr:street": "Bahnhofstrasse",
    "amenity": "police",
    "name": "Polizeidienststelle Steinhausen",
    "operator": "Zuger Polizei",
    "phone": "+41 41 723 65 50",
    "id": "node/660176171"
  },
  "geometry": {
    "type": "Point",
    "coordinates": [
      8.484064,
      47.1963002
    ]
  }
},
{
  "type": "Feature",
  "id": "node/664398860",
  "properties": {
    "addr:city": "Wetzikon",
    "addr:country": "CH",
    "addr:housenumber": "193",
    "addr:postcode": "8620",
    "addr:street": "Bahnhofstrasse",
    "alt_name": "KomPol Wetzikon",
    "amenity": "police",
    "loc_name": "Gemeindepolizei Wetzikon",
    "name": "Polizeiposten Stadtpolizei Wetzikon",
    "operator": "Stadt Wetzikon",
    "phone": "+41 44 931 23 33",
    "website": "https://www.wetzikon.ch/Verwaltung/Sicherheit/stadtpolizei",
    "wheelchair": "no",
    "id": "node/664398860"
  },
  "geometry": {
    "type": "Point",
    "coordinates": [
      8.8028842,
      47.3285564
    ]
  }
},
{
  "type": "Feature",
  "id": "node/733254763",
  "properties": {
    "addr:city": "Zürich",
    "addr:housenumber": "61",
    "addr:postcode": "8001",
    "addr:street": "Limmatquai",
    "alt_name": "Kapo",
    "amenity": "police",
    "name": "Polizeiposten Rathaus Zürich",
    "opening_hours": "Mo-Fr 07:00-17:30",
    "opening_hours:covid19": "open",
    "operator": "Kantonspolizei Zürich",
    "operator:wikidata": "Q1728099",
    "operator:wikipedia": "de:Kantonspolizei Zürich",
    "phone": "+41 44 247 29 80",
    "toilets:wheelchair": "yes",
    "wheelchair": "yes",
    "id": "node/733254763"
  },
  "geometry": {
    "type": "Point",
    "coordinates": [
      8.542614,
      47.3718827
    ]
  }
},
{
  "type": "Feature",
  "id": "node/775341414",
  "properties": {
    "addr:city": "Küsnacht",
    "addr:housenumber": "135",
    "addr:postcode": "8700",
    "addr:street": "Alte Landstrasse",
    "amenity": "police",
    "name": "Polizeiposten Küsnacht",
    "operator": "Kantonspolizei Zürich",
    "operator:wikidata": "Q1728099",
    "operator:wikipedia": "de:Kantonspolizei Zürich",
    "phone": "+41 44 914 21 20",
    "id": "node/775341414"
  },
  "geometry": {
    "type": "Point",
    "coordinates": [
      8.5847004,
      47.3192465
    ]
  }
},
{
  "type": "Feature",
  "id": "node/934029855",
  "properties": {
    "addr:city": "Feuerthalen",
    "addr:housenumber": "2",
    "addr:postcode": "8245",
    "addr:street": "Schützenstrasse",
    "amenity": "police",
    "name": "Polizeiposten Feuerthalen",
    "operator": "Kantonspolizei Zürich",
    "operator:wikidata": "Q1728099",
    "operator:wikipedia": "de:Kantonspolizei Zürich",
    "phone": "+41 52 647 00 70",
    "wheelchair": "no",
    "id": "node/934029855"
  },
  "geometry": {
    "type": "Point",
    "coordinates": [
      8.6435334,
      47.6926847
    ]
  }
},
{
  "type": "Feature",
  "id": "node/935796165",
  "properties": {
    "addr:city": "Zürich",
    "addr:country": "CH",
    "addr:housenumber": "173",
    "addr:postcode": "8046",
    "addr:street": "In Böden",
    "amenity": "police",
    "name": "Quartierwache Affoltern",
    "opening_hours": "Mo 08:00-12:00, 13:00-17:00; Tu-Th 11:00-17:30",
    "operator": "Stadtpolizei Zürich",
    "id": "node/935796165"
  },
  "geometry": {
    "type": "Point",
    "coordinates": [
      8.5076354,
      47.4194962
    ]
  }
},
{
  "type": "Feature",
  "id": "node/983436285",
  "properties": {
    "addr:city": "Zürich",
    "addr:country": "CH",
    "addr:housenumber": "5",
    "addr:postcode": "8051",
    "addr:street": "Dübendorfstrasse",
    "amenity": "police",
    "name": "Quartierwache Schwamendingen",
    "opening_hours": "Mo-Fr 08:00-12:00, 13:00-17:00; Tu, Th 11:00-17:00",
    "operator": "Stadtpolizei Zürich",
    "phone": "+41 44 411 83 33",
    "id": "node/983436285"
  },
  "geometry": {
    "type": "Point",
    "coordinates": [
      8.5744884,
      47.4041947
    ]
  }
},
{
  "type": "Feature",
  "id": "node/998023297",
  "properties": {
    "addr:city": "Hünenberg",
    "addr:housenumber": "11",
    "addr:postcode": "6331",
    "addr:street": "Chamerstrasse",
    "amenity": "police",
    "name": "Polizeidienststelle Hünenberg",
    "opening_hours": "Mo 16:00-18:00; Tu-Fr 14:00-16:00",
    "operator": "Zuger Polizei",
    "phone": "+41 41 723 66 55",
    "website": "https://www.zg.ch/behoerden/sicherheitsdirektion/zuger-polizei/polizeidienststellen/polizeidienststelle-huenenberg",
    "id": "node/998023297"
  },
  "geometry": {
    "type": "Point",
    "coordinates": [
      8.4266086,
      47.1750023
    ]
  }
},
{
  "type": "Feature",
  "id": "node/1002391792",
  "properties": {
    "addr:city": "Lachen",
    "addr:housenumber": "22",
    "addr:postcode": "8853",
    "addr:street": "Alpenblickstrasse",
    "amenity": "police",
    "name": "Polizeiposten Lachen (Hauptposten)",
    "opening_hours": "Mo-Fr 08:00-11:30,14:00-17:30; Sa 09:30-11:30",
    "operator": "Kantonspolizei Schwyz",
    "phone": "+41 41 819 59 59",
    "website": "https://www.sz.ch/behoerden/sicherheit-polizei/kantonspolizei/standorte/standort-hauptposten-lachen.html",
    "id": "node/1002391792"
  },
  "geometry": {
    "type": "Point",
    "coordinates": [
      8.8571796,
      47.191093
    ]
  }
},
{
  "type": "Feature",
  "id": "node/1152501760",
  "properties": {
    "addr:city": "Zürich",
    "addr:country": "CH",
    "addr:housenumber": "87",
    "addr:postcode": "8003",
    "addr:street": "Zurlindenstrasse",
    "amenity": "police",
    "name": "Regionalwache Wiedikon",
    "opening_hours": "24/7",
    "operator": "Stadtpolizei Zürich",
    "operator:wikidata": "Q2327949",
    "wheelchair": "yes",
    "id": "node/1152501760"
  },
  "geometry": {
    "type": "Point",
    "coordinates": [
      8.5192998,
      47.3704185
    ]
  }
}
]
}
