{
"type": "FeatureCollection",
"features": [
{
  "type": "Feature",
  "id": "node/324711565",
  "properties": {
    "addr:city": "Rotkreuz",
    "addr:housenumber": "12",
    "addr:postcode": "6343",
    "addr:street": "Luzernerstrasse",
    "amenity": "police",
    "name": "Polizeidienststelle Rotkreuz / Risch",
    "opening_hours": "Mo 16:00-18:00; Tu-Fr 09:45-11:45",
    "operator": "Zuger Polizei",
    "phone": "+41 41 799 71 20",
    "website": "https://www.zg.ch/behoerden/sicherheitsdirektion/zuger-polizei/polizeidienststellen/polizeidienststelle-rotkreuz-risch",
    "id": "node/324711565"
  },
  "geometry": {
    "type": "Point",
    "coordinates": [
      8.4265064,
      47.1401134
    ]
  }
},
{
  "type": "Feature",
  "id": "node/335780668",
  "properties": {
    "addr:city": "Unterägeri",
    "addr:housenumber": "46",
    "addr:postcode": "6314",
    "addr:street": "Zugerstrasse",
    "amenity": "police",
    "email": "info.polizei@zg.ch",
    "name": "Polizeidienststelle Ägerital",
    "opening_hours": "Mo 16:00-18:00; Tu 09:45-11:45; We 15:30-17:00; Th 09:45-11:45; Fr 09:45-11:45",
    "operator": "Zuger Polizei",
    "phone": "+41 41 723 66 80",
    "website": "https://www.zg.ch/behoerden/sicherheitsdirektion/zuger-polizei/polizeidienststellen/polizeidienststelle-aegerital",
    "id": "node/335780668"
  },
  "geometry": {
    "type": "Point",
    "coordinates": [
      8.577133,
      47.1382501
    ]
  }
},
{
  "type": "Feature",
  "id": "node/660176171",
  "properties": {
    "addr:city": "Steinhausen",
    "addr:housenumber": "3",
    "addr:postcode": "6312",
    "addr:street": "Bahnhofstrasse",
    "amenity": "police",
    "name": "Polizeidienststelle Steinhausen",
    "operator": "Zuger Polizei",
    "phone": "+41 41 723 65 50",
    "id": "node/660176171"
  },
  "geometry": {
    "type": "Point",
    "coordinates": [
      8.484064,
      47.1963002
    ]
  }
},
{
  "type": "Feature",
  "id": "node/998023297",
  "properties": {
    "addr:city": "Hünenberg",
    "addr:housenumber": "11",
    "addr:postcode": "6331",
    "addr:street": "Chamerstrasse",
    "amenity": "police",
    "name": "Polizeidienststelle Hünenberg",
    "opening_hours": "Mo 16:00-18:00; Tu-Fr 14:00-16:00",
    "operator": "Zuger Polizei",
    "phone": "+41 41 723 66 55",
    "website": "https://www.zg.ch/behoerden/sicherheitsdirektion/zuger-polizei/polizeidienststellen/polizeidienststelle-huenenberg",
    "id": "node/998023297"
  },
  "geometry": {
    "type": "Point",
    "coordinates": [
      8.4266086,
      47.1750023
    ]
  }
}
]
}
