{
"type": "FeatureCollection",
"features": [
{
  "type": "Feature",
  "id": "way/44917958",
  "properties": {
    "addr:city": "Zug",
    "addr:housenumber": "4",
    "addr:postcode": "6300",
    "addr:street": "An der Aa",
    "amenity": "police",
    "building": "yes",
    "email": "info.polizei@zg.ch",
    "name": "Polizeidienststelle Zug",
    "office": "government",
    "opening_hours": "Mo 08:00-11:45,13:30-18:00; Tu-Fr 08:00-11:45,13:30-17:00",
    "operator": "Zuger Polizei",
    "phone": "+41 41 728 41 50",
    "website": "https://www.zg.ch/behoerden/sicherheitsdirektion/zuger-polizei/polizeidienststellen/polizeihauptgebaeude-an-der-aa",
    "id": "way/44917958"
  },
  "geometry": {
    "type": "Polygon",
    "coordinates": [
      [
        [
          8.5095798,
          47.1732412
        ],
        [
          8.5097045,
          47.173208
        ],
        [
          8.5098157,
          47.1734009
        ],
        [
          8.5099168,
          47.173374
        ],
        [
          8.5098023,
          47.1731754
        ],
        [
          8.5100553,
          47.173108
        ],
        [
          8.5103323,
          47.1735886
        ],
        [
          8.5101788,
          47.1736295
        ],
        [
          8.5101145,
          47.1735179
        ],
        [
          8.5100175,
          47.1735438
        ],
        [
          8.5100796,
          47.1736515
        ],
        [
          8.5098513,
          47.1737123
        ],
        [
          8.5095798,
          47.1732412
        ]
      ]
    ]
  }
},
{
  "type": "Feature",
  "id": "way/113155811",
  "properties": {
    "addr:city": "Zug",
    "addr:housenumber": "4",
    "addr:postcode": "6300",
    "addr:street": "Kolinplatz",
    "amenity": "police",
    "building": "yes",
    "name": "Zuger Polizei",
    "id": "way/113155811"
  },
  "geometry": {
    "type": "Polygon",
    "coordinates": [
      [
        [
          8.5151101,
          47.1665663
        ],
        [
          8.5150228,
          47.1665077
        ],
        [
          8.5151856,
          47.1663888
        ],
        [
          8.5152712,
          47.1664441
        ],
        [
          8.5151833,
          47.1665095
        ],
        [
          8.5151588,
          47.1665278
        ],
        [
          8.5151395,
          47.1665422
        ],
        [
          8.5151101,
          47.1665663
        ]
      ]
    ]
  }
},
{
  "type": "Feature",
  "id": "node/324711565",
  "properties": {
    "addr:city": "Rotkreuz",
    "addr:housenumber": "12",
    "addr:postcode": "6343",
    "addr:street": "Luzernerstrasse",
    "amenity": "police",
    "name": "Polizeidienststelle Rotkreuz / Risch",
    "opening_hours": "Mo: 16:00 - 18:00 Uhr Di - Fr: 09:45 - 11:45 Uhr",
    "operator": "Zuger Polizei",
    "phone": "+41 41 799 71 20",
    "website": "https://www.zg.ch/behoerden/sicherheitsdirektion/zuger-polizei/polizeidienststellen/polizeidienststelle-rotkreuz-risch",
    "id": "node/324711565"
  },
  "geometry": {
    "type": "Point",
    "coordinates": [
      8.4265064,
      47.1401134
    ]
  }
},
{
  "type": "Feature",
  "id": "node/335780668",
  "properties": {
    "addr:city": "Unterägeri",
    "addr:housenumber": "46",
    "addr:postcode": "6314",
    "addr:street": "Zugerstrasse",
    "amenity": "police",
    "email": "info.polizei@zg.ch",
    "name": "Polizeidienststelle Ägerital",
    "opening_hours": "Mo 16:00-18:00; Tu 09:45-11:45; We 15:30-17:00; Th 09:45-11:45; Fr 09:45-11:45",
    "operator": "Kantonspolizei Zug",
    "phone": "+41 41 723 66 80",
    "website": "https://www.zg.ch/behoerden/sicherheitsdirektion/zuger-polizei/polizeidienststellen/polizeidienststelle-aegerital",
    "id": "node/335780668"
  },
  "geometry": {
    "type": "Point",
    "coordinates": [
      8.577133,
      47.1382501
    ]
  }
},
{
  "type": "Feature",
  "id": "node/660176171",
  "properties": {
    "addr:city": "Steinhausen",
    "addr:housenumber": "3",
    "addr:postcode": "6312",
    "addr:street": "Bahnhofstrasse",
    "amenity": "police",
    "name": "Polizeidienststelle Steinhausen",
    "operator": "Zuger Polizei",
    "phone": "+41 41 723 65 50",
    "id": "node/660176171"
  },
  "geometry": {
    "type": "Point",
    "coordinates": [
      8.484064,
      47.1963002
    ]
  }
},
{
  "type": "Feature",
  "id": "node/998023297",
  "properties": {
    "addr:city": "Hünenberg",
    "addr:housenumber": "11",
    "addr:postcode": "6331",
    "addr:street": "Chamerstrasse",
    "amenity": "police",
    "name": "Polizeidienststelle Hünenberg",
    "opening_hours": "Mo: 16:00 - 18:00 Uhr Di - Fr: 14:00 - 16:00 Uhr",
    "operator": "Zuger Polizei",
    "phone": "+41 41 723 66 55",
    "website": "https://www.zg.ch/behoerden/sicherheitsdirektion/zuger-polizei/polizeidienststellen/polizeidienststelle-huenenberg",
    "id": "node/998023297"
  },
  "geometry": {
    "type": "Point",
    "coordinates": [
      8.4266086,
      47.1750023
    ]
  }
},
{
  "type": "Feature",
  "id": "node/2860664391",
  "properties": {
    "addr:city": "Cham",
    "addr:housenumber": "9",
    "addr:postcode": "6330",
    "addr:street": "Luzernerstrasse",
    "amenity": "police",
    "name": "Polizeidienststelle Cham",
    "opening_hours": "Mo 08:00-11:45, 13:30-18:00; Tu-Fr 08:00-11:45, 13:30-17:00",
    "operator": "Zuger Polizei",
    "phone": "+41 41 728 41 41",
    "wheelchair": "limited",
    "id": "node/2860664391"
  },
  "geometry": {
    "type": "Point",
    "coordinates": [
      8.4588262,
      47.1803097
    ]
  }
},
{
  "type": "Feature",
  "id": "node/6878553597",
  "properties": {
    "addr:city": "Baar",
    "addr:housenumber": "11",
    "addr:postcode": "6340",
    "addr:street": "Leihgasse",
    "amenity": "police",
    "name": "Polizeidienststelle Baar",
    "opening_hours": "Mo: 08:00 - 11:45 Uhr / 13:30 - 18:00 Uhr Di - Fr: 08:00 - 11:45 Uhr / 13:30 - 17:00 Uhr",
    "operator": "Kantonspolizei Zug",
    "phone": "+41 41 723 65 40",
    "id": "node/6878553597"
  },
  "geometry": {
    "type": "Point",
    "coordinates": [
      8.5280574,
      47.1943653
    ]
  }
},
{
  "type": "Feature",
  "id": "node/7008903567",
  "properties": {
    "addr:city": "Menzingen",
    "addr:housenumber": "2a",
    "addr:postcode": "6313",
    "addr:street": "Alte Landstrasse",
    "amenity": "police",
    "name": "Polizeidienststelle Menzingen / Neuheim",
    "opening_hours": "Mo 16:00 - 18:00 Uhr Mi: 15:30 - 17:00 Uhr Fr: 09:45 - 11:45 Uhr",
    "operator": "Kantonspolizei Zug",
    "phone": "+41 41 723 66 85",
    "website": "https://www.zg.ch/behoerden/sicherheitsdirektion/zuger-polizei/polizeidienststellen/polizeidienststelle-menzingen-neuheim",
    "id": "node/7008903567"
  },
  "geometry": {
    "type": "Point",
    "coordinates": [
      8.5893993,
      47.1779745
    ]
  }
}
]
}
