{
"type": "FeatureCollection",
"features": [
{
  "type": "Feature",
  "id": "node/75757805",
  "properties": {
    "addr:city": "Stäfa",
    "addr:housenumber": "4",
    "addr:postcode": "8712",
    "addr:street": "Grundstrasse",
    "amenity": "pharmacy",
    "brand": "Fortis",
    "healthcare": "pharmacy",
    "name": "Apotheke zum Rebstock",
    "opening_hours": "Mo-Fr 08:00-12:30,13:30-18:30",
    "website": "http://apothekezumrebstock.ch/",
    "id": "node/75757805"
  },
  "geometry": {
    "type": "Point",
    "coordinates": [
      8.7262277,
      47.2409751
    ]
  }
},
{
  "type": "Feature",
  "id": "node/132405322",
  "properties": {
    "addr:city": "Bülach",
    "addr:housenumber": "28",
    "addr:postcode": "8180",
    "addr:street": "Bahnhofstrasse",
    "amenity": "pharmacy",
    "branch": "Bülach Sonnenhof",
    "brand": "Amavita",
    "brand:wikidata": "Q93733901",
    "brand:wikipedia": "de:Amavita",
    "dispensing": "omitted",
    "email": "ama325@amavita.ch",
    "fax": "+41 58 878 14 69",
    "healthcare": "pharmacy",
    "level": "0",
    "name": "Amavita",
    "opening_hours": "Mo-Th 09:00-19:00; Fr 08:00-19:00; Sa 08:00-17:00",
    "operator": "GaleniCare",
    "phone": "+41 58 878 14 60",
    "website": "https://www.amavita.ch/de/amavita-apotheke-sonnenhof",
    "id": "node/132405322"
  },
  "geometry": {
    "type": "Point",
    "coordinates": [
      8.540215,
      47.520987
    ]
  }
},
{
  "type": "Feature",
  "id": "node/246249851",
  "properties": {
    "addr:city": "Winterthur",
    "addr:housenumber": "102",
    "addr:postcode": "8406",
    "addr:street": "Zürcherstrasse",
    "alt_name": "Topwell Apotheke Zentrum Töss",
    "amenity": "pharmacy",
    "branch": "Winterthur Töss",
    "brand": "Medbase",
    "brand:wikidata": "Q50038690",
    "name": "Medbase Apotheke Zentrum Töss",
    "opening_hours": "Mo-Fr 08:00-18:30, Sa 08:00-16:00",
    "operator": "Medbase Apotheken",
    "website": "https://www.topwell.ch/medbaseapothekewinterthurzentrum/",
    "id": "node/246249851"
  },
  "geometry": {
    "type": "Point",
    "coordinates": [
      8.7060655,
      47.4917575
    ]
  }
},
{
  "type": "Feature",
  "id": "node/246249855",
  "properties": {
    "addr:city": "Winterthur",
    "addr:country": "CH",
    "addr:housenumber": "39",
    "addr:postcode": "8400",
    "addr:street": "Untertor",
    "amenity": "pharmacy",
    "check_date:opening_hours": "2023-02-21",
    "name": "Adler-Apotheke",
    "opening_hours": "Mo-Fr 07:45-20:00; Sa 07:45-18:00; Su 10:00-17:00",
    "wheelchair": "yes",
    "id": "node/246249855"
  },
  "geometry": {
    "type": "Point",
    "coordinates": [
      8.7242591,
      47.4990282
    ]
  }
},
{
  "type": "Feature",
  "id": "node/262378047",
  "properties": {
    "addr:city": "Zürich",
    "addr:country": "CH",
    "addr:housenumber": "55",
    "addr:postcode": "8032",
    "addr:street": "Freiestrasse",
    "alt_name": "DROPA Apotheke & Post Hottingen",
    "amenity": "pharmacy",
    "branch": "Zürich Hottingen",
    "brand": "DROPA",
    "brand:wikidata": "Q1260273",
    "contact:phone": "+41 44 251 29 42",
    "contact:website": "http://www.apotheke-hottingen.ch/",
    "name": "Dropa Hottingen",
    "official_name": "Hottinger-Apotheke & Post GmbH",
    "old_name": "Hottinger-Apotheke",
    "opening_hours": "Mo-Fr 08:00-18:30; Sa 08:00-12:00",
    "operator": "Dr. Bähler Dropa",
    "website": "https://dropa.ch/standorte/dropa-apotheke-post-hottingen",
    "id": "node/262378047"
  },
  "geometry": {
    "type": "Point",
    "coordinates": [
      8.5557788,
      47.3697086
    ]
  }
},
{
  "type": "Feature",
  "id": "node/268603397",
  "properties": {
    "addr:city": "Zürich",
    "addr:country": "CH",
    "addr:housenumber": "14",
    "addr:place": "Bellevue",
    "addr:postcode": "8001",
    "addr:street": "Theaterstrasse",
    "amenity": "pharmacy",
    "contact:email": "info@bellevue-apotheke.ch",
    "contact:fax": "+41 44 261 02 10",
    "contact:phone": "+41 44 266 62 22",
    "contact:website": "http://www.bellevue-apotheke.ch/",
    "name": "Bellevue Apotheke",
    "opening_hours": "24/7",
    "wheelchair": "yes",
    "id": "node/268603397"
  },
  "geometry": {
    "type": "Point",
    "coordinates": [
      8.5461401,
      47.3668025
    ]
  }
},
{
  "type": "Feature",
  "id": "node/269234979",
  "properties": {
    "addr:city": "Uster",
    "addr:housenumber": "9",
    "addr:postcode": "8610",
    "addr:street": "Brunnenstrasse",
    "alt_name": "DROPA Apotheke Brunnen",
    "amenity": "pharmacy",
    "branch": "Uster Brunnen",
    "brand": "DROPA",
    "brand:wikidata": "Q1260273",
    "healthcare": "pharmacy",
    "name": "Dropa Brunnen",
    "old_name": "Brunnenapotheke",
    "opening_hours": "Mo-Fr 08:00-12:00, 13:30-18:30; Sa 08:00-16:00",
    "operator": "Dr. Bähler Dropa",
    "website": "https://dropa.ch/standorte/dropa-apotheke-brunnen",
    "id": "node/269234979"
  },
  "geometry": {
    "type": "Point",
    "coordinates": [
      8.7206281,
      47.350967
    ]
  }
},
{
  "type": "Feature",
  "id": "node/271223620",
  "properties": {
    "addr:city": "Zürich",
    "addr:country": "CH",
    "addr:housenumber": "331",
    "addr:postcode": "8008",
    "addr:street": "Forchstrasse",
    "amenity": "pharmacy",
    "brand": "Rotpunkt Apotheke",
    "name": "Balgrist Apotheke",
    "opening_hours": "Mo-Sa 08:00-18:30; Sa 08:00-16:00",
    "operator": "Rotpunkt Pharma",
    "website": "http://www.balgrist-apotheke.ch/",
    "wheelchair": "yes",
    "id": "node/271223620"
  },
  "geometry": {
    "type": "Point",
    "coordinates": [
      8.5753312,
      47.3546412
    ]
  }
},
{
  "type": "Feature",
  "id": "node/271225056",
  "properties": {
    "addr:city": "Zürich",
    "addr:country": "CH",
    "addr:housenumber": "193",
    "addr:postcode": "8032",
    "addr:street": "Forchstrasse",
    "amenity": "pharmacy",
    "name": "Hirslanden-Apotheke",
    "opening_hours": "Mo-Fr 07:45-18:30; Sa 07:45-16:00",
    "operator": "Dr. rer. nat. Karl-Rudolf Reichenbach",
    "wheelchair": "no",
    "id": "node/271225056"
  },
  "geometry": {
    "type": "Point",
    "coordinates": [
      8.5676263,
      47.3604242
    ]
  }
},
{
  "type": "Feature",
  "id": "node/272354353",
  "properties": {
    "addr:city": "Zürich",
    "addr:country": "CH",
    "addr:housenumber": "2",
    "addr:postcode": "8001",
    "addr:street": "Limmatquai",
    "amenity": "pharmacy",
    "branch": "Zürich Bellevue",
    "brand": "Achillea Apotheke",
    "healthcare": "pharmacy",
    "level": "0",
    "name": "Odeon Apotheke",
    "opening_hours": "Mo-Su 08:00-20:00",
    "operator": "Dr. Bähler Dropa",
    "website": "https://achillea.ch/standorte/odeon-apotheke",
    "wheelchair": "yes",
    "id": "node/272354353"
  },
  "geometry": {
    "type": "Point",
    "coordinates": [
      8.5452717,
      47.367682
    ]
  }
},
{
  "type": "Feature",
  "id": "node/282655583",
  "properties": {
    "addr:city": "Winterthur",
    "addr:housenumber": "4",
    "addr:postcode": "8400",
    "addr:street": "Steiggasse",
    "amenity": "pharmacy",
    "check_date": "2023-07-07",
    "dispensing": "yes",
    "name": "Steinberg-Apotheke",
    "opening_hours": "Mo-Fr 08:00-18:30; Sa 08:00-16:00",
    "wheelchair": "yes",
    "id": "node/282655583"
  },
  "geometry": {
    "type": "Point",
    "coordinates": [
      8.7280144,
      47.4981044
    ]
  }
},
{
  "type": "Feature",
  "id": "node/301815427",
  "properties": {
    "addr:city": "Zürich",
    "addr:country": "CH",
    "addr:housenumber": "26",
    "addr:postcode": "8004",
    "addr:street": "Stauffacherstrasse",
    "amenity": "pharmacy",
    "branch": "Zürich Stauffacher",
    "brand": "Medbase",
    "brand:wikidata": "Q50038690",
    "dispensing": "yes",
    "name": "Berg-Apotheke by Medbase",
    "opening_hours": "Mo-Sa 07:00-19:00; Su,PH closed",
    "operator": "Medbase Apotheken",
    "website": "https://www.medbase-apotheken.ch/apotheken/detail/berg-apotheke-by-medbase",
    "wheelchair": "yes",
    "id": "node/301815427"
  },
  "geometry": {
    "type": "Point",
    "coordinates": [
      8.5293204,
      47.3731732
    ]
  }
},
{
  "type": "Feature",
  "id": "node/301815428",
  "properties": {
    "addr:city": "Zürich",
    "addr:country": "CH",
    "addr:housenumber": "6",
    "addr:place": "Stauffacher",
    "addr:postcode": "8004",
    "addr:street": "Badenerstrasse",
    "amenity": "pharmacy",
    "brand": "Rotpunkt Apotheke",
    "check_date:opening_hours": "2023-02-17",
    "dispensing": "yes",
    "name": "Olympia Apotheke",
    "opening_hours": "Mo-Fr 08:00-19:00; Sa 09:00-17:00",
    "operator": "Rotpunkt Pharma",
    "website": "http://www.olympia-apotheke.ch/",
    "wheelchair": "yes",
    "id": "node/301815428"
  },
  "geometry": {
    "type": "Point",
    "coordinates": [
      8.53089,
      47.373683
    ]
  }
},
{
  "type": "Feature",
  "id": "node/305707117",
  "properties": {
    "amenity": "pharmacy",
    "healthcare": "pharmacy",
    "name": "Apotheke Rosengarten",
    "opening_hours": "Mo-Th 08:00-12:15,13:30-19:00; Fr 08:00-19:00; Sa 08:00-17:00",
    "wheelchair": "yes",
    "id": "node/305707117"
  },
  "geometry": {
    "type": "Point",
    "coordinates": [
      8.6308615,
      47.4429955
    ]
  }
},
{
  "type": "Feature",
  "id": "node/307364393",
  "properties": {
    "addr:city": "Winterthur",
    "addr:housenumber": "84",
    "addr:postcode": "8400",
    "addr:street": "Wülflingerstrasse",
    "amenity": "pharmacy",
    "brand": "Rotpunkt Apotheke",
    "dispensing": "yes",
    "drive_through": "no",
    "name": "Bachtel Apotheke",
    "opening_hours": "Mo-Fr 08:00-18:30; Sa 08:00-13:00",
    "phone": "+41 52 222 23 74",
    "website": "http://www.bachtel-apotheke.ch",
    "id": "node/307364393"
  },
  "geometry": {
    "type": "Point",
    "coordinates": [
      8.7115007,
      47.5075362
    ]
  }
},
{
  "type": "Feature",
  "id": "node/307494089",
  "properties": {
    "addr:city": "Richterswil",
    "addr:housenumber": "4",
    "addr:postcode": "8805",
    "addr:street": "Chrüzweg",
    "amenity": "pharmacy",
    "brand": "Fortis",
    "name": "Paracelsus Apotheke",
    "opening_hours": "Mo-Fr 08:00-13:00,14:00-18:30, Sa 09:00-16:00",
    "operator": "Paracelsus-Spital Richterswil",
    "website": "https://paracelsus-spital.com/apotheke/",
    "id": "node/307494089"
  },
  "geometry": {
    "type": "Point",
    "coordinates": [
      8.70671,
      47.2082665
    ]
  }
},
{
  "type": "Feature",
  "id": "node/308131215",
  "properties": {
    "addr:city": "Wädenswil",
    "addr:country": "CH",
    "addr:housenumber": "2",
    "addr:postcode": "8820",
    "addr:street": "Zugerstrasse",
    "alt_name": "Sun Store Wädenswil",
    "amenity": "pharmacy",
    "branch": "Wädenswil",
    "brand": "Sun Store SA",
    "brand:wikidata": "Q2365840",
    "name": "Sun Store",
    "operator": "GaleniCare",
    "website": "https://www.sunstore.ch/",
    "id": "node/308131215"
  },
  "geometry": {
    "type": "Point",
    "coordinates": [
      8.6734768,
      47.2299189
    ]
  }
},
{
  "type": "Feature",
  "id": "node/308131245",
  "properties": {
    "addr:city": "Wädenswil",
    "addr:housenumber": "5",
    "addr:postcode": "8820",
    "addr:street": "Bahnhofstrasse",
    "amenity": "pharmacy",
    "branch": "Wädenswil Bahnhof",
    "brand": "Amavita",
    "name": "Amavita Wädenswil Bahnhof",
    "opening_hours": "Mo-Fr 07:30-18:30; Sa 07:30-16:00; Su 10:00-12:00",
    "operator": "GaleniCare",
    "phone": "+41 58 851 33 06",
    "website": "https://www.amavita.ch/de/amavita-apotheke-bahnhof-wadenswil",
    "wheelchair": "no",
    "id": "node/308131245"
  },
  "geometry": {
    "type": "Point",
    "coordinates": [
      8.6750569,
      47.2289352
    ]
  }
},
{
  "type": "Feature",
  "id": "node/310133210",
  "properties": {
    "addr:city": "Zürich",
    "addr:country": "CH",
    "addr:housenumber": "479",
    "addr:postcode": "8052",
    "addr:street": "Schaffhauserstrasse",
    "alt_name": "Topwell Apotheke Niklaus",
    "amenity": "pharmacy",
    "branch": "Zürich Seebach",
    "brand": "Medbase",
    "brand:wikidata": "Q50038690",
    "dispensing": "yes",
    "name": "Medbase Apotheke Seebach",
    "old_name": "Niklaus Apotheke",
    "opening_hours": "Mo-Fr 08:00-18:30; Sa 08:00-16:00",
    "operator": "Medbase Apotheken",
    "website": "https://www.topwell.ch/medbaseapothekezuerichseebach/",
    "id": "node/310133210"
  },
  "geometry": {
    "type": "Point",
    "coordinates": [
      8.5487362,
      47.4205226
    ]
  }
},
{
  "type": "Feature",
  "id": "node/313053471",
  "properties": {
    "addr:city": "Zürich",
    "addr:country": "CH",
    "addr:housenumber": "232",
    "addr:postcode": "8047",
    "addr:street": "Albisriederstrasse",
    "amenity": "pharmacy",
    "brand": "Fortis",
    "dispensing": "yes",
    "drive_through": "no",
    "healthcare": "pharmacy",
    "name": "Apotheke Utogrund",
    "opening_hours": "Mo-We,Fr 07:30-12:30,14:00-18:30; Th 07:30-13:00; Sa 08:00-12:00",
    "website": "https://www.apotheke-utogrund.ch/",
    "id": "node/313053471"
  },
  "geometry": {
    "type": "Point",
    "coordinates": [
      8.4946389,
      47.3791065
    ]
  }
},
{
  "type": "Feature",
  "id": "node/313898344",
  "properties": {
    "addr:city": "Zürich",
    "addr:country": "CH",
    "addr:housenumber": "39",
    "addr:postcode": "8004",
    "addr:street": "Langstrasse",
    "alt_name": "Topwell Apotheke Helvetiaplatz",
    "amenity": "pharmacy",
    "branch": "Zürich Helvetiaplatz",
    "brand": "Medbase",
    "brand:wikidata": "Q50038690",
    "dispensing": "yes",
    "name": "Medbase Apotheke Helvetiaplatz",
    "old_name": "Helvetiaplatz Apotheke",
    "opening_hours": "Mo-Fr 08:00-19:00; Sa 09:00-17:00",
    "operator": "Medbase Apotheken",
    "website": "https://www.topwell.ch/medbaseapothekezuerichhelvetiapl/",
    "wheelchair": "yes",
    "id": "node/313898344"
  },
  "geometry": {
    "type": "Point",
    "coordinates": [
      8.5252233,
      47.376059
    ]
  }
},
{
  "type": "Feature",
  "id": "node/314979529",
  "properties": {
    "addr:city": "Zürich",
    "addr:country": "CH",
    "addr:housenumber": "51",
    "addr:postcode": "8004",
    "addr:street": "Birmensdorferstrasse",
    "amenity": "pharmacy",
    "brand": "Rotpunkt Apotheke",
    "dispensing": "yes",
    "healthcare": "pharmacy",
    "name": "Werd Apotheke",
    "opening_hours": "Mo-Fr 08:00-18:30; Sa 08:00-12:30",
    "operator": "Rotpunkt Pharma",
    "website": "http://www.werd-apotheke.ch/",
    "wheelchair": "yes",
    "id": "node/314979529"
  },
  "geometry": {
    "type": "Point",
    "coordinates": [
      8.5256213,
      47.3715926
    ]
  }
},
{
  "type": "Feature",
  "id": "node/316855156",
  "properties": {
    "addr:city": "Fehraltorf",
    "addr:country": "CH",
    "addr:housenumber": "1",
    "addr:postcode": "8320",
    "addr:street": "Kirchgasse",
    "amenity": "pharmacy",
    "dispensing": "yes",
    "healthcare": "pharmacy",
    "name": "Apotheke am Hechtplatz",
    "opening_hours": "Mo-Fr 08:00-12:30,13:30-18:30; Sa 08:00-16:00",
    "phone": "+41 44 995 61 01",
    "shop": "chemist",
    "website": "https://www.apothekeamhechtplatz.ch/",
    "id": "node/316855156"
  },
  "geometry": {
    "type": "Point",
    "coordinates": [
      8.7529678,
      47.3870515
    ]
  }
},
{
  "type": "Feature",
  "id": "node/331314395",
  "properties": {
    "addr:city": "Zürich",
    "addr:country": "CH",
    "addr:housenumber": "245",
    "addr:postcode": "8055",
    "addr:street": "Schweighofstrasse",
    "amenity": "pharmacy",
    "name": "West-Apotheke",
    "opening_hours": "Mo-Sa 08:15-12:15,13:30-18:30",
    "phone": "+41 44 463 70 80",
    "website": "https://website--836685969719036726410-pharmacy.business.site/",
    "id": "node/331314395"
  },
  "geometry": {
    "type": "Point",
    "coordinates": [
      8.5056635,
      47.3612769
    ]
  }
},
{
  "type": "Feature",
  "id": "node/336258353",
  "properties": {
    "addr:city": "Fällanden",
    "addr:housenumber": "2",
    "addr:postcode": "8117",
    "addr:street": "Unterdorfstrasse",
    "alt_name": "BENU Apotheke Fällanden",
    "amenity": "pharmacy",
    "branch": "Fällanden",
    "brand": "BENU",
    "brand:wikidata": "Q62562792",
    "dispensing": "yes",
    "healthcare": "pharmacy",
    "name": "BENU Apotheke",
    "opening_hours": "Mo-Fr 08:00-20:00; Sa 08:00-18:00",
    "operator": "BENU Pharmacies",
    "website": "https://www.benu.ch/de/pharmacies/faellanden/",
    "wheelchair": "yes",
    "id": "node/336258353"
  },
  "geometry": {
    "type": "Point",
    "coordinates": [
      8.6410784,
      47.3736751
    ]
  }
},
{
  "type": "Feature",
  "id": "node/352860118",
  "properties": {
    "addr:city": "Zürich",
    "addr:country": "CH",
    "addr:housenumber": "107",
    "addr:postcode": "8045",
    "addr:street": "Uetlibergstrasse",
    "amenity": "pharmacy",
    "brand": "Fortis",
    "fixme": "I think it has moved or does not exist anymore",
    "healthcare": "pharmacy",
    "name": "Laubegg Apotheke",
    "opening_hours": "Mo-Fr 08:00-18:30; Sa 08:00-12:30",
    "website": "https://www.laubeggapotheke.ch/",
    "id": "node/352860118"
  },
  "geometry": {
    "type": "Point",
    "coordinates": [
      8.517625,
      47.3612909
    ]
  }
},
{
  "type": "Feature",
  "id": "node/352995446",
  "properties": {
    "addr:city": "Winterthur",
    "addr:country": "CH",
    "addr:housenumber": "131",
    "addr:postcode": "8400",
    "addr:street": "Stadthausstrasse",
    "alt_name": "Topwell Apotheke Altstadt",
    "amenity": "pharmacy",
    "branch": "Winterthur Altstadt",
    "brand": "Medbase",
    "brand:wikidata": "Q50038690",
    "check_date:opening_hours": "2023-01-09",
    "dispensing": "yes",
    "healthcare": "pharmacy",
    "name": "Medbase Apotheke Altstadt",
    "old_name": "Altstadt Apotheke",
    "opening_hours": "Mo-Fr 08:00-18:30; Sa 08:00-17:00",
    "opening_hours:covid19": "open",
    "operator": "Medbase Apotheken",
    "website": "https://www.topwell.ch/medbaseapothekewinterthuraltstad/",
    "wheelchair": "yes",
    "id": "node/352995446"
  },
  "geometry": {
    "type": "Point",
    "coordinates": [
      8.7256243,
      47.4996552
    ]
  }
},
{
  "type": "Feature",
  "id": "node/354489329",
  "properties": {
    "amenity": "pharmacy",
    "email": "rm@apotheke-uster.ch",
    "healthcare": "pharmacy",
    "name": "Schloss",
    "opening_hours": "Mo-Fr 09:00-12:30; Sa 09:00-15:00",
    "phone": "+41 43 444 25 00",
    "website": "http://www.apotheke-uster.ch",
    "id": "node/354489329"
  },
  "geometry": {
    "type": "Point",
    "coordinates": [
      8.7120427,
      47.357419
    ]
  }
},
{
  "type": "Feature",
  "id": "node/354494336",
  "properties": {
    "addr:city": "Uster",
    "addr:housenumber": "20",
    "addr:postcode": "8610",
    "addr:street": "Zürichstrasse",
    "alt_name": "DROPA Drogerie Apotheke Illuster",
    "amenity": "pharmacy",
    "branch": "Uster Illuster",
    "brand": "DROPA",
    "brand:wikidata": "Q1260273",
    "healthcare": "pharmacy",
    "name": "Dropa Illuster",
    "opening_hours": "Mo-Sa 08:30-20:00",
    "operator": "Dr. Bähler Dropa",
    "shop": "chemist",
    "website": "https://dropa.ch/standorte/dropa-drogerie-apotheke-illuster",
    "wheelchair": "yes",
    "id": "node/354494336"
  },
  "geometry": {
    "type": "Point",
    "coordinates": [
      8.7154192,
      47.3500042
    ]
  }
},
{
  "type": "Feature",
  "id": "node/362690129",
  "properties": {
    "addr:city": "Zürich",
    "addr:country": "CH",
    "addr:housenumber": "177",
    "addr:postcode": "8049",
    "addr:street": "Limmattalstrasse",
    "amenity": "pharmacy",
    "brand": "Rotpunkt Apotheke",
    "check_date": "2023-06-19",
    "check_date:opening_hours": "2021-04-28",
    "name": "Apotheke zum Meierhof",
    "opening_hours": "Mo-Fr 08:00-18:30; Sa 08:30-17:00",
    "operator": "Rotpunkt Pharma",
    "website": "https://www.haut-und-ernaehrung.ch/apotheke-zum-meierhof/",
    "wheelchair": "yes",
    "id": "node/362690129"
  },
  "geometry": {
    "type": "Point",
    "coordinates": [
      8.4996666,
      47.4017494
    ]
  }
},
{
  "type": "Feature",
  "id": "node/370155399",
  "properties": {
    "addr:city": "Winterthur",
    "addr:housenumber": "43",
    "addr:postcode": "8406",
    "addr:street": "Agnesstrasse",
    "alt_name": "BENU Apotheke Schöntal",
    "amenity": "pharmacy",
    "branch": "Winterthur Schöntal",
    "brand": "BENU",
    "brand:wikidata": "Q62562792",
    "name": "BENU Apotheke",
    "opening_hours": "Mo-Fr 08:00-12:15,13:30-18:30; Sa 08:00-16:00",
    "operator": "BENU Pharmacies",
    "website": "https://www.benu.ch/de/pharmacies/schontal/",
    "id": "node/370155399"
  },
  "geometry": {
    "type": "Point",
    "coordinates": [
      8.7110248,
      47.4914292
    ]
  }
},
{
  "type": "Feature",
  "id": "node/370588821",
  "properties": {
    "addr:city": "Uster",
    "addr:housenumber": "10",
    "addr:postcode": "8610",
    "addr:street": "Bankstrasse",
    "alt_name": "Topwell Apotheke Bahnhof Uster",
    "amenity": "pharmacy",
    "branch": "Uster",
    "brand": "Medbase",
    "brand:wikidata": "Q50038690",
    "healthcare": "pharmacy",
    "name": "Medbase Apotheke Uster",
    "opening_hours": "Mo-Fr 07:00-20:00; PH,Sa,Su 08:00-18:00",
    "operator": "Medbase Apotheken",
    "phone": "+41 44 905 19 00",
    "website": "https://www.topwell.ch/medbaseapothekeuster/",
    "wheelchair": "yes",
    "id": "node/370588821"
  },
  "geometry": {
    "type": "Point",
    "coordinates": [
      8.7164275,
      47.3516449
    ]
  }
},
{
  "type": "Feature",
  "id": "node/379714379",
  "properties": {
    "addr:city": "Zürich",
    "addr:country": "CH",
    "addr:housenumber": "44",
    "addr:postcode": "8038",
    "addr:street": "Albisstrasse",
    "amenity": "pharmacy",
    "branch": "Zürich Wollishofen",
    "brand": "TopPharm",
    "brand:wikidata": "Q110277794",
    "check_date:opening_hours": "2022-10-11",
    "dispensing": "yes",
    "healthcare": "pharmacy",
    "name": "TopPharm",
    "opening_hours": "Mo-Fr 08:00-19:00, Sa 08:00-17:00",
    "operator": "TopPharm Genossenschaft",
    "website": "https://www.apotheke.ch/morgental",
    "id": "node/379714379"
  },
  "geometry": {
    "type": "Point",
    "coordinates": [
      8.5298166,
      47.3438585
    ]
  }
},
{
  "type": "Feature",
  "id": "node/388398427",
  "properties": {
    "addr:city": "Stäfa",
    "addr:housenumber": "18",
    "addr:postcode": "8712",
    "addr:street": "Bahnhofwiese",
    "amenity": "pharmacy",
    "branch": "Stäfa",
    "brand": "TopPharm",
    "healthcare": "pharmacy",
    "name": "TopPharm Kranich Apotheke",
    "operator": "TopPharm Genossenschaft",
    "website": "https://www.apotheke.ch/kranich",
    "id": "node/388398427"
  },
  "geometry": {
    "type": "Point",
    "coordinates": [
      8.7226189,
      47.2409273
    ]
  }
},
{
  "type": "Feature",
  "id": "node/388398434",
  "properties": {
    "addr:city": "Stäfa",
    "addr:housenumber": "18-20",
    "addr:postcode": "8712",
    "addr:street": "Goethestrasse",
    "alt_name": "DROPA Drogerie Apotheke Stäfa",
    "amenity": "pharmacy",
    "branch": "Stäfa",
    "brand": "DROPA",
    "brand:wikidata": "Q1260273",
    "dispensing": "yes",
    "healthcare": "pharmacy",
    "name": "Dropa Stäfa",
    "old_name": "Drogerie Hofstetter",
    "operator": "Dr. Bähler Dropa",
    "shop": "chemist",
    "website": "https://dropa.ch/standorte/dropa-drogerie-apotheke-staefa",
    "id": "node/388398434"
  },
  "geometry": {
    "type": "Point",
    "coordinates": [
      8.7239364,
      47.2408739
    ]
  }
},
{
  "type": "Feature",
  "id": "node/415400006",
  "properties": {
    "addr:city": "Zürich",
    "addr:country": "CH",
    "addr:housenumber": "480",
    "addr:postcode": "8052",
    "addr:street": "Schaffhauserstrasse",
    "amenity": "pharmacy",
    "brand": "Rotpunkt Apotheke",
    "check_date": "2022-08-11",
    "level": "0",
    "name": "Gesundhaus Falken Apotheke",
    "opening_hours": "Mo-Sa 08:00-20:00",
    "operator": "Rotpunkt Pharma",
    "phone": "+41 44 308 80 10",
    "website": "http://www.gesundhaus.ch/",
    "wheelchair": "yes",
    "id": "node/415400006"
  },
  "geometry": {
    "type": "Point",
    "coordinates": [
      8.548453,
      47.4196446
    ]
  }
},
{
  "type": "Feature",
  "id": "node/415719038",
  "properties": {
    "addr:city": "Zürich",
    "addr:country": "CH",
    "addr:housenumber": "502",
    "addr:postcode": "8052",
    "addr:street": "Schaffhauserstrasse",
    "amenity": "pharmacy",
    "name": "Landhus Apotheke",
    "opening_hours": "Mo-Fr 08:00-18:30; Sa 08:00-17:00",
    "website": "http://www.landhus-apotheke.ch/",
    "id": "node/415719038"
  },
  "geometry": {
    "type": "Point",
    "coordinates": [
      8.550288,
      47.4214731
    ]
  }
},
{
  "type": "Feature",
  "id": "node/428887442",
  "properties": {
    "addr:city": "Dietikon",
    "addr:housenumber": "21",
    "addr:postcode": "8953",
    "addr:street": "Löwenstrasse",
    "amenity": "pharmacy",
    "dispensing": "yes",
    "level": "0",
    "name": "City Apotheke Ruckstuhl",
    "opening_hours": "Mo-Th 08:00-18:30; Fr 08:00-19:00; Sa 08:00-16:00; PH closed",
    "wheelchair": "yes",
    "id": "node/428887442"
  },
  "geometry": {
    "type": "Point",
    "coordinates": [
      8.402993,
      47.4053583
    ]
  }
},
{
  "type": "Feature",
  "id": "node/428891672",
  "properties": {
    "addr:city": "Dietikon",
    "addr:housenumber": "15",
    "addr:postcode": "8953",
    "addr:street": "Badenerstrasse",
    "amenity": "pharmacy",
    "branch": "Dietikon",
    "brand": "Amavita",
    "dispensing": "yes",
    "level": "0",
    "name": "Amavita Dietikon",
    "opening_hours": "Mo-Fr 07:45-12:15,13:30-18:30;Sa 07:45-16:00;PH closed",
    "operator": "GaleniCare",
    "website": "https://www.amavita.ch/de/amavita-apotheke-dietikon",
    "wheelchair": "yes",
    "id": "node/428891672"
  },
  "geometry": {
    "type": "Point",
    "coordinates": [
      8.3982172,
      47.405637
    ]
  }
},
{
  "type": "Feature",
  "id": "node/432629009",
  "properties": {
    "addr:city": "Adliswil",
    "addr:housenumber": "4",
    "addr:postcode": "8134",
    "addr:street": "Bahnhofplatz",
    "amenity": "pharmacy",
    "branch": "Adliswil",
    "brand": "Pill Apotheke",
    "check_date:opening_hours": "2023-01-27",
    "healthcare": "pharmacy",
    "name": "Pill Apotheke Sihltal",
    "opening_hours": "Mo-Fr 08:00-18:30; Sa 08:00-16:00",
    "operator": "Pill Group",
    "phone": "+41 44 710 01 01",
    "website": "https://www.pill.ch/standorte/pill-apotheke-sihltal.html",
    "id": "node/432629009"
  },
  "geometry": {
    "type": "Point",
    "coordinates": [
      8.5246397,
      47.3125693
    ]
  }
},
{
  "type": "Feature",
  "id": "node/443662303",
  "properties": {
    "addr:city": "Zürich",
    "addr:country": "CH",
    "addr:housenumber": "22",
    "addr:postcode": "8001",
    "addr:street": "Goethestrasse",
    "amenity": "pharmacy",
    "brand": "Rotpunkt Apotheke",
    "brand:wikidata": "Q111683777",
    "dispensing": "yes",
    "drive_through": "no",
    "healthcare": "pharmacy",
    "name": "Dr. Andres Apotheke Stadelhofen",
    "opening_hours": "Mo-Fr 07:15-19:00; Sa 09:00-18:00",
    "operator": "Rotpunkt Pharma",
    "phone": "+41 44 268 30 00",
    "website": "https://www.apothekestadelhofen.ch/",
    "wheelchair": "no",
    "id": "node/443662303"
  },
  "geometry": {
    "type": "Point",
    "coordinates": [
      8.5482317,
      47.3660923
    ]
  }
},
{
  "type": "Feature",
  "id": "node/443662304",
  "properties": {
    "addr:city": "Zürich",
    "addr:country": "CH",
    "addr:postcode": "8001",
    "amenity": "pharmacy",
    "brand": "Rotpunkt Apotheke",
    "brand:wikidata": "Q111683777",
    "healthcare": "pharmacy",
    "name": "Dr. Andres Apotheke Stadelhofen",
    "opening_hours": "Mo-Fr 07:15-19:00; Sa 08:15-17:00",
    "operator": "Rotpunkt Pharma",
    "website": "https://www.apothekestadelhofen.ch/",
    "wheelchair": "no",
    "id": "node/443662304"
  },
  "geometry": {
    "type": "Point",
    "coordinates": [
      8.5485376,
      47.3659878
    ]
  }
},
{
  "type": "Feature",
  "id": "node/444627832",
  "properties": {
    "addr:city": "Männedorf",
    "addr:housenumber": "206",
    "addr:postcode": "8708",
    "addr:street": "Seestrasse",
    "amenity": "pharmacy",
    "branch": "Männedorf",
    "brand": "TopPharm",
    "healthcare": "pharmacy",
    "name": "TopPharm See-Apotheke Männedorf",
    "opening_hours": "Mo-Fr 07:45-18:30; Sa 08:00-16:00; PH,Su 10:00-12:00",
    "operator": "TopPharm Genossenschaft",
    "website": "https://www.apotheke.ch/see-maennedorf",
    "wheelchair": "yes",
    "id": "node/444627832"
  },
  "geometry": {
    "type": "Point",
    "coordinates": [
      8.6895271,
      47.2532533
    ]
  }
},
{
  "type": "Feature",
  "id": "node/446784541",
  "properties": {
    "addr:city": "Zürich",
    "addr:country": "CH",
    "addr:housenumber": "119",
    "addr:postcode": "8005",
    "addr:street": "Limmatstrasse",
    "amenity": "pharmacy",
    "branch": "Zürich Industrie",
    "brand": "TopPharm",
    "brand:wikidata": "Q110277794",
    "check_date": "2023-04-07",
    "healthcare": "pharmacy",
    "name": "TopPharm",
    "opening_hours": "Mo-Fr 07:30-19:00; Sa 07:30-17:00",
    "operator": "TopPharm Genossenschaft",
    "website": "https://www.apotheke.ch/limmatplatz",
    "wheelchair": "no",
    "id": "node/446784541"
  },
  "geometry": {
    "type": "Point",
    "coordinates": [
      8.5323405,
      47.3839118
    ]
  }
},
{
  "type": "Feature",
  "id": "node/446865522",
  "properties": {
    "addr:city": "Bonstetten",
    "addr:housenumber": "23",
    "addr:postcode": "8906",
    "addr:street": "Im Heumoos",
    "amenity": "pharmacy",
    "branch": "Bonstetten",
    "brand": "TopPharm",
    "brand:wikidata": "Q110277794",
    "contact:fax": "+41 44 700 21 30",
    "contact:phone": "+41 44 700 21 21",
    "dispensing": "yes",
    "healthcare": "pharmacy",
    "name": "TopPharm",
    "opening_hours": "Mo-Fr 09:00-18:30; Sa 08:00-16:00",
    "opening_hours:covid19": "Mo-Fr 09:00-18:30; Sa 08:00-16:00",
    "operator": "TopPharm Genossenschaft",
    "website": "https://www.apotheke.ch/heumoos",
    "id": "node/446865522"
  },
  "geometry": {
    "type": "Point",
    "coordinates": [
      8.4693049,
      47.3241113
    ]
  }
},
{
  "type": "Feature",
  "id": "node/465284110",
  "properties": {
    "addr:city": "Zürich",
    "addr:country": "CH",
    "addr:housenumber": "180",
    "addr:postcode": "8005",
    "addr:street": "Limmatstrasse",
    "alt_name": "Topwell Apotheke Industrie",
    "amenity": "pharmacy",
    "branch": "Zürich Industrie",
    "brand": "Medbase",
    "brand:wikidata": "Q50038690",
    "check_date:opening_hours": "2022-10-10",
    "name": "Medbase Apotheke Industrie",
    "old_name": "Industrie Apotheke",
    "opening_hours": "Mo-Fr 08:00-18:30; Sa 08:30-17:00",
    "operator": "Medbase Apotheken",
    "website": "https://www.topwell.ch/medbaseapothekezuerichindustrie/",
    "wheelchair": "yes",
    "id": "node/465284110"
  },
  "geometry": {
    "type": "Point",
    "coordinates": [
      8.5295503,
      47.3863905
    ]
  }
},
{
  "type": "Feature",
  "id": "node/471042102",
  "properties": {
    "addr:housenumber": "5",
    "addr:postcode": "8307",
    "addr:street": "Märtplatz",
    "alt_name": "BENU Apotheke Effi-Märt",
    "amenity": "pharmacy",
    "branch": "Effretikon",
    "brand": "Benu",
    "brand:wikidata": "Q62562792",
    "check_date:opening_hours": "2022-09-01",
    "healthcare": "pharmacy",
    "level": "0",
    "name": "Benu",
    "opening_hours": "Mo-Fr 08:30-19:00, Sa 08:30-17:00",
    "operator": "BENU Pharmacies",
    "website": "https://www.benu.ch/de/pharmacies/effi-maert/",
    "id": "node/471042102"
  },
  "geometry": {
    "type": "Point",
    "coordinates": [
      8.6853362,
      47.4282784
    ]
  }
},
{
  "type": "Feature",
  "id": "node/480274035",
  "properties": {
    "addr:city": "Zürich",
    "addr:country": "CH",
    "addr:housenumber": "72",
    "addr:postcode": "8037",
    "addr:street": "Röschibachstrasse",
    "alt_name": "Topwell Apotheke Rotbuch",
    "amenity": "pharmacy",
    "branch": "Zürich Rotbuch",
    "brand": "Medbase",
    "brand:wikidata": "Q50038690",
    "check_date": "2022-08-14",
    "name": "Medbase Apotheke Rotbuch",
    "old_name": "Rotbuch Apotheke",
    "opening_hours": "Mo-Fr 08:00-18:30; Sa 08:00-16:00",
    "operator": "Medbase Apotheken",
    "phone": "+41 43 366 96 02",
    "website": "https://www.topwell.ch/medbaseapothekezuerichrotbuch/",
    "wheelchair": "yes",
    "id": "node/480274035"
  },
  "geometry": {
    "type": "Point",
    "coordinates": [
      8.5285694,
      47.3930599
    ]
  }
},
{
  "type": "Feature",
  "id": "node/513635042",
  "properties": {
    "addr:city": "Zürich",
    "addr:country": "CH",
    "addr:housenumber": "333",
    "addr:postcode": "8050",
    "addr:street": "Wallisellenstrasse",
    "alt_name": "BENU Apotheke Eulen",
    "amenity": "pharmacy",
    "branch": "Zürich Saatlen",
    "brand": "BENU",
    "brand:wikidata": "Q62562792",
    "name": "BENU Apotheke",
    "opening_hours": "Mo-Fr 08:30-18:30; Sa 08:00-16:00",
    "operator": "BENU Pharmacies",
    "source": "Kort-App",
    "website": "https://www.benu.ch/de/pharmacies/eulen/",
    "id": "node/513635042"
  },
  "geometry": {
    "type": "Point",
    "coordinates": [
      8.5628577,
      47.4110882
    ]
  }
},
{
  "type": "Feature",
  "id": "node/538779680",
  "properties": {
    "addr:city": "Bülach",
    "addr:housenumber": "21",
    "addr:postcode": "8180",
    "addr:street": "Bahnhofstrasse",
    "amenity": "pharmacy",
    "drive_through": "no",
    "email": "info@bueli-apotheke.ch",
    "fax": "+41 44 860 39 10",
    "healthcare": "pharmacy",
    "name": "Büli Apotheke Parfumerie",
    "opening_hours": "Mo-Fr 08:00-18:30; Sa 08:00-17:00",
    "phone": "+41 44 860 72 11",
    "website": "http://www.bueli-apotheke.ch",
    "id": "node/538779680"
  },
  "geometry": {
    "type": "Point",
    "coordinates": [
      8.5392963,
      47.5210012
    ]
  }
},
{
  "type": "Feature",
  "id": "node/568000492",
  "properties": {
    "addr:city": "Winterthur",
    "addr:country": "CH",
    "addr:housenumber": "19",
    "addr:postcode": "8400",
    "addr:street": "Marktgasse",
    "amenity": "pharmacy",
    "check_date:opening_hours": "2023-03-10",
    "dispensing": "yes",
    "healthcare": "pharmacy",
    "name": "Nature First",
    "opening_hours": "Mo-Fr 09:00-18:30; Sa 09:00-17:00",
    "operator": "Nature First",
    "website": "https://naturefirst.ch/standorte/apotheke-und-drogerie-in-winterthur",
    "id": "node/568000492"
  },
  "geometry": {
    "type": "Point",
    "coordinates": [
      8.7296567,
      47.4996622
    ]
  }
},
{
  "type": "Feature",
  "id": "node/568021146",
  "properties": {
    "addr:city": "Winterthur",
    "addr:country": "CH",
    "addr:housenumber": "46",
    "addr:postcode": "8400",
    "addr:street": "Marktgasse",
    "amenity": "pharmacy",
    "check_date:opening_hours": "2023-03-03",
    "dispensing": "yes",
    "drive_through": "no",
    "healthcare": "pharmacy",
    "name": "Sternen Apotheke",
    "opening_hours": "Mo-Fr 08:00-18:30; Sa 08:00-16:00",
    "website": "https://www.sternen-apotheke.ch",
    "wheelchair": "yes",
    "id": "node/568021146"
  },
  "geometry": {
    "type": "Point",
    "coordinates": [
      8.7286733,
      47.4997116
    ]
  }
},
{
  "type": "Feature",
  "id": "node/613667859",
  "properties": {
    "addr:city": "Zürich",
    "addr:country": "CH",
    "addr:housenumber": "131",
    "addr:postcode": "8003",
    "addr:street": "Kalkbreitestrasse",
    "amenity": "pharmacy",
    "brand": "Rotpunkt Apotheke",
    "healthcare": "pharmacy",
    "name": "Bären-Apotheke",
    "opening_hours": "Mo-Fr 07:30-19:00; Sa 08:00-17:00",
    "operator": "Rotpunkt Pharma",
    "website": "http://www.baeren-apotheke.ch/",
    "wheelchair": "yes",
    "id": "node/613667859"
  },
  "geometry": {
    "type": "Point",
    "coordinates": [
      8.5143437,
      47.3705169
    ]
  }
},
{
  "type": "Feature",
  "id": "node/613704433",
  "properties": {
    "addr:city": "Zürich",
    "addr:country": "CH",
    "addr:housenumber": "681",
    "addr:postcode": "8048",
    "addr:street": "Badenerstrasse",
    "amenity": "pharmacy",
    "brand": "Rotpunkt Apotheke",
    "check_date:opening_hours": "2023-04-27",
    "name": "Apotheke Altstetten AA1",
    "opening_hours": "Mo-Fr 08:00-19:00; Sa 08:00-17:00",
    "operator": "Rotpunkt Pharma",
    "website": "http://www.aa1.ch/",
    "id": "node/613704433"
  },
  "geometry": {
    "type": "Point",
    "coordinates": [
      8.4855758,
      47.3877883
    ]
  }
},
{
  "type": "Feature",
  "id": "node/613704525",
  "properties": {
    "addr:city": "Zürich",
    "addr:country": "CH",
    "addr:housenumber": "672",
    "addr:postcode": "8048",
    "addr:street": "Badenerstrasse",
    "amenity": "pharmacy",
    "branch": "Zürich Lindenplatz",
    "brand": "Achillea Apotheke",
    "check_date:opening_hours": "2023-02-16",
    "name": "Apotheke Schafroth",
    "opening_hours": "Mo-Fr 08:00-18:30; Sa 08:00-16:00",
    "operator": "Dr. Bähler Dropa",
    "website": "https://achillea.ch/standorte/apotheke-schafroth",
    "id": "node/613704525"
  },
  "geometry": {
    "type": "Point",
    "coordinates": [
      8.4863203,
      47.3879571
    ]
  }
},
{
  "type": "Feature",
  "id": "node/639146393",
  "properties": {
    "addr:city": "Zürich",
    "addr:country": "CH",
    "addr:housenumber": "529",
    "addr:postcode": "8051",
    "addr:street": "Winterthurerstrasse",
    "amenity": "pharmacy",
    "branch": "Zürich Schwamendingen",
    "brand": "Amavita",
    "name": "Amavita Schwamendingen",
    "opening_hours": "Mo-Fr 08:00-18:30; Sa 08:00-17:00",
    "operator": "GaleniCare",
    "website": "https://www.amavita.ch/de/amavita-apotheke-schwamendingen",
    "wheelchair": "yes",
    "id": "node/639146393"
  },
  "geometry": {
    "type": "Point",
    "coordinates": [
      8.5729473,
      47.404526
    ]
  }
},
{
  "type": "Feature",
  "id": "node/648956174",
  "properties": {
    "addr:city": "Zürich",
    "addr:country": "CH",
    "addr:housenumber": "46",
    "addr:postcode": "8002",
    "addr:street": "Bleicherweg",
    "amenity": "pharmacy",
    "brand": "Rotpunkt Apotheke",
    "check_date": "2023-06-10",
    "healthcare": "pharmacy",
    "name": "Apotheke zur Bleiche",
    "opening_hours": "Mo-Fr 07:30-18:30; Sa 09:00-17:00",
    "operator": "Rotpunkt Pharma",
    "phone": "+41 44 201 17 25",
    "website": "http://www.apothekebleiche.ch/",
    "wheelchair": "no",
    "id": "node/648956174"
  },
  "geometry": {
    "type": "Point",
    "coordinates": [
      8.5348942,
      47.3678875
    ]
  }
},
{
  "type": "Feature",
  "id": "node/651516566",
  "properties": {
    "addr:city": "Winterthur",
    "addr:housenumber": "1",
    "addr:postcode": "8405",
    "addr:street": "Hinterdorfstrasse",
    "amenity": "pharmacy",
    "check_date:opening_hours": "2022-05-22",
    "healthcare": "pharmacy",
    "name": "Insel Apotheke",
    "opening_hours": "Mo-Fr 08:00-12:10,13:30-18:30; Sa 08:00-16:00",
    "id": "node/651516566"
  },
  "geometry": {
    "type": "Point",
    "coordinates": [
      8.75989,
      47.4847414
    ]
  }
},
{
  "type": "Feature",
  "id": "node/656616207",
  "properties": {
    "addr:city": "Zürich",
    "addr:country": "CH",
    "addr:housenumber": "122",
    "addr:postcode": "8004",
    "addr:street": "Langstrasse",
    "amenity": "pharmacy",
    "name": "Paracelsus-Apotheke",
    "opening_hours": "Mo-Fr 08:00-18:30; Sa 09:00-17:00",
    "website": "https://www.apotheke-paracelsus.ch/",
    "wheelchair": "no",
    "id": "node/656616207"
  },
  "geometry": {
    "type": "Point",
    "coordinates": [
      8.5276523,
      47.3793647
    ]
  }
},
{
  "type": "Feature",
  "id": "node/659861585",
  "properties": {
    "addr:city": "Zürich",
    "addr:country": "CH",
    "addr:housenumber": "10",
    "addr:postcode": "8004",
    "addr:street": "Albisriederplatz",
    "amenity": "pharmacy",
    "brand": "Rotpunkt Apotheke",
    "check_date:opening_hours": "2023-07-15",
    "healthcare": "pharmacy",
    "name": "Pilgerbrunnen Apotheke",
    "old_name": "Apotheke zum Pilgerbrunnen",
    "opening_hours": "Mo-Fr 07:30-19:00; Sa 08:00-17:00",
    "operator": "Rotpunkt Pharma",
    "website": "http://www.apotheke-pilgerbrunnen.ch/",
    "wheelchair": "yes",
    "id": "node/659861585"
  },
  "geometry": {
    "type": "Point",
    "coordinates": [
      8.510871,
      47.3782767
    ]
  }
},
{
  "type": "Feature",
  "id": "node/660081683",
  "properties": {
    "addr:city": "Zürich",
    "addr:country": "CH",
    "addr:housenumber": "330",
    "addr:postcode": "8047",
    "addr:street": "Albisriederstrasse",
    "amenity": "pharmacy",
    "brand": "Rotpunkt Apotheke",
    "name": "Albis-Apotheke",
    "opening_hours": "Mo-Fr 08:00-12:30,13:15-18:30; Sa 08:00-12:00",
    "operator": "Rotpunkt Pharma",
    "website": "http://www.albisapotheke.ch/",
    "wheelchair": "yes",
    "id": "node/660081683"
  },
  "geometry": {
    "type": "Point",
    "coordinates": [
      8.4881764,
      47.3760408
    ]
  }
},
{
  "type": "Feature",
  "id": "node/660086455",
  "properties": {
    "addr:city": "Zürich",
    "addr:country": "CH",
    "addr:housenumber": "1",
    "addr:postcode": "8004",
    "addr:street": "Birmensdorferstrasse",
    "amenity": "pharmacy",
    "level": "0",
    "name": "Stauffacher Apotheke",
    "opening_hours": "Mo-Fr 07:45-18:30; Sa 08:00-12:30",
    "website": "https://www.stauffacher-apotheke.ch/",
    "wheelchair": "limited",
    "id": "node/660086455"
  },
  "geometry": {
    "type": "Point",
    "coordinates": [
      8.5278947,
      47.372996
    ]
  }
},
{
  "type": "Feature",
  "id": "node/664406565",
  "properties": {
    "addr:city": "Wetzikon",
    "addr:housenumber": "151",
    "addr:postcode": "8620",
    "addr:street": "Bahnhofstrasse",
    "amenity": "pharmacy",
    "brand": "Rotpunkt Apotheke",
    "healthcare": "pharmacy",
    "level": "0",
    "name": "Oberland Apotheke",
    "opening_hours": "Mo-Fr 08:00-20:00; Sa 08:00-18:00",
    "shop": "chemist",
    "wheelchair": "yes",
    "id": "node/664406565"
  },
  "geometry": {
    "type": "Point",
    "coordinates": [
      8.800112,
      47.3271821
    ]
  }
},
{
  "type": "Feature",
  "id": "node/670339702",
  "properties": {
    "addr:city": "Dübendorf",
    "addr:housenumber": "50",
    "addr:postcode": "8600",
    "addr:street": "Bahnhofstrasse",
    "amenity": "pharmacy",
    "branch": "Dübendorf",
    "brand": "TopPharm",
    "dispensing": "yes",
    "name": "TopPharm Waldmann Apotheke",
    "opening_hours": "Mo-Fr 07:30-12:15,13:30-18:30; Sa 08:00-16:00; PH closed",
    "operator": "TopPharm Genossenschaft",
    "website": "https://www.apotheke.ch/waldmann",
    "id": "node/670339702"
  },
  "geometry": {
    "type": "Point",
    "coordinates": [
      8.6215296,
      47.3991933
    ]
  }
},
{
  "type": "Feature",
  "id": "node/686557302",
  "properties": {
    "addr:city": "Schwerzenbach",
    "addr:country": "CH",
    "addr:housenumber": "5",
    "addr:postcode": "8603",
    "addr:street": "Bahnstrasse",
    "amenity": "pharmacy",
    "branch": "Schwerzenbach",
    "brand": "TopPharm",
    "brand:wikidata": "Q110277794",
    "dispensing": "yes",
    "healthcare": "pharmacy",
    "name": "TopPharm",
    "operator": "TopPharm Genossenschaft",
    "website": "https://www.apotheke.ch/schwerzenbach",
    "id": "node/686557302"
  },
  "geometry": {
    "type": "Point",
    "coordinates": [
      8.6605368,
      47.3838074
    ]
  }
},
{
  "type": "Feature",
  "id": "node/693318441",
  "properties": {
    "addr:city": "Zürich",
    "addr:country": "CH",
    "addr:housenumber": "71",
    "addr:postcode": "8001",
    "addr:street": "Bahnhofstrasse",
    "amenity": "pharmacy",
    "brand": "Rotpunkt Apotheke",
    "check_date:opening_hours": "2022-01-20",
    "healthcare": "pharmacy",
    "name": "Victoria Apotheke",
    "opening_hours": "Mo-Fr 08:00-19:00; Sa 09:00-18:00",
    "operator": "Rotpunkt Pharma",
    "website": "https://www.pharmaworld.com/",
    "wheelchair": "yes",
    "id": "node/693318441"
  },
  "geometry": {
    "type": "Point",
    "coordinates": [
      8.5383126,
      47.374272
    ]
  }
},
{
  "type": "Feature",
  "id": "node/693318592",
  "properties": {
    "addr:city": "Zürich",
    "addr:country": "CH",
    "addr:housenumber": "81",
    "addr:postcode": "8001",
    "addr:street": "Bahnhofstrasse",
    "alt_name": "Coop Vitality Bahnhofstrasse",
    "amenity": "pharmacy",
    "branch": "Zürich Bahnhofstrasse",
    "brand": "Coop Vitality",
    "healthcare": "pharmacy",
    "level": "0",
    "name": "Coop Vitality",
    "opening_hours": "Mo-Fr 09:00-20:00; Sa 09:00-19:00",
    "operator": "Coop Vitality & GaleniCare",
    "website": "https://www.coopvitality.ch/de/coop-vitality-zurich",
    "wheelchair": "yes",
    "id": "node/693318592"
  },
  "geometry": {
    "type": "Point",
    "coordinates": [
      8.5391041,
      47.3758718
    ]
  }
},
{
  "type": "Feature",
  "id": "node/693318670",
  "properties": {
    "addr:city": "Zürich",
    "addr:country": "CH",
    "addr:housenumber": "108",
    "addr:postcode": "8001",
    "addr:street": "Bahnhofstrasse",
    "amenity": "pharmacy",
    "branch": "Zürich City",
    "brand": "Amavita",
    "brand:wikidata": "Q93733901",
    "brand:wikipedia": "de:Amavita",
    "healthcare": "pharmacy",
    "name": "Amavita",
    "old_name": "Apotheke Sammet",
    "opening_hours": "Mo-Fr 07:00-20:00; Sa 08:00-20:00; Su 11:00-18:00",
    "operator": "GaleniCare",
    "website": "https://www.amavita.ch/de/amavita-apotheke-bahnhofplatz-zurich",
    "wheelchair": "yes",
    "id": "node/693318670"
  },
  "geometry": {
    "type": "Point",
    "coordinates": [
      8.5399521,
      47.37669
    ]
  }
},
{
  "type": "Feature",
  "id": "node/698785782",
  "properties": {
    "amenity": "pharmacy",
    "dispensing": "yes",
    "healthcare": "pharmacy",
    "name": "Marktgass Apotheke",
    "opening_hours": "Mo-Fr 08:00-18:30; Sa 08:00-17:00; PH closed",
    "wheelchair": "yes",
    "id": "node/698785782"
  },
  "geometry": {
    "type": "Point",
    "coordinates": [
      8.6173752,
      47.3976672
    ]
  }
},
{
  "type": "Feature",
  "id": "node/703216769",
  "properties": {
    "addr:city": "Zürich",
    "addr:country": "CH",
    "addr:housenumber": "7",
    "addr:postcode": "8001",
    "addr:street": "Stampfenbachstrasse",
    "amenity": "pharmacy",
    "branch": "Zürich Central",
    "brand": "TopPharm",
    "check_date": "2023-04-10",
    "healthcare": "pharmacy",
    "name": "TopPharm Leonhards Apotheke",
    "opening_hours": "Mo-Fr 07:45-18:45; Sa 09:00-16:00",
    "operator": "TopPharm Genossenschaft",
    "website": "https://www.apotheke.ch/leonhards",
    "wheelchair": "no",
    "id": "node/703216769"
  },
  "geometry": {
    "type": "Point",
    "coordinates": [
      8.5435927,
      47.3776379
    ]
  }
},
{
  "type": "Feature",
  "id": "node/704834757",
  "properties": {
    "addr:city": "Dübendorf",
    "addr:housenumber": "1",
    "addr:postcode": "8600",
    "addr:street": "Adlerstrasse",
    "alt_name": "Topwell Apotheke City",
    "amenity": "pharmacy",
    "branch": "Dübendorf",
    "brand": "Medbase",
    "brand:wikidata": "Q50038690",
    "dispensing": "yes",
    "healthcare": "pharmacy",
    "name": "Medbase Apotheke Dübendorf",
    "old_name": "CityApotheke",
    "opening_hours": "Mo-Fr 08:00-19:00; Sa 08:00-17:00; PH closed",
    "operator": "Medbase Apotheken",
    "website": "https://www.topwell.ch/medbaseapothekeduebendorf/",
    "wheelchair": "yes",
    "id": "node/704834757"
  },
  "geometry": {
    "type": "Point",
    "coordinates": [
      8.616927,
      47.3973629
    ]
  }
},
{
  "type": "Feature",
  "id": "node/706426545",
  "properties": {
    "addr:city": "Winterthur",
    "addr:housenumber": "232",
    "addr:postcode": "8404",
    "addr:street": "Römerstrasse",
    "alt_name": "TopPharm Römer Apotheke Winterthur",
    "amenity": "pharmacy",
    "branch": "Winterthur Oberwinterthur",
    "brand": "TopPharm",
    "check_date:opening_hours": "2023-01-14",
    "name": "TopPharm Römer Apotheke",
    "opening_hours": "Mo-Fr 08:00-18:30; Sa 08:00-16:00",
    "operator": "TopPharm Genossenschaft",
    "website": "https://www.apotheke.ch/roemer-winterthur",
    "wheelchair": "yes",
    "id": "node/706426545"
  },
  "geometry": {
    "type": "Point",
    "coordinates": [
      8.7585129,
      47.5093841
    ]
  }
},
{
  "type": "Feature",
  "id": "node/732706068",
  "properties": {
    "addr:city": "Meilen",
    "addr:housenumber": "10",
    "addr:postcode": "8706",
    "addr:street": "Rosengartenstrasse",
    "amenity": "pharmacy",
    "branch": "Meilen",
    "brand": "TopPharm",
    "dispensing": "yes",
    "drive_through": "no",
    "healthcare": "pharmacy",
    "name": "TopPharm Apotheke Dr. Rebhan",
    "opening_hours": "Mo-Sa 08:00-20:00",
    "operator": "TopPharm Genossenschaft",
    "website": "https://www.apotheke.ch/rebhan",
    "wheelchair": "yes",
    "id": "node/732706068"
  },
  "geometry": {
    "type": "Point",
    "coordinates": [
      8.6458493,
      47.2683278
    ]
  }
},
{
  "type": "Feature",
  "id": "node/738031621",
  "properties": {
    "addr:city": "Uetikon am See",
    "addr:housenumber": "103a",
    "addr:postcode": "8707",
    "addr:street": "Bergstrasse",
    "amenity": "pharmacy",
    "dispensing": "yes",
    "healthcare": "pharmacy",
    "name": "Riedsteg",
    "website": "https://riedsteg-apotheke.ch/",
    "wheelchair": "yes",
    "id": "node/738031621"
  },
  "geometry": {
    "type": "Point",
    "coordinates": [
      8.6774473,
      47.2631804
    ]
  }
},
{
  "type": "Feature",
  "id": "node/765769912",
  "properties": {
    "addr:city": "Zürich",
    "addr:country": "CH",
    "addr:housenumber": "2",
    "addr:postcode": "8046",
    "addr:street": "Zehntenhausstrasse",
    "alt_name": "Topwell Apotheke Zehntenhaus",
    "amenity": "pharmacy",
    "branch": "Zürich Zehntenhaus",
    "brand": "Medbase",
    "brand:wikidata": "Q50038690",
    "name": "Medbase Apotheke Zehntenhaus",
    "old_name": "Zehntenhaus Apotheke",
    "opening_hours": "Mo-Fr 08:30-19:00; Sa 08:30-17:00",
    "operator": "Medbase Apotheken",
    "website": "https://www.topwell.ch/medbaseapothekezuerichzehntenhau/",
    "wheelchair": "yes",
    "id": "node/765769912"
  },
  "geometry": {
    "type": "Point",
    "coordinates": [
      8.5067407,
      47.4193484
    ]
  }
},
{
  "type": "Feature",
  "id": "node/841975032",
  "properties": {
    "addr:city": "Urdorf",
    "addr:housenumber": "79",
    "addr:postcode": "8902",
    "addr:street": "Birmensdorferstrasse",
    "alt_name": "DROPA Drogerie Apotheke Urdorf",
    "amenity": "pharmacy",
    "branch": "Urdorf Spitzacker",
    "brand": "DROPA",
    "brand:wikidata": "Q1260273",
    "dispensing": "yes",
    "healthcare": "pharmacy",
    "level": "0",
    "name": "Dropa Urdorf",
    "opening_hours": "Mo-Fr 08:00-19:00; Sa 08:00-18:00",
    "operator": "Dr. Bähler Dropa",
    "phone": "+41 44 735 10 30",
    "shop": "chemist",
    "website": "https://dropa.ch/standorte/dropa-drogerie-apotheke-urdorf",
    "wheelchair": "yes",
    "id": "node/841975032"
  },
  "geometry": {
    "type": "Point",
    "coordinates": [
      8.4225465,
      47.384958
    ]
  }
},
{
  "type": "Feature",
  "id": "node/842629464",
  "properties": {
    "addr:city": "Rümlang",
    "addr:housenumber": "24",
    "addr:postcode": "8153",
    "addr:street": "Oberdorfstrasse",
    "amenity": "pharmacy",
    "branch": "Rümlang",
    "brand": "Amavita",
    "name": "Amavita Rümlang",
    "opening_hours": "Mo-Fr 07:45-18:30; Sa 07:45-16:00",
    "operator": "GaleniCare",
    "phone": "+41 58 878 22 40",
    "website": "https://www.amavita.ch/de/amavita-apotheke-rumlang",
    "id": "node/842629464"
  },
  "geometry": {
    "type": "Point",
    "coordinates": [
      8.5300081,
      47.4508792
    ]
  }
},
{
  "type": "Feature",
  "id": "node/848939047",
  "properties": {
    "addr:city": "Zürich",
    "addr:country": "CH",
    "addr:housenumber": "8",
    "addr:postcode": "8004",
    "addr:street": "Kernstrasse",
    "amenity": "pharmacy",
    "branch": "Zürich Wengihof",
    "brand": "Amavita",
    "brand:wikidata": "Q93733901",
    "dispensing": "yes",
    "healthcare": "pharmacy",
    "name": "Amavita",
    "opening_hours": "Mo-Fr 08:00-18:30, Sa 08:00-17:00",
    "operator": "GaleniCare",
    "shop": "chemist",
    "website": "https://www.amavita.ch/de/amavita-apotheke-wengihof",
    "wheelchair": "limited",
    "id": "node/848939047"
  },
  "geometry": {
    "type": "Point",
    "coordinates": [
      8.5237485,
      47.3750349
    ]
  }
},
{
  "type": "Feature",
  "id": "node/861782890",
  "properties": {
    "addr:city": "Langnau am Albis",
    "addr:housenumber": "4",
    "addr:postcode": "8135",
    "addr:street": "Vordere Grundstrasse",
    "alt_name": "BENU Apotheke Langnau am Albis",
    "amenity": "pharmacy",
    "branch": "Langnau am Albis",
    "brand": "Benu",
    "brand:wikidata": "Q62562792",
    "healthcare": "pharmacy",
    "name": "Benu",
    "opening_hours": "Mo-Fr 08:00-12:00, 13:30-18:30, Sa 08:00-16:00",
    "operator": "BENU Pharmacies",
    "website": "https://www.benu.ch/de/pharmacies/langnau-am-albis/",
    "id": "node/861782890"
  },
  "geometry": {
    "type": "Point",
    "coordinates": [
      8.5389653,
      47.2889907
    ]
  }
},
{
  "type": "Feature",
  "id": "node/866556471",
  "properties": {
    "addr:city": "Zürich",
    "addr:country": "CH",
    "addr:housenumber": "241",
    "addr:postcode": "8057",
    "addr:street": "Schaffhauserstrasse",
    "alt_name": "Topwell Apotheke Berninaplatz",
    "amenity": "pharmacy",
    "branch": "Zürich Berninaplatz",
    "brand": "Medbase",
    "brand:wikidata": "Q50038690",
    "check_date:opening_hours": "2022-08-09",
    "delivery:covid19": "no",
    "name": "Medbase Apotheke Berninaplatz",
    "old_name": "Bernina Apotheke",
    "opening_hours": "Mo-Fr 08:00-18:30; Sa 08:00-16:00",
    "opening_hours:covid19": "open",
    "operator": "Medbase Apotheken",
    "source": "survey",
    "takeaway:covid19": "no",
    "website": "https://www.topwell.ch/medbaseapothekezuerichberninapla/",
    "id": "node/866556471"
  },
  "geometry": {
    "type": "Point",
    "coordinates": [
      8.5472861,
      47.4033589
    ]
  }
},
{
  "type": "Feature",
  "id": "node/877150393",
  "properties": {
    "addr:city": "Zollikerberg",
    "addr:housenumber": "146",
    "addr:postcode": "8125",
    "addr:street": "Forchstrasse",
    "amenity": "pharmacy",
    "branch": "Zollikerberg",
    "brand": "Amavita",
    "brand:wikidata": "Q93733901",
    "brand:wikipedia": "de:Amavita",
    "healthcare": "pharmacy",
    "name": "Amavita",
    "operator": "GaleniCare",
    "website": "https://www.amavita.ch/de/amavita-apotheke-im-zollikerberg",
    "id": "node/877150393"
  },
  "geometry": {
    "type": "Point",
    "coordinates": [
      8.5979775,
      47.3469846
    ]
  }
},
{
  "type": "Feature",
  "id": "node/891896164",
  "properties": {
    "addr:city": "Zürich",
    "addr:country": "CH",
    "addr:housenumber": "120",
    "addr:postcode": "8006",
    "addr:street": "Universitätstrasse",
    "amenity": "pharmacy",
    "brand": "Rotpunkt Apotheke",
    "check_date:opening_hours": "2020-10-08",
    "healthcare": "pharmacy",
    "name": "Rigi Apotheke und Drogerie",
    "opening_hours": "Mo-Fr 08:00-19:00; Sa 08:00-16:00",
    "operator": "Rotpunkt Pharma",
    "shop": "chemist",
    "website": "https://www.apotheke-rigi.ch/",
    "id": "node/891896164"
  },
  "geometry": {
    "type": "Point",
    "coordinates": [
      8.5487292,
      47.3857176
    ]
  }
},
{
  "type": "Feature",
  "id": "node/897238530",
  "properties": {
    "access:covid19": "yes",
    "addr:city": "Männedorf",
    "addr:housenumber": "258",
    "addr:postcode": "8708",
    "addr:street": "Alte Landstrasse",
    "amenity": "pharmacy",
    "brand": "Fortis",
    "delivery:covid19": "yes",
    "name": "Apotheke & Drogerie Leue",
    "opening_hours": "Mo-Sa 08:00-19:00",
    "opening_hours:covid19": "Mo-Sa 08:00-19:00",
    "shop": "chemist",
    "website": "https://www.apotheke-leue.ch/",
    "id": "node/897238530"
  },
  "geometry": {
    "type": "Point",
    "coordinates": [
      8.6959446,
      47.2528536
    ]
  }
},
{
  "type": "Feature",
  "id": "node/904620471",
  "properties": {
    "addr:city": "Zürich",
    "addr:country": "CH",
    "addr:housenumber": "15/17",
    "addr:postcode": "8050",
    "addr:street": "Querstrasse",
    "alt_name": "Topwell Apotheke 11",
    "amenity": "pharmacy",
    "branch": "Zürich Oerlikon",
    "brand": "Medbase",
    "brand:wikidata": "Q50038690",
    "check_date:opening_hours": "2022-06-20",
    "healthcare": "pharmacy",
    "name": "Medbase Apotheke Kreis 11",
    "opening_hours": "Mo-Fr 08:00-18:30; Sa 08:00-16:00",
    "operator": "Medbase Apotheken",
    "phone": "+41 44 311 86 65",
    "website": "https://www.topwell.ch/medbaseapothekezuerichkreis11",
    "wheelchair": "yes",
    "id": "node/904620471"
  },
  "geometry": {
    "type": "Point",
    "coordinates": [
      8.5443935,
      47.4096018
    ]
  }
},
{
  "type": "Feature",
  "id": "node/916226803",
  "properties": {
    "amenity": "pharmacy",
    "check_date:opening_hours": "2023-05-04",
    "healthcare": "pharmacy",
    "level": "0",
    "name": "Neuwiesen Apotheke",
    "opening_hours": "Mo-Fr 08:30-20:00; Sa 08:30-18:00",
    "wheelchair": "yes",
    "id": "node/916226803"
  },
  "geometry": {
    "type": "Point",
    "coordinates": [
      8.7206254,
      47.4988832
    ]
  }
},
{
  "type": "Feature",
  "id": "node/916616131",
  "properties": {
    "addr:city": "Zürich",
    "addr:country": "CH",
    "addr:housenumber": "10",
    "addr:postcode": "8001",
    "addr:street": "Torgasse",
    "amenity": "pharmacy",
    "brand": "Fortis",
    "name": "Sonnen-Apotheke",
    "opening_hours": "Mo-Fr 07:30-18:30; Sa 07:30-12:30",
    "website": "https://www.sonnenapotheke-zuerich.ch/",
    "wheelchair": "no",
    "id": "node/916616131"
  },
  "geometry": {
    "type": "Point",
    "coordinates": [
      8.5458658,
      47.3680944
    ]
  }
},
{
  "type": "Feature",
  "id": "node/926918994",
  "properties": {
    "addr:city": "Zürich",
    "addr:country": "CH",
    "addr:housenumber": "350",
    "addr:postcode": "8050",
    "addr:street": "Schaffhauserstrasse",
    "amenity": "pharmacy",
    "brand": "Rotpunkt Apotheke",
    "check_date": "2023-05-13",
    "name": "Sternen Apotheke",
    "opening_hours": "Mo-Fr 08:00-18:30; Sa 08:00-16:00",
    "operator": "Rotpunkt Pharma",
    "phone": "+41 44 311 53 33",
    "toilets:wheelchair": "no",
    "website": "http://www.sternenapo.ch/",
    "wheelchair": "yes",
    "id": "node/926918994"
  },
  "geometry": {
    "type": "Point",
    "coordinates": [
      8.5464844,
      47.4095957
    ]
  }
},
{
  "type": "Feature",
  "id": "node/936942686",
  "properties": {
    "addr:city": "Zürich",
    "addr:country": "CH",
    "addr:housenumber": "15",
    "addr:postcode": "8004",
    "addr:street": "Badenerstrasse",
    "alt_name": "Coop Vitality Stauffacher",
    "amenity": "pharmacy",
    "branch": "Zürich Stauffacher",
    "brand": "Coop Vitality",
    "healthcare": "pharmacy",
    "level": "0",
    "name": "Coop Vitality",
    "opening_hours": "Mo-Sa 08:00-20:00; PH unknown",
    "wheelchair": "yes",
    "id": "node/936942686"
  },
  "geometry": {
    "type": "Point",
    "coordinates": [
      8.5304688,
      47.3734534
    ]
  }
},
{
  "type": "Feature",
  "id": "node/943868646",
  "properties": {
    "addr:city": "Zürich",
    "addr:country": "CH",
    "addr:housenumber": "100",
    "addr:postcode": "8006",
    "addr:street": "Universitätstrasse",
    "amenity": "pharmacy",
    "name": "Biotheke",
    "official_name": "Winkelried Apotheke AG",
    "old_name": "Winkelried Apotheke",
    "opening_hours": "Mo-Fr 08:30-18:30; Sa 09:00-16:00",
    "website": "https://www.biotheke.ch/",
    "id": "node/943868646"
  },
  "geometry": {
    "type": "Point",
    "coordinates": [
      8.5484321,
      47.3836588
    ]
  }
},
{
  "type": "Feature",
  "id": "node/983433415",
  "properties": {
    "addr:city": "Zürich",
    "addr:country": "CH",
    "addr:housenumber": "40",
    "addr:postcode": "8051",
    "addr:street": "Hirzenbachstrasse",
    "amenity": "pharmacy",
    "brand": "Fortis",
    "healthcare": "pharmacy",
    "name": "Apotheke Zum Mörser",
    "opening_hours": "Mo-Fr 08:00-18:30; Sa 08:00-16:30",
    "website": "https://www.apothekezummoerser.ch/",
    "wheelchair": "yes",
    "id": "node/983433415"
  },
  "geometry": {
    "type": "Point",
    "coordinates": [
      8.5891049,
      47.4034292
    ]
  }
},
{
  "type": "Feature",
  "id": "node/1110775501",
  "properties": {
    "addr:city": "Zürich",
    "addr:country": "CH",
    "addr:housenumber": "58",
    "addr:postcode": "8001",
    "addr:street": "Bahnhofstrasse",
    "amenity": "pharmacy",
    "name": "Löwen Apotheke",
    "opening_hours": "Mo-Fr 08:30-19:00; Sa 09:00-17:00",
    "website": "http://www.loewen-apotheke-zuerich.ch/",
    "wheelchair": "limited",
    "id": "node/1110775501"
  },
  "geometry": {
    "type": "Point",
    "coordinates": [
      8.5384614,
      47.373314
    ]
  }
}
]
}
