{
"type": "FeatureCollection",
"features": [
{
  "type": "Feature",
  "id": "node/277227366",
  "properties": {
    "addr:city": "Siebnen",
    "addr:housenumber": "1",
    "addr:postcode": "8854",
    "addr:street": "Glarnerstrasse",
    "amenity": "pharmacy",
    "branch": "Siebnen",
    "brand": "TopPharm",
    "dispensing": "yes",
    "healthcare": "pharmacy",
    "kids_area": "yes",
    "kids_area:fee": "no",
    "kids_area:indoor": "yes",
    "kids_area:outdoor": "no",
    "kids_area:supervised": "no",
    "name": "TopPharm Apotheke Siebnen",
    "old_name": "Apotheke Dr. Hahn",
    "operator": "TopPharm Genossenschaft",
    "payment:twint": "yes",
    "website": "https://www.apotheke.ch/siebnen",
    "id": "node/277227366"
  },
  "geometry": {
    "type": "Point",
    "coordinates": [
      8.8973622,
      47.1745757
    ]
  }
},
{
  "type": "Feature",
  "id": "node/287262549",
  "properties": {
    "addr:city": "Schwyz",
    "addr:country": "CH",
    "addr:housenumber": "6",
    "addr:postcode": "6430",
    "addr:street": "Postplatz",
    "amenity": "pharmacy",
    "contact:fax": "+41 41 8116416",
    "contact:phone": "+41 41 8115616",
    "dispensing": "yes",
    "drive_through": "no",
    "email": "hofmatt.apo@ovan.ch",
    "healthcare": "pharmacy",
    "name": "Hofmatt Apotheke",
    "source": "survey and website;local knowledge",
    "website": "http://www.hofmatt-apotheke.ch",
    "id": "node/287262549"
  },
  "geometry": {
    "type": "Point",
    "coordinates": [
      8.6523296,
      47.0210267
    ]
  }
},
{
  "type": "Feature",
  "id": "node/356681393",
  "properties": {
    "addr:city": "Seewen",
    "addr:housenumber": "7",
    "addr:postcode": "6423",
    "addr:street": "Steinbislin",
    "alt_name": "Coop Vitality Seewen",
    "amenity": "pharmacy",
    "branch": "Seewen Markt",
    "brand": "Coop Vitality",
    "dispensing": "yes",
    "level": "0",
    "name": "Coop Vitality",
    "operator": "Coop Vitality & GaleniCare",
    "website": "https://www.coopvitality.ch/de/coop-vitality-seewen",
    "id": "node/356681393"
  },
  "geometry": {
    "type": "Point",
    "coordinates": [
      8.6277023,
      47.0326529
    ]
  }
},
{
  "type": "Feature",
  "id": "node/800658251",
  "properties": {
    "addr:city": "Einsiedeln",
    "addr:country": "CH",
    "addr:housenumber": "81",
    "addr:postcode": "8840",
    "addr:street": "Hauptstrasse",
    "alt_name": "Topwell Apotheke Engel",
    "amenity": "pharmacy",
    "branch": "Einsiedeln Engel",
    "brand": "Medbase",
    "brand:wikidata": "Q50038690",
    "healthcare": "pharmacy",
    "name": "Medbase Apotheke Engel",
    "old_name": "Engel Apotheke",
    "opening_hours": "Mo-Fr 08:30-12:00,13:30-18:00; Sa 08:00-12:00,13:30-16:00",
    "operator": "Medbase Apotheken",
    "phone": "+41 55 418 81 41",
    "website": "https://www.topwell.ch/medbaseapothekeeinsiedelnengel",
    "id": "node/800658251"
  },
  "geometry": {
    "type": "Point",
    "coordinates": [
      8.7493428,
      47.126967
    ]
  }
},
{
  "type": "Feature",
  "id": "node/800659145",
  "properties": {
    "addr:city": "Einsiedeln",
    "addr:country": "CH",
    "addr:housenumber": "23",
    "addr:postcode": "8840",
    "addr:street": "Hauptstrasse",
    "amenity": "pharmacy",
    "name": "Paracelsus Apotheke",
    "phone": "+41 55 418 40 70",
    "wheelchair": "no",
    "id": "node/800659145"
  },
  "geometry": {
    "type": "Point",
    "coordinates": [
      8.7458433,
      47.1274476
    ]
  }
},
{
  "type": "Feature",
  "id": "node/1375289438",
  "properties": {
    "addr:city": "Wollerau",
    "addr:housenumber": "5",
    "addr:postcode": "8832",
    "addr:street": "Wächlenstrasse",
    "amenity": "pharmacy",
    "dispensing": "yes",
    "drive_through": "no",
    "name": "Höfner Apotheke",
    "website": "http://www.hoefner-apotheke.ch/",
    "id": "node/1375289438"
  },
  "geometry": {
    "type": "Point",
    "coordinates": [
      8.7229069,
      47.1966302
    ]
  }
},
{
  "type": "Feature",
  "id": "node/1411264382",
  "properties": {
    "addr:city": "Küssnacht am Rigi",
    "addr:housenumber": "8",
    "addr:postcode": "6403",
    "addr:street": "Unterdorf",
    "amenity": "pharmacy",
    "healthcare": "pharmacy",
    "name": "Holzgang Apotheke",
    "phone": "+41418501045",
    "id": "node/1411264382"
  },
  "geometry": {
    "type": "Point",
    "coordinates": [
      8.4406211,
      47.0809747
    ]
  }
},
{
  "type": "Feature",
  "id": "node/2628536978",
  "properties": {
    "addr:city": "Brunnen",
    "addr:housenumber": "1",
    "addr:postcode": "6440",
    "addr:street": "Bahnhofstrasse",
    "amenity": "pharmacy",
    "dispensing": "yes",
    "healthcare": "pharmacy",
    "name": "Rütli Apotheke",
    "opening_hours": "Mo-Fr 08:00-12:00,13:30-18:30; Sa 08:00-12:00,13:30-16:00",
    "phone": "+41 41 820 12 01",
    "website": "https://www.ruetli-apotheke.ch",
    "id": "node/2628536978"
  },
  "geometry": {
    "type": "Point",
    "coordinates": [
      8.6054259,
      46.9942758
    ]
  }
},
{
  "type": "Feature",
  "id": "node/2866713960",
  "properties": {
    "amenity": "pharmacy",
    "dispensing": "no",
    "healthcare": "pharmacy",
    "name": "Rigi Apotheke",
    "opening_hours": "Mo-Fr 08:00-19:00; Sa 08:00-17:00",
    "id": "node/2866713960"
  },
  "geometry": {
    "type": "Point",
    "coordinates": [
      8.5502605,
      47.0506341
    ]
  }
},
{
  "type": "Feature",
  "id": "node/3052449092",
  "properties": {
    "addr:city": "Lachen",
    "addr:housenumber": "5",
    "addr:postcode": "8853",
    "addr:street": "Seidenstrasse",
    "amenity": "pharmacy",
    "check_date:opening_hours": "2021-09-25",
    "contact:email": "apo.drbruhin@ovan.ch",
    "contact:fax": "+41 55 451 90 91",
    "contact:phone": "+41 55 451 90 90",
    "healthcare": "pharmacy",
    "name": "Internationale Apotheke Dr. Bruhin",
    "opening_hours": "Mo-Fr 08:00-12:00,13:30-18:30; Sa 08:00-16:00",
    "website": "https://www.internationale-apotheke.ch/",
    "wheelchair": "yes",
    "id": "node/3052449092"
  },
  "geometry": {
    "type": "Point",
    "coordinates": [
      8.8539113,
      47.1922896
    ]
  }
},
{
  "type": "Feature",
  "id": "node/3201294391",
  "properties": {
    "amenity": "pharmacy",
    "dispensing": "yes",
    "level": "1",
    "name": "Löwenapotheke",
    "id": "node/3201294391"
  },
  "geometry": {
    "type": "Point",
    "coordinates": [
      8.7940802,
      47.2008273
    ]
  }
},
{
  "type": "Feature",
  "id": "node/6912211982",
  "properties": {
    "addr:city": "Schübelbach",
    "addr:country": "CH",
    "addr:housenumber": "20",
    "addr:postcode": "8862",
    "addr:street": "Gutenbrunnen",
    "amenity": "pharmacy",
    "contact:phone": "+41 55 440 85 07",
    "contact:website": "https://www.schwanen-apotheke.ch/",
    "dispensing": "yes",
    "drive_through": "no",
    "healthcare": "pharmacy",
    "name": "Schwanen Apotheke",
    "opening_hours": "Mo-Fr 09:00-12:00,13:30-18:30; Sa 08:00-15:00",
    "wheelchair": "yes",
    "id": "node/6912211982"
  },
  "geometry": {
    "type": "Point",
    "coordinates": [
      8.9425883,
      47.1752188
    ]
  }
},
{
  "type": "Feature",
  "id": "node/6982309383",
  "properties": {
    "addr:housenumber": "11",
    "addr:postcode": "8808",
    "addr:street": "Bahnhofstrasse",
    "amenity": "pharmacy",
    "branch": "Pfäffikon SZ",
    "brand": "Pill Apotheke",
    "healthcare": "pharmacy",
    "level": "0",
    "name": "Pill Apotheke am Bahnhof",
    "operator": "Pill Group",
    "website": "https://www.pill.ch/standorte/pill-apotheke-am-bahnhof.html",
    "id": "node/6982309383"
  },
  "geometry": {
    "type": "Point",
    "coordinates": [
      8.7784278,
      47.2023527
    ]
  }
},
{
  "type": "Feature",
  "id": "node/7481914161",
  "properties": {
    "addr:city": "Küssnacht am Rigi",
    "addr:housenumber": "11",
    "addr:postcode": "6403",
    "addr:street": "Siegwartstrasse",
    "amenity": "pharmacy",
    "branch": "Küssnacht am Rigi",
    "brand": "Amavita",
    "name": "Amavita Rigimärt",
    "operator": "GaleniCare",
    "website": "https://www.amavita.ch/de/amavita-apotheke-rigimart",
    "id": "node/7481914161"
  },
  "geometry": {
    "type": "Point",
    "coordinates": [
      8.4414643,
      47.0837996
    ]
  }
},
{
  "type": "Feature",
  "id": "node/7532759552",
  "properties": {
    "addr:city": "Ibach",
    "addr:housenumber": "18",
    "addr:postcode": "6438",
    "addr:street": "Mythencenterstrasse",
    "amenity": "pharmacy",
    "level": "1",
    "name": "Mythen Apotheke Drogerie",
    "shop": "chemist",
    "website": "https://www.mythen-apotheke-drogerie.ch/",
    "id": "node/7532759552"
  },
  "geometry": {
    "type": "Point",
    "coordinates": [
      8.6466258,
      47.015457
    ]
  }
}
]
}
