{
"type": "FeatureCollection",
"features": [
{
  "type": "Feature",
  "id": "node/441986102",
  "properties": {
    "addr:city": "Stein am Rhein",
    "addr:housenumber": "8",
    "addr:postcode": "8260",
    "addr:street": "Rathausplatz",
    "amenity": "pharmacy",
    "dispensing": "yes",
    "name": "Zum Mohrenkönig",
    "phone": "+41 52 741 21 33",
    "wheelchair": "no",
    "id": "node/441986102"
  },
  "geometry": {
    "type": "Point",
    "coordinates": [
      8.8593281,
      47.6596296
    ]
  }
},
{
  "type": "Feature",
  "id": "node/2024398495",
  "properties": {
    "addr:city": "Schaffhausen",
    "addr:country": "CH",
    "addr:housenumber": "27",
    "addr:postcode": "8200",
    "addr:street": "Bahnhofstrasse",
    "amenity": "pharmacy",
    "check_date:opening_hours": "2023-07-06",
    "drive_through": "no",
    "name": "Bahnhof-Apotheke",
    "opening_hours": "Mo-Sa 07:00-20:00; Su 08:00-18:00",
    "phone": "+41 52 625 26 86",
    "website": "http://bahnhofapotheke.ch/",
    "wheelchair": "yes",
    "id": "node/2024398495"
  },
  "geometry": {
    "type": "Point",
    "coordinates": [
      8.6323387,
      47.6977047
    ]
  }
},
{
  "type": "Feature",
  "id": "node/2258851964",
  "properties": {
    "addr:city": "Schaffhausen",
    "addr:country": "CH",
    "addr:housenumber": "2",
    "addr:postcode": "8202",
    "addr:street": "Unterstadt",
    "amenity": "pharmacy",
    "check_date:opening_hours": "2023-06-15",
    "dispensing": "yes",
    "email": "info@unterstadtapotheke.ch",
    "healthcare": "pharmacy",
    "name": "Unterstadt-Apotheke & Post",
    "opening_hours": "Mo-Fr 08:30-18:30; Sa 08:30-17:00",
    "phone": "+41 52 625 11 44",
    "website": "https://www.unterstadtapotheke.ch/",
    "wheelchair": "yes",
    "id": "node/2258851964"
  },
  "geometry": {
    "type": "Point",
    "coordinates": [
      8.6403009,
      47.6957809
    ]
  }
},
{
  "type": "Feature",
  "id": "node/2258851970",
  "properties": {
    "addr:city": "Schaffhausen",
    "addr:country": "CH",
    "addr:housenumber": "31",
    "addr:postcode": "8200",
    "addr:street": "Vordergasse",
    "amenity": "pharmacy",
    "healthcare": "pharmacy",
    "level": "0",
    "name": "Zum Zitronenbaum",
    "opening_hours": "Mo 13:30-18:30; Tu-Fr 08:30-12:00,13:00-18:30; Sa 08:30-16:00",
    "phone": "+41 52 634 04 04",
    "website": "https://sauterag.ch/index.php",
    "id": "node/2258851970"
  },
  "geometry": {
    "type": "Point",
    "coordinates": [
      8.6368107,
      47.6959795
    ]
  }
},
{
  "type": "Feature",
  "id": "node/2460186217",
  "properties": {
    "amenity": "pharmacy",
    "check_date:opening_hours": "2023-06-17",
    "name": "Apotheke Roter Ochsen",
    "opening_hours": "Mo-Fr 08:00-12:15,13:15-18:30; Sa 08:00-16:00",
    "website": "http://www.volksapotheke.ch/R_310.php",
    "id": "node/2460186217"
  },
  "geometry": {
    "type": "Point",
    "coordinates": [
      8.6351627,
      47.6990362
    ]
  }
},
{
  "type": "Feature",
  "id": "node/2955574980",
  "properties": {
    "addr:city": "Schaffhausen",
    "addr:housenumber": "10",
    "addr:postcode": "8207",
    "addr:street": "Stüdliackerstrasse",
    "amenity": "pharmacy",
    "brand": "Achillea Apotheke",
    "name": "Apotheke Herblingermarkt",
    "operator": "Dr. Bähler Dropa",
    "website": "https://achillea.ch/standorte/apotheke-herblingermarkt",
    "id": "node/2955574980"
  },
  "geometry": {
    "type": "Point",
    "coordinates": [
      8.6647564,
      47.7208609
    ]
  }
},
{
  "type": "Feature",
  "id": "node/7276399060",
  "properties": {
    "addr:city": "Neuhausen am Rheinfall",
    "addr:country": "CH",
    "addr:housenumber": "35",
    "addr:postcode": "8212",
    "addr:street": "Zentralstrasse",
    "amenity": "pharmacy",
    "dispensing": "yes",
    "fax": "0041526724959",
    "name": "Zentralapotheke",
    "opening_hours": "Mo-Fr 08:00-18:30; Sa 08:00-16:00",
    "operator": "Rotpunkt Apotheke",
    "phone": "0041526724633",
    "website": "http://www.zentralapotheke.ch/",
    "wheelchair": "yes",
    "id": "node/7276399060"
  },
  "geometry": {
    "type": "Point",
    "coordinates": [
      8.619317,
      47.6815315
    ]
  }
},
{
  "type": "Feature",
  "id": "node/7465776000",
  "properties": {
    "addr:city": "Schaffhausen",
    "addr:housenumber": "8",
    "addr:postcode": "8200",
    "addr:street": "Oberstadt",
    "amenity": "pharmacy",
    "brand": "Achillea Apotheke",
    "name": "Tauben Apotheke Drogerie",
    "operator": "Dr. Bähler Dropa",
    "shop": "chemist",
    "website": "https://achillea.ch/standorte/tauben-apotheke-drogerie",
    "id": "node/7465776000"
  },
  "geometry": {
    "type": "Point",
    "coordinates": [
      8.6329609,
      47.6966494
    ]
  }
},
{
  "type": "Feature",
  "id": "node/7481793400",
  "properties": {
    "addr:city": "Schaffhausen",
    "addr:country": "CH",
    "addr:housenumber": "30-32",
    "addr:postcode": "8200",
    "addr:street": "Vorstadt",
    "amenity": "pharmacy",
    "branch": "Schaffhausen Vorstadt",
    "brand": "Amavita",
    "name": "Amavita Vorstadt",
    "operator": "GaleniCare",
    "website": "https://www.amavita.ch/de/amavita-apotheke-vorstadt",
    "id": "node/7481793400"
  },
  "geometry": {
    "type": "Point",
    "coordinates": [
      8.6344801,
      47.6983863
    ]
  }
},
{
  "type": "Feature",
  "id": "node/7911928973",
  "properties": {
    "addr:city": "Neuhausen",
    "addr:housenumber": "55",
    "addr:postcode": "8212",
    "addr:street": "Zentralstrasse",
    "amenity": "pharmacy",
    "check_date:opening_hours": "2022-06-24",
    "dispensing": "yes",
    "email": "imdorf@volksapotheke.ch",
    "healthcare": "pharmacy",
    "name": "Volksapotheke im Dorf",
    "opening_hours": "Mo-Fr 08:00-18:30, Sa 08:00-16:00",
    "operator": "Volksapotheke",
    "phone": "+41 52 674 01 20",
    "website": "https://volksapotheke.ch/im_dorf",
    "wheelchair": "yes",
    "id": "node/7911928973"
  },
  "geometry": {
    "type": "Point",
    "coordinates": [
      8.6202107,
      47.6821128
    ]
  }
},
{
  "type": "Feature",
  "id": "node/8393568468",
  "properties": {
    "amenity": "pharmacy",
    "dispensing": "yes",
    "email": "rueden@volksapotheke.ch",
    "healthcare": "pharmacy",
    "name": "Volksapotheke - Zum Rüden",
    "opening_hours": "Mo-Fr 07:30-18:30; Sa 07:30-17:00",
    "website": "https://www.volksapotheke.ch/",
    "id": "node/8393568468"
  },
  "geometry": {
    "type": "Point",
    "coordinates": [
      8.6324253,
      47.6973096
    ]
  }
},
{
  "type": "Feature",
  "id": "node/8393572202",
  "properties": {
    "addr:city": "Schaffhausen",
    "addr:housenumber": "29",
    "addr:postcode": "8200",
    "addr:street": "Unterstadt",
    "amenity": "pharmacy",
    "dispensing": "yes",
    "healthcare": "pharmacy",
    "name": "Volksapotheke zum Zitronenbaum",
    "opening_hours": "Mo-Fr 08:00-18:30; Sa 08:00-16:00",
    "phone": "+41526254045",
    "website": "http://www.volksapotheke.ch",
    "id": "node/8393572202"
  },
  "geometry": {
    "type": "Point",
    "coordinates": [
      8.6388949,
      47.695815
    ]
  }
}
]
}
