{
"type": "FeatureCollection",
"features": [
{
  "type": "Feature",
  "id": "node/8320819660",
  "properties": {
    "addr:city": "Schwyz",
    "addr:housenumber": "10",
    "addr:postcode": "6430",
    "addr:street": "Waldeggstrasse",
    "alt_name": "COVID-19 Impfentrum Schwyz",
    "healthcare": "centre",
    "healthcare:speciality": "vaccination",
    "name": "Impfzentrum Spital Schwyz",
    "note": "Für Schutz & Rettung u.a einsatzrelevant.",
    "phone": "041 818 41 11",
    "vaccination": "covid19",
    "website": "https://www.spital-schwyz.ch",
    "id": "node/8320819660"
  },
  "geometry": {
    "type": "Point",
    "coordinates": [
      8.6595687,
      47.0157115
    ]
  }
},
{
  "type": "Feature",
  "id": "node/8320819661",
  "properties": {
    "addr:city": "Einsiedeln",
    "addr:housenumber": "28",
    "addr:postcode": "8840",
    "addr:street": "Spitalstrasse",
    "alt_name": "COVID-19 Impfentrum Einsiedeln",
    "healthcare": "centre",
    "healthcare:speciality": "vaccination",
    "name": "Impfzentrum Spital Einsiedeln",
    "note": "Für Schutz & Rettung u.a einsatzrelevant.",
    "vaccination": "covid19",
    "website": "https://www.spital-einsiedeln.ch/home",
    "id": "node/8320819661"
  },
  "geometry": {
    "type": "Point",
    "coordinates": [
      8.7391121,
      47.1306871
    ]
  }
},
{
  "type": "Feature",
  "id": "node/8320819662",
  "properties": {
    "addr:city": "Lachen",
    "addr:housenumber": "41",
    "addr:postcode": "8853",
    "addr:street": "Oberdorfstrasse",
    "alt_name": "COVID-19 Impfzentrum Lachen",
    "healthcare": "centre",
    "healthcare:speciality": "vaccination",
    "name": "Impfzentrum Spital Lachen",
    "note": "Für Schutz & Rettung u.a einsatzrelevant.",
    "phone": "+41 41 819 15 95",
    "vaccination": "covid19",
    "website": "https://www.spital-lachen.ch/coronavirus.html",
    "id": "node/8320819662"
  },
  "geometry": {
    "type": "Point",
    "coordinates": [
      8.8589057,
      47.1892207
    ]
  }
}
]
}
