{
"type": "FeatureCollection",
"features": [
{
  "type": "Feature",
  "id": "node/8320771141",
  "properties": {
    "addr:city": "Zürich",
    "addr:housenumber": "84",
    "addr:postcode": "8001",
    "addr:street": "Hirschengraben",
    "alt_name": "COVID-19 Impfzentrum Zürich",
    "healthcare": "centre",
    "healthcare:speciality": "vaccination",
    "name": "Corona-Zentrum der Universität Zürich",
    "opening_hours": "Mo-Fr 09:00-17:00",
    "operator": "Universität Zürich",
    "phone": "+41 800 33 66 55",
    "vaccination": "covid19",
    "website": "https://coronazentrum.uzh.ch/",
    "id": "node/8320771141"
  },
  "geometry": {
    "type": "Point",
    "coordinates": [
      8.545448,
      47.3759572
    ]
  }
},
{
  "type": "Feature",
  "id": "node/8382900798",
  "properties": {
    "addr:city": "Zürich",
    "addr:housenumber": "497",
    "addr:postcode": "8063",
    "addr:street": "Birmensdorferstrasse",
    "alt_name": "COVID-19 Impfzentrum Triemli",
    "healthcare": "centre",
    "healthcare:speciality": "vaccination",
    "name": "Impfzentrum Stadtspital Triemli",
    "opening_hours": "Mo-Fr 09:00-18:00",
    "phone": "+41 44 416 11 11",
    "vaccination": "covid19",
    "website": "https://www.stadt-zuerich.ch/triemli/de/index/service/medien/auszeichnungen-news/coronaimpfungen.html",
    "id": "node/8382900798"
  },
  "geometry": {
    "type": "Point",
    "coordinates": [
      8.4976486,
      47.365833
    ]
  }
},
{
  "type": "Feature",
  "id": "node/8382900799",
  "properties": {
    "addr:city": "Zürich",
    "addr:housenumber": "49",
    "addr:postcode": "8050",
    "addr:street": "Wallisellenstrasse",
    "alt_name": "COVID-19 Impfzentrum Messe Zürich",
    "healthcare": "centre",
    "healthcare:speciality": "vaccination",
    "name": "Impfzentrum Messe Zürich",
    "operator": "Kanton Zürich",
    "phone": "+41 44 416 11 11",
    "vaccination": "covid19",
    "website": "https://www.zh.ch/de/news-uebersicht/medienmitteilungen/2021/01/kanton-zuerich-stellt-in-zusammenarbeit-mit-spitaelern-elf-impfzentren-bereit.html",
    "id": "node/8382900799"
  },
  "geometry": {
    "type": "Point",
    "coordinates": [
      8.553368,
      47.4110267
    ]
  }
},
{
  "type": "Feature",
  "id": "node/8383564424",
  "properties": {
    "addr:city": "Meilen",
    "addr:housenumber": "17",
    "addr:postcode": "8706",
    "addr:street": "Schulhausstrasse",
    "alt_name": "COVID-19 Impfzentrum Meilen",
    "healthcare": "centre",
    "healthcare:speciality": "vaccination",
    "name": "Impfzentrum Meilen",
    "opening_hours": "Mo-Fr 10:00-13:00,14:00-19:00",
    "operator": "Kanton Zürich",
    "vaccination": "covid19",
    "id": "node/8383564424"
  },
  "geometry": {
    "type": "Point",
    "coordinates": [
      8.6419997,
      47.2687066
    ]
  }
},
{
  "type": "Feature",
  "id": "node/8383564425",
  "properties": {
    "addr:city": "Dietikon",
    "addr:housenumber": "15",
    "addr:postcode": "8953",
    "addr:street": "Fondlistrasse",
    "alt_name": "COVID-19 Impfzentrum Dietikon",
    "healthcare": "centre",
    "healthcare:speciality": "vaccination",
    "name": "Impfzentrum Dietikon",
    "opening_hours": "Mo-Sa 08:00-12:15,12:45-17:00; Th,Fr 08:00-12:15,12:45-17:00,17:30-19:30",
    "operator": "Kanton Zürich",
    "vaccination": "covid19",
    "id": "node/8383564425"
  },
  "geometry": {
    "type": "Point",
    "coordinates": [
      8.3870356,
      47.4070415
    ]
  }
},
{
  "type": "Feature",
  "id": "node/8383564426",
  "properties": {
    "addr:city": "Winterthur",
    "addr:housenumber": "22",
    "addr:postcode": "8406",
    "addr:street": "Klosterstrasse",
    "alt_name": "COVID-19 Impfzentrum Winterthur",
    "healthcare": "centre",
    "healthcare:speciality": "vaccination",
    "name": "Impfzentrum Winterthur",
    "opening_hours": "Mo-Fr 08:00-18:00",
    "operator": "Kanton Zürich",
    "vaccination": "covid19",
    "website": "https://www.impfzentrumwinterthur.ch/",
    "id": "node/8383564426"
  },
  "geometry": {
    "type": "Point",
    "coordinates": [
      8.7056667,
      47.488121
    ]
  }
},
{
  "type": "Feature",
  "id": "node/8383564428",
  "properties": {
    "addr:city": "Wetzikon",
    "addr:housenumber": "63",
    "addr:postcode": "8620",
    "addr:street": "Rapperswilerstrasse",
    "alt_name": "COVID-19 Impfzentrum Wetzikon",
    "healthcare": "centre",
    "healthcare:speciality": "vaccination",
    "name": "Impfzentrum Wetzikon",
    "opening_hours": "Mo-Fr 10:00-19:00",
    "operator": "Kanton Zürich",
    "vaccination": "covid19",
    "id": "node/8383564428"
  },
  "geometry": {
    "type": "Point",
    "coordinates": [
      8.7993399,
      47.3150279
    ]
  }
},
{
  "type": "Feature",
  "id": "node/8477983050",
  "properties": {
    "addr:city": "Uster",
    "addr:housenumber": "4",
    "addr:postcode": "8610",
    "addr:street": "Hallenbadweg",
    "alt_name": "COVID-19 Impfzentrum Uster",
    "healthcare": "centre",
    "healthcare:speciality": "vaccination",
    "name": "Impfzentrum Uster",
    "opening_hours": "Tu-Sa 14:00-18:30",
    "operator": "Kanton Zürich",
    "vaccination": "covid19",
    "id": "node/8477983050"
  },
  "geometry": {
    "type": "Point",
    "coordinates": [
      8.7256829,
      47.3603902
    ]
  }
},
{
  "type": "Feature",
  "id": "node/8477983051",
  "properties": {
    "addr:city": "Horgen",
    "addr:housenumber": "87",
    "addr:postcode": "8810",
    "addr:street": "Seestrasse",
    "alt_name": "COVID-19 Impfzentrum Horgen",
    "healthcare": "centre",
    "healthcare:speciality": "vaccination",
    "name": "Impfzentrum Horgen",
    "opening_hours": "Mo-Fr 11:00-19:00; We 07:00-13:00; Sa 08:00-13:00",
    "operator": "Kanton Zürich",
    "vaccination": "covid19",
    "id": "node/8477983051"
  },
  "geometry": {
    "type": "Point",
    "coordinates": [
      8.5921404,
      47.2625298
    ]
  }
},
{
  "type": "Feature",
  "id": "node/8477983052",
  "properties": {
    "addr:city": "Bülach",
    "addr:housenumber": "8",
    "addr:postcode": "8180",
    "addr:street": "Allmendstrasse",
    "alt_name": "COVID-19 Impfzentrum Bülach",
    "healthcare": "centre",
    "healthcare:speciality": "vaccination",
    "name": "Impfzentrum Bülach",
    "opening_hours": "Mo-Fr 10:00-13:00,14:00-19:00",
    "operator": "Kanton Zürich",
    "vaccination": "covid19",
    "id": "node/8477983052"
  },
  "geometry": {
    "type": "Point",
    "coordinates": [
      8.5364818,
      47.515593
    ]
  }
},
{
  "type": "Feature",
  "id": "node/8560012338",
  "properties": {
    "addr:city": "Affoltern am Albis",
    "addr:housenumber": "7",
    "addr:postcode": "8910",
    "addr:street": "Obstgartenstrasse",
    "alt_name": "COVID-19 Impfzentrum Affoltern",
    "healthcare": "centre",
    "healthcare:speciality": "vaccination",
    "name": "Impfzentrum Affoltern",
    "opening_hours": "Mo-Fr 08:00-12:00,13:00-17:30",
    "operator": "Kanton Zürich",
    "vaccination": "covid19",
    "id": "node/8560012338"
  },
  "geometry": {
    "type": "Point",
    "coordinates": [
      8.444059,
      47.2745829
    ]
  }
}
]
}
