{
"type": "FeatureCollection",
"features": [
{
  "type": "Feature",
  "id": "node/8310439885",
  "properties": {
    "alt_name": "COVID-19 Impfzentrum Zug",
    "healthcare": "centre",
    "healthcare:speciality": "vaccination",
    "name": "Impfzentrum Baar",
    "operator": "Kantonsspital Zug, Hirslanden Cham",
    "vaccination": "covid19",
    "website": "https://www.corona-impfung-zug.ch/",
    "id": "node/8310439885"
  },
  "geometry": {
    "type": "Point",
    "coordinates": [
      8.5372757,
      47.196268
    ]
  }
},
{
  "type": "Feature",
  "id": "node/8320771141",
  "properties": {
    "addr:city": "Zürich",
    "addr:housenumber": "84",
    "addr:postcode": "8001",
    "addr:street": "Hirschengraben",
    "alt_name": "COVID-19 Impfzentrum Zürich",
    "healthcare": "centre",
    "healthcare:speciality": "vaccination",
    "name": "Corona-Zentrum der Universität Zürich",
    "opening_hours": "Mo-Fr 09:00-17:00",
    "operator": "Universität Zürich",
    "phone": "0800 33 66 55",
    "vaccination": "covid19",
    "website": "https://coronazentrum.uzh.ch/",
    "id": "node/8320771141"
  },
  "geometry": {
    "type": "Point",
    "coordinates": [
      8.545448,
      47.3759572
    ]
  }
},
{
  "type": "Feature",
  "id": "node/8320819660",
  "properties": {
    "addr:city": "Schwyz",
    "addr:housenumber": "10",
    "addr:postcode": "6430",
    "addr:street": "Waldeggstrasse",
    "alt_name": "COVID-19 Impfentrum Schwyz",
    "healthcare": "centre",
    "healthcare:speciality": "vaccination",
    "name": "Impfzentrum Spital Schwyz",
    "phone": "041 818 41 11",
    "vaccination": "covid19",
    "website": "https://www.spital-schwyz.ch",
    "id": "node/8320819660"
  },
  "geometry": {
    "type": "Point",
    "coordinates": [
      8.6595687,
      47.0157115
    ]
  }
},
{
  "type": "Feature",
  "id": "node/8320819661",
  "properties": {
    "addr:city": "Einsiedeln",
    "addr:housenumber": "28",
    "addr:postcode": "8840",
    "addr:street": "Spitalstrasse",
    "alt_name": "COVID-19 Impfentrum Einsiedeln",
    "healthcare": "centre",
    "healthcare:speciality": "vaccination",
    "name": "Impfzentrum Spital Einsiedeln",
    "vaccination": "covid19",
    "website": "https://www.spital-einsiedeln.ch/home",
    "id": "node/8320819661"
  },
  "geometry": {
    "type": "Point",
    "coordinates": [
      8.7391121,
      47.1306871
    ]
  }
},
{
  "type": "Feature",
  "id": "node/8320819662",
  "properties": {
    "addr:city": "Lachen",
    "addr:housenumber": "41",
    "addr:postcode": "8853",
    "addr:street": "Oberdorfstrasse",
    "alt_name": "COVID-19 Impfzentrum Lachen",
    "healthcare": "centre",
    "healthcare:speciality": "vaccination",
    "name": "Impfzentrum Spital Lachen",
    "phone": "+41 41 819 15 95",
    "vaccination": "covid19",
    "website": "https://www.spital-lachen.ch/coronavirus.html",
    "id": "node/8320819662"
  },
  "geometry": {
    "type": "Point",
    "coordinates": [
      8.8589057,
      47.1892207
    ]
  }
},
{
  "type": "Feature",
  "id": "node/8320845110",
  "properties": {
    "addr:city": "Neuhausen am Rheinfall",
    "addr:housenumber": "2",
    "addr:postcode": "8212",
    "addr:street": "Charlottenweg",
    "alt_name": "COVID-19 Impfzentrum Schaffhausen",
    "healthcare": "centre",
    "healthcare:speciality": "vaccination",
    "name": "Kantonales Impfzentrum KIZ",
    "operator": "Kanton Schaffhausen",
    "vaccination": "covid19",
    "website": "https://sh.ch/CMS/Webseite/Kanton-Schaffhausen/Beh-rde/Verwaltung/Departement-des-Innern/Gesundheitsamt-7126057-DE.html",
    "id": "node/8320845110"
  },
  "geometry": {
    "type": "Point",
    "coordinates": [
      8.621357,
      47.6905053
    ]
  }
},
{
  "type": "Feature",
  "id": "node/8382900798",
  "properties": {
    "addr:city": "Zürich",
    "addr:housenumber": "497",
    "addr:postcode": "8063",
    "addr:street": "Birmensdorferstrasse",
    "alt_name": "COVID-19 Impfzentrum Triemli",
    "healthcare": "centre",
    "healthcare:speciality": "vaccination",
    "name": "Impfzentrum Stadtspital Triemli",
    "opening_hours": "Mo-Fr 09:00-18:00",
    "phone": "+41 44 416 11 11",
    "vaccination": "covid19",
    "website": "https://www.stadt-zuerich.ch/triemli/de/index/service/medien/auszeichnungen-news/coronaimpfungen.html",
    "id": "node/8382900798"
  },
  "geometry": {
    "type": "Point",
    "coordinates": [
      8.4976486,
      47.365833
    ]
  }
},
{
  "type": "Feature",
  "id": "node/8382900799",
  "properties": {
    "addr:city": "Zürich",
    "addr:housenumber": "49",
    "addr:postcode": "8050",
    "addr:street": "Wallisellenstrasse",
    "alt_name": "COVID-19 Impfzentrum Messe Zürich",
    "healthcare": "centre",
    "healthcare:speciality": "vaccination",
    "name": "Impfzentrum Messe Zürich",
    "operator": "Kanton Zürich",
    "phone": "+41 44 416 11 11",
    "vaccination": "covid19",
    "website": "https://www.zh.ch/de/news-uebersicht/medienmitteilungen/2021/01/kanton-zuerich-stellt-in-zusammenarbeit-mit-spitaelern-elf-impfzentren-bereit.html",
    "id": "node/8382900799"
  },
  "geometry": {
    "type": "Point",
    "coordinates": [
      8.553368,
      47.4110267
    ]
  }
},
{
  "type": "Feature",
  "id": "node/8383564424",
  "properties": {
    "addr:city": "Meilen",
    "addr:housenumber": "17",
    "addr:postcode": "8706",
    "addr:street": "Schulhausstrasse",
    "alt_name": "COVID-19 Impfzentrum Meilen",
    "healthcare": "centre",
    "healthcare:speciality": "vaccination",
    "name": "Impfzentrum Meilen",
    "opening_hours": "Mo-Fr 10:00-13:00,14:00-19:00",
    "operator": "Kanton Zürich",
    "vaccination": "covid19",
    "id": "node/8383564424"
  },
  "geometry": {
    "type": "Point",
    "coordinates": [
      8.6419997,
      47.2687066
    ]
  }
},
{
  "type": "Feature",
  "id": "node/8383564425",
  "properties": {
    "addr:city": "Dietikon",
    "addr:housenumber": "15",
    "addr:postcode": "8953",
    "addr:street": "Fondlistrasse",
    "alt_name": "COVID-19 Impfzentrum Dietikon",
    "healthcare": "centre",
    "healthcare:speciality": "vaccination",
    "name": "Impfzentrum Dietikon",
    "opening_hours": "Mo-Sa 08:00-12:15,12:45-17:00; Th,Fr 08:00-12:15,12:45-17:00,17:30-19:30",
    "operator": "Kanton Zürich",
    "vaccination": "covid19",
    "id": "node/8383564425"
  },
  "geometry": {
    "type": "Point",
    "coordinates": [
      8.3870356,
      47.4070415
    ]
  }
},
{
  "type": "Feature",
  "id": "node/8383564426",
  "properties": {
    "addr:city": "Winterthur",
    "addr:housenumber": "22",
    "addr:postcode": "8406",
    "addr:street": "Klosterstrasse",
    "alt_name": "COVID-19 Impfzentrum Winterthur",
    "healthcare": "centre",
    "healthcare:speciality": "vaccination",
    "name": "Impfzentrum Winterthur",
    "opening_hours": "Mo-Fr 08:00-18:00",
    "operator": "Kanton Zürich",
    "vaccination": "covid19",
    "website": "https://www.impfzentrumwinterthur.ch/",
    "id": "node/8383564426"
  },
  "geometry": {
    "type": "Point",
    "coordinates": [
      8.705459,
      47.4882153
    ]
  }
},
{
  "type": "Feature",
  "id": "node/8383564428",
  "properties": {
    "addr:city": "Wetzikon",
    "addr:housenumber": "63",
    "addr:postcode": "8620",
    "addr:street": "Rapperswilerstrasse",
    "alt_name": "COVID-19 Impfzentrum Wetzikon",
    "healthcare": "centre",
    "healthcare:speciality": "vaccination",
    "name": "Impfzentrum Wetzikon",
    "opening_hours": "Mo-Fr 10:00-19:00",
    "operator": "Kanton Zürich",
    "vaccination": "covid19",
    "id": "node/8383564428"
  },
  "geometry": {
    "type": "Point",
    "coordinates": [
      8.7993399,
      47.3150279
    ]
  }
},
{
  "type": "Feature",
  "id": "node/8477983050",
  "properties": {
    "addr:city": "Uster",
    "addr:housenumber": "4",
    "addr:postcode": "8610",
    "addr:street": "Hallenbadweg",
    "alt_name": "COVID-19 Impfzentrum Uster",
    "healthcare": "centre",
    "healthcare:speciality": "vaccination",
    "name": "Impfzentrum Uster",
    "opening_hours": "Tu-Sa 14:00-18:30",
    "operator": "Kanton Zürich",
    "vaccination": "covid19",
    "id": "node/8477983050"
  },
  "geometry": {
    "type": "Point",
    "coordinates": [
      8.7256829,
      47.3603902
    ]
  }
},
{
  "type": "Feature",
  "id": "node/8477983051",
  "properties": {
    "addr:city": "Horgen",
    "addr:housenumber": "87",
    "addr:postcode": "8810",
    "addr:street": "Seestrasse",
    "alt_name": "COVID-19 Impfzentrum Horgen",
    "healthcare": "centre",
    "healthcare:speciality": "vaccination",
    "name": "Impfzentrum Horgen",
    "opening_hours": "Mo-Fr 11:00-19:00; We 07:00-13:00; Sa 08:00-13:00",
    "operator": "Kanton Zürich",
    "vaccination": "covid19",
    "id": "node/8477983051"
  },
  "geometry": {
    "type": "Point",
    "coordinates": [
      8.5921404,
      47.2625298
    ]
  }
},
{
  "type": "Feature",
  "id": "node/8477983052",
  "properties": {
    "addr:city": "Bülach",
    "addr:housenumber": "8",
    "addr:postcode": "8180",
    "addr:street": "Allmendstrasse",
    "alt_name": "COVID-19 Impfzentrum Bülach",
    "healthcare": "centre",
    "healthcare:speciality": "vaccination",
    "name": "Impfzentrum Bülach",
    "opening_hours": "Mo-Fr 10:00-13:00,14:00-19:00",
    "operator": "Kanton Zürich",
    "vaccination": "covid19",
    "id": "node/8477983052"
  },
  "geometry": {
    "type": "Point",
    "coordinates": [
      8.5364818,
      47.515593
    ]
  }
},
{
  "type": "Feature",
  "id": "node/8560012338",
  "properties": {
    "addr:city": "Affoltern am Albis",
    "addr:housenumber": "87",
    "addr:postcode": "8910",
    "addr:street": "Obstgartenstrasse",
    "alt_name": "COVID-19 Impfzentrum Affoltern",
    "healthcare": "centre",
    "healthcare:speciality": "vaccination",
    "name": "Impfzentrum Affoltern",
    "opening_hours": "Mo-Fr 08:00-12:00,13:00-17:30",
    "operator": "Kanton Zürich",
    "vaccination": "covid19",
    "id": "node/8560012338"
  },
  "geometry": {
    "type": "Point",
    "coordinates": [
      8.444059,
      47.2745829
    ]
  }
}
]
}
