{
"type": "FeatureCollection",
"features": [
{
  "type": "Feature",
  "id": "way/737021548",
  "properties": {
    "amenity": "childcare",
    "indoor": "room",
    "level": "3",
    "name": "Purzelbaum",
    "operator:type": "private",
    "id": "way/737021548"
  },
  "geometry": {
    "type": "Polygon",
    "coordinates": [
      [
        [
          8.4772685,
          47.1919354
        ],
        [
          8.4771648,
          47.1920738
        ],
        [
          8.4769951,
          47.1920196
        ],
        [
          8.4771027,
          47.1918775
        ],
        [
          8.4771938,
          47.1919093
        ],
        [
          8.4772685,
          47.1919354
        ]
      ]
    ]
  }
},
{
  "type": "Feature",
  "id": "node/4410323554",
  "properties": {
    "age_group": "0-5",
    "amenity": "childcare",
    "level": "0",
    "name": "Kita St채dtli",
    "nursery": "yes",
    "opening_hours": "Mo-Fr 07:00-18:30; PH off",
    "operator": "Verein Kita St채dtli und Schn채ggehuus",
    "operator:type": "private",
    "phone": "+41 77 477 66 54",
    "website": "http://www.kita-staedtli.ch",
    "id": "node/4410323554"
  },
  "geometry": {
    "type": "Point",
    "coordinates": [
      8.4655436,
      47.1836571
    ]
  }
},
{
  "type": "Feature",
  "id": "node/5103296765",
  "properties": {
    "amenity": "childcare",
    "level": "1",
    "name": "globegarden",
    "nursery": "yes",
    "id": "node/5103296765"
  },
  "geometry": {
    "type": "Point",
    "coordinates": [
      8.5181756,
      47.1721833
    ]
  }
},
{
  "type": "Feature",
  "id": "node/5958940488",
  "properties": {
    "amenity": "childcare",
    "name": "Kita Zauberstern",
    "id": "node/5958940488"
  },
  "geometry": {
    "type": "Point",
    "coordinates": [
      8.5190723,
      47.1799476
    ]
  }
},
{
  "type": "Feature",
  "id": "node/8060156608",
  "properties": {
    "addr:city": "H체nenberg",
    "addr:housenumber": "89",
    "addr:postcode": "6333",
    "addr:street": "Luzernerstrasse",
    "amenity": "childcare",
    "contact:facebook": "https://www.facebook.com/kitaennetsee",
    "email": "info@kita-ennetsee.ch",
    "name": "Kita Ennetsee",
    "opening_hours": "Mo-Fr 07:00-18:30",
    "phone": "+41417806415",
    "website": "https://www.kita-ennetsee.ch/",
    "id": "node/8060156608"
  },
  "geometry": {
    "type": "Point",
    "coordinates": [
      8.4502549,
      47.1743967
    ]
  }
},
{
  "type": "Feature",
  "id": "node/8446939409",
  "properties": {
    "amenity": "childcare",
    "name": "Kita Little Friends",
    "id": "node/8446939409"
  },
  "geometry": {
    "type": "Point",
    "coordinates": [
      8.4866857,
      47.1973565
    ]
  }
}
]
}
