{
"type": "FeatureCollection",
"features": [
{
  "type": "Feature",
  "id": "node/9418104500",
  "properties": {
    "addr:city": "Zug",
    "addr:housenumber": "41",
    "addr:postcode": "6300",
    "addr:street": "Riedmatt",
    "description": "Notfalltreffpunkt Stadt Zug",
    "emergency": "disaster_help_point",
    "location": "Schulhaus Riedmatt",
    "name": "Schulhaus Riedmatt",
    "id": "node/9418104500"
  },
  "geometry": {
    "type": "Point",
    "coordinates": [
      8.4891593,
      47.1824428
    ]
  }
},
{
  "type": "Feature",
  "id": "node/9418104501",
  "properties": {
    "addr:city": "Zug",
    "addr:housenumber": "36",
    "addr:postcode": "6300",
    "addr:street": "St.Johannesstrasse",
    "description": "Notfalltreffpunkt Stadt Zug",
    "emergency": "disaster_help_point",
    "location": "Schulhaus Herti",
    "name": "Schulhaus Herti",
    "id": "node/9418104501"
  },
  "geometry": {
    "type": "Point",
    "coordinates": [
      8.5034418,
      47.1814831
    ]
  }
},
{
  "type": "Feature",
  "id": "node/9418104502",
  "properties": {
    "addr:city": "Zug",
    "addr:housenumber": "2",
    "addr:postcode": "6300",
    "addr:street": "Bundesstrasse",
    "description": "Notfalltreffpunkt Stadt Zug",
    "emergency": "disaster_help_point",
    "location": "Musikschule",
    "name": "Musikschule",
    "id": "node/9418104502"
  },
  "geometry": {
    "type": "Point",
    "coordinates": [
      8.5131497,
      47.1719226
    ]
  }
},
{
  "type": "Feature",
  "id": "node/9418104503",
  "properties": {
    "addr:city": "Zug",
    "addr:housenumber": "2",
    "addr:postcode": "6300",
    "addr:street": "Mattenstrasse",
    "description": "Notfalltreffpunkt Stadt Zug",
    "emergency": "disaster_help_point",
    "location": "Schulhaus Guthirt",
    "name": "Schulhaus Guthirt",
    "id": "node/9418104503"
  },
  "geometry": {
    "type": "Point",
    "coordinates": [
      8.5193342,
      47.1777228
    ]
  }
},
{
  "type": "Feature",
  "id": "node/9418104504",
  "properties": {
    "addr:city": "Zug",
    "addr:housenumber": "40",
    "addr:postcode": "6300",
    "addr:street": "LÃ¶berenstrasse",
    "description": "Notfalltreffpunkt Stadt Zug",
    "emergency": "disaster_help_point",
    "location": "Turnhalle",
    "name": "Schulhaus Loreto",
    "id": "node/9418104504"
  },
  "geometry": {
    "type": "Point",
    "coordinates": [
      8.5241112,
      47.1710952
    ]
  }
},
{
  "type": "Feature",
  "id": "node/9418104505",
  "properties": {
    "addr:city": "Zug",
    "addr:housenumber": "3",
    "addr:postcode": "6300",
    "addr:street": "Sankt Oswaldsgasse",
    "description": "Notfalltreffpunkt Stadt Zug",
    "emergency": "disaster_help_point",
    "location": "Schulhaus Burgbach",
    "name": "Schulhaus Burgbach",
    "id": "node/9418104505"
  },
  "geometry": {
    "type": "Point",
    "coordinates": [
      8.5165474,
      47.1657588
    ]
  }
},
{
  "type": "Feature",
  "id": "node/9418104506",
  "properties": {
    "addr:city": "Zugerberg",
    "addr:postcode": "6300",
    "addr:street": "Artherstrasse",
    "description": "Notfalltreffpunkt Stadt Zugerberg",
    "emergency": "disaster_help_point",
    "location": "Feuerwehrdepot",
    "name": "Feuerwehrdepot",
    "id": "node/9418104506"
  },
  "geometry": {
    "type": "Point",
    "coordinates": [
      8.5370073,
      47.1440154
    ]
  }
},
{
  "type": "Feature",
  "id": "node/9418104507",
  "properties": {
    "addr:city": "Oberwil",
    "addr:housenumber": "101",
    "addr:postcode": "6317",
    "addr:street": "Artherstrasse",
    "description": "Notfalltreffpunkt Stadt Oberwil",
    "emergency": "disaster_help_point",
    "location": "Schulhaus",
    "name": "Schulhaus",
    "id": "node/9418104507"
  },
  "geometry": {
    "type": "Point",
    "coordinates": [
      8.5081484,
      47.1493091
    ]
  }
}
]
}
