{
"type": "FeatureCollection",
"features": [
{
  "type": "Feature",
  "id": "node/9417226658",
  "properties": {
    "addr:city": "Zürich",
    "addr:housenumber": "300",
    "addr:postcode": "8051",
    "addr:street": "Dübendorfstrasse",
    "description": "Turnhalle Schulhaus Mattenhof",
    "emergency": "disaster_help_point",
    "name": "Notfalltreffpunkt RFO/GFO Kanton Zürich",
    "id": "node/9417226658"
  },
  "geometry": {
    "type": "Point",
    "coordinates": [
      8.5883244,
      47.3988197
    ]
  }
},
{
  "type": "Feature",
  "id": "node/9417226659",
  "properties": {
    "addr:city": "Zürich",
    "addr:housenumber": "86",
    "addr:postcode": "8051",
    "addr:street": "Glattwiesenstrasse",
    "description": "Turnhalle Schulhaus Luchwiesen",
    "emergency": "disaster_help_point",
    "name": "Notfalltreffpunkt RFO/GFO Kanton Zürich",
    "id": "node/9417226659"
  },
  "geometry": {
    "type": "Point",
    "coordinates": [
      8.5827266,
      47.4040385
    ]
  }
},
{
  "type": "Feature",
  "id": "node/9417226660",
  "properties": {
    "addr:city": "Zürich",
    "addr:housenumber": "12",
    "addr:postcode": "8051",
    "addr:street": "Ahornstrasse",
    "description": "Turnhalle Schulhaus Ahorn",
    "emergency": "disaster_help_point",
    "name": "Notfalltreffpunkt RFO/GFO Kanton Zürich",
    "id": "node/9417226660"
  },
  "geometry": {
    "type": "Point",
    "coordinates": [
      8.5656174,
      47.4044585
    ]
  }
},
{
  "type": "Feature",
  "id": "node/9417226661",
  "properties": {
    "addr:city": "Zürich",
    "addr:housenumber": "53",
    "addr:postcode": "8051",
    "addr:street": "Herzogenmühlestrasse",
    "description": "Turnhalle Auhof",
    "emergency": "disaster_help_point",
    "name": "Notfalltreffpunkt RFO/GFO Kanton Zürich",
    "id": "node/9417226661"
  },
  "geometry": {
    "type": "Point",
    "coordinates": [
      8.5720694,
      47.4075188
    ]
  }
},
{
  "type": "Feature",
  "id": "node/9417226662",
  "properties": {
    "addr:city": "Zürich",
    "addr:housenumber": "208",
    "addr:postcode": "8050",
    "addr:street": "Tramstrasse",
    "description": "Turnhalle Schulhaus Saatlen",
    "emergency": "disaster_help_point",
    "name": "Notfalltreffpunkt RFO/GFO Kanton Zürich",
    "id": "node/9417226662"
  },
  "geometry": {
    "type": "Point",
    "coordinates": [
      8.5629473,
      47.4085233
    ]
  }
},
{
  "type": "Feature",
  "id": "node/9417226663",
  "properties": {
    "addr:city": "Zürich",
    "addr:housenumber": "20",
    "addr:postcode": "8057",
    "addr:street": "Ligusterstrasse",
    "description": "Turnhalle Schulhaus Liguster",
    "emergency": "disaster_help_point",
    "name": "Notfalltreffpunkt RFO/GFO Kanton Zürich",
    "id": "node/9417226663"
  },
  "geometry": {
    "type": "Point",
    "coordinates": [
      8.5442638,
      47.4065807
    ]
  }
},
{
  "type": "Feature",
  "id": "node/9417226664",
  "properties": {
    "addr:city": "Zürich",
    "addr:housenumber": "57",
    "addr:postcode": "8052",
    "addr:street": "Himmeristrasse",
    "description": "Turnhalle Schulhaus Saudenbühl",
    "emergency": "disaster_help_point",
    "name": "Notfalltreffpunkt RFO/GFO Kanton Zürich",
    "id": "node/9417226664"
  },
  "geometry": {
    "type": "Point",
    "coordinates": [
      8.5355633,
      47.4190317
    ]
  }
},
{
  "type": "Feature",
  "id": "node/9417226665",
  "properties": {
    "addr:city": "Zürich",
    "addr:housenumber": "71",
    "addr:postcode": "8052",
    "addr:street": "Sperletweg",
    "description": "Turnhalle Schulhaus Kolbenacker",
    "emergency": "disaster_help_point",
    "name": "Notfalltreffpunkt RFO/GFO Kanton Zürich",
    "id": "node/9417226665"
  },
  "geometry": {
    "type": "Point",
    "coordinates": [
      8.5514455,
      47.4262559
    ]
  }
},
{
  "type": "Feature",
  "id": "node/9417226666",
  "properties": {
    "addr:city": "Zürich",
    "addr:housenumber": "9/11",
    "addr:postcode": "8050",
    "addr:street": "Maienstrasse",
    "description": "Turnhalle Schulhaus Kügeliloo",
    "emergency": "disaster_help_point",
    "name": "Notfalltreffpunkt RFO/GFO Kanton Zürich",
    "id": "node/9417226666"
  },
  "geometry": {
    "type": "Point",
    "coordinates": [
      8.5286315,
      47.410588
    ]
  }
},
{
  "type": "Feature",
  "id": "node/9417226667",
  "properties": {
    "addr:city": "Zürich",
    "addr:housenumber": "563",
    "addr:postcode": "8046",
    "addr:street": "Wehntalerstrasse",
    "description": "Turnhalle Schulhaus Holderbach",
    "emergency": "disaster_help_point",
    "name": "Notfalltreffpunkt RFO/GFO Kanton Zürich",
    "id": "node/9417226667"
  },
  "geometry": {
    "type": "Point",
    "coordinates": [
      8.5045005,
      47.4191334
    ]
  }
},
{
  "type": "Feature",
  "id": "node/9417226668",
  "properties": {
    "addr:city": "Zürich",
    "addr:housenumber": "3",
    "addr:postcode": "8046",
    "addr:street": "Wolfswinkel",
    "description": "Turnhalle Schulhaus Im Isengrind",
    "emergency": "disaster_help_point",
    "name": "Notfalltreffpunkt RFO/GFO Kanton Zürich",
    "id": "node/9417226668"
  },
  "geometry": {
    "type": "Point",
    "coordinates": [
      8.5142821,
      47.4231175
    ]
  }
},
{
  "type": "Feature",
  "id": "node/9417226669",
  "properties": {
    "addr:city": "Zürich",
    "addr:housenumber": "65",
    "addr:postcode": "8046",
    "addr:street": "Blumenfeldstrasse",
    "description": "Turnhalle Schulhaus Ruggächer",
    "emergency": "disaster_help_point",
    "name": "Notfalltreffpunkt RFO/GFO Kanton Zürich",
    "id": "node/9417226669"
  },
  "geometry": {
    "type": "Point",
    "coordinates": [
      8.5041318,
      47.4245518
    ]
  }
},
{
  "type": "Feature",
  "id": "node/9417226670",
  "properties": {
    "addr:city": "Zürich",
    "addr:housenumber": "55a",
    "addr:postcode": "8049",
    "addr:street": "Am Wasser",
    "description": "Turnhalle Schulhaus Am Wasser",
    "emergency": "disaster_help_point",
    "name": "Notfalltreffpunkt RFO/GFO Kanton Zürich",
    "id": "node/9417226670"
  },
  "geometry": {
    "type": "Point",
    "coordinates": [
      8.5048142,
      47.3957435
    ]
  }
},
{
  "type": "Feature",
  "id": "node/9417226671",
  "properties": {
    "addr:city": "Zürich",
    "addr:housenumber": "7",
    "addr:postcode": "8037",
    "addr:street": "Weihersteig",
    "description": "Turnhalle Schulhaus Waidhalde",
    "emergency": "disaster_help_point",
    "name": "Notfalltreffpunkt RFO/GFO Kanton Zürich",
    "id": "node/9417226671"
  },
  "geometry": {
    "type": "Point",
    "coordinates": [
      8.5265556,
      47.397187
    ]
  }
},
{
  "type": "Feature",
  "id": "node/9417226672",
  "properties": {
    "addr:city": "Zürich",
    "addr:housenumber": "23",
    "addr:postcode": "8049",
    "addr:street": "Ferdinand Hodler-Strasse",
    "description": "Turnhalle Schulhaus Vogtsrain",
    "emergency": "disaster_help_point",
    "name": "Notfalltreffpunkt RFO/GFO Kanton Zürich",
    "id": "node/9417226672"
  },
  "geometry": {
    "type": "Point",
    "coordinates": [
      8.4991545,
      47.4042329
    ]
  }
},
{
  "type": "Feature",
  "id": "node/9417226673",
  "properties": {
    "addr:city": "Zürich",
    "addr:housenumber": "61",
    "addr:postcode": "8049",
    "addr:street": "Giblenstrasse",
    "description": "Turnhalle Schulhaus Rütihof",
    "emergency": "disaster_help_point",
    "name": "Notfalltreffpunkt RFO/GFO Kanton Zürich",
    "id": "node/9417226673"
  },
  "geometry": {
    "type": "Point",
    "coordinates": [
      8.479038,
      47.4121514
    ]
  }
},
{
  "type": "Feature",
  "id": "node/9417226674",
  "properties": {
    "addr:city": "Zürich",
    "addr:housenumber": "60",
    "addr:postcode": "8047",
    "addr:street": "Espenhofweg",
    "description": "Turnhalle Schulhaus Letzi",
    "emergency": "disaster_help_point",
    "name": "Notfalltreffpunkt RFO/GFO Kanton Zürich",
    "id": "node/9417226674"
  },
  "geometry": {
    "type": "Point",
    "coordinates": [
      8.496899,
      47.3713947
    ]
  }
},
{
  "type": "Feature",
  "id": "node/9417226675",
  "properties": {
    "addr:city": "Zürich",
    "addr:housenumber": "45",
    "addr:postcode": "8047",
    "addr:street": "Triemlistrasse",
    "description": "Turnhalle Schulhaus Triemli",
    "emergency": "disaster_help_point",
    "name": "Notfalltreffpunkt RFO/GFO Kanton Zürich",
    "id": "node/9417226675"
  },
  "geometry": {
    "type": "Point",
    "coordinates": [
      8.4875747,
      47.3726041
    ]
  }
},
{
  "type": "Feature",
  "id": "node/9417226676",
  "properties": {
    "addr:city": "Zürich",
    "addr:housenumber": "203",
    "addr:postcode": "8048",
    "addr:street": "Rautistrasse",
    "description": "Turnhalle Schulhaus Buchlern",
    "emergency": "disaster_help_point",
    "name": "Notfalltreffpunkt RFO/GFO Kanton Zürich",
    "id": "node/9417226676"
  },
  "geometry": {
    "type": "Point",
    "coordinates": [
      8.4787533,
      47.3839997
    ]
  }
},
{
  "type": "Feature",
  "id": "node/9417226677",
  "properties": {
    "addr:city": "Zürich",
    "addr:housenumber": "150",
    "addr:postcode": "8048",
    "addr:street": "Eugen-Huber-Strasse",
    "description": "Turnhalle Schulhaus Chriesiweg",
    "emergency": "disaster_help_point",
    "name": "Notfalltreffpunkt RFO/GFO Kanton Zürich",
    "id": "node/9417226677"
  },
  "geometry": {
    "type": "Point",
    "coordinates": [
      8.4731165,
      47.3890425
    ]
  }
},
{
  "type": "Feature",
  "id": "node/9417226678",
  "properties": {
    "addr:city": "Zürich",
    "addr:housenumber": "724",
    "addr:postcode": "8048",
    "addr:street": "Badenerstrasse",
    "description": "Turnhalle Schulhaus Im Herrlig",
    "emergency": "disaster_help_point",
    "name": "Notfalltreffpunkt RFO/GFO Kanton Zürich",
    "id": "node/9417226678"
  },
  "geometry": {
    "type": "Point",
    "coordinates": [
      8.4815174,
      47.3898935
    ]
  }
},
{
  "type": "Feature",
  "id": "node/9417226679",
  "properties": {
    "addr:city": "Zürich",
    "addr:housenumber": "131",
    "addr:postcode": "8034",
    "addr:street": "Seefeldstrasse",
    "description": "Turnhalle Schulhaus Seefeld",
    "emergency": "disaster_help_point",
    "name": "Notfalltreffpunkt RFO/GFO Kanton Zürich",
    "id": "node/9417226679"
  },
  "geometry": {
    "type": "Point",
    "coordinates": [
      8.5562167,
      47.3573972
    ]
  }
},
{
  "type": "Feature",
  "id": "node/9417226680",
  "properties": {
    "addr:city": "Zürich",
    "addr:housenumber": "71",
    "addr:postcode": "8008",
    "addr:street": "Mühlebachstrasse",
    "description": "Turnhalle Schulhaus Mühlebach",
    "emergency": "disaster_help_point",
    "name": "Notfalltreffpunkt RFO/GFO Kanton Zürich",
    "id": "node/9417226680"
  },
  "geometry": {
    "type": "Point",
    "coordinates": [
      8.5539836,
      47.362654
    ]
  }
},
{
  "type": "Feature",
  "id": "node/9417226681",
  "properties": {
    "addr:city": "Zürich",
    "addr:housenumber": "17",
    "addr:postcode": "8053",
    "addr:street": "Katzenschwanzstrasse",
    "description": "Turnhalle Schulhaus Looren",
    "emergency": "disaster_help_point",
    "name": "Notfalltreffpunkt RFO/GFO Kanton Zürich",
    "id": "node/9417226681"
  },
  "geometry": {
    "type": "Point",
    "coordinates": [
      8.5967955,
      47.361297
    ]
  }
},
{
  "type": "Feature",
  "id": "node/9417226682",
  "properties": {
    "addr:city": "Zürich",
    "addr:housenumber": "55",
    "addr:postcode": "8008",
    "addr:street": "Balgriststrasse",
    "description": "Turnhalle Schulhaus Balgrist",
    "emergency": "disaster_help_point",
    "name": "Notfalltreffpunkt RFO/GFO Kanton Zürich",
    "id": "node/9417226682"
  },
  "geometry": {
    "type": "Point",
    "coordinates": [
      8.5777136,
      47.3542457
    ]
  }
},
{
  "type": "Feature",
  "id": "node/9417226683",
  "properties": {
    "addr:city": "Zürich",
    "addr:housenumber": "19",
    "addr:postcode": "8053",
    "addr:street": "Heilighüsli",
    "description": "Turnhalle Schulhaus Langmatt",
    "emergency": "disaster_help_point",
    "name": "Notfalltreffpunkt RFO/GFO Kanton Zürich",
    "id": "node/9417226683"
  },
  "geometry": {
    "type": "Point",
    "coordinates": [
      8.5873144,
      47.3568941
    ]
  }
},
{
  "type": "Feature",
  "id": "node/9417226684",
  "properties": {
    "addr:city": "Zürich",
    "addr:housenumber": "118",
    "addr:postcode": "8044",
    "addr:street": "Hochstrasse",
    "description": "Turnhalle Schulhaus Fluntern",
    "emergency": "disaster_help_point",
    "name": "Notfalltreffpunkt RFO/GFO Kanton Zürich",
    "id": "node/9417226684"
  },
  "geometry": {
    "type": "Point",
    "coordinates": [
      8.5584177,
      47.3764727
    ]
  }
},
{
  "type": "Feature",
  "id": "node/9417226685",
  "properties": {
    "addr:city": "Zürich",
    "addr:housenumber": "54",
    "addr:postcode": "8006",
    "addr:street": "Stapferstrasse",
    "description": "Turnhalle Schulhaus Scherr/Stapfer",
    "emergency": "disaster_help_point",
    "name": "Notfalltreffpunkt RFO/GFO Kanton Zürich",
    "id": "node/9417226685"
  },
  "geometry": {
    "type": "Point",
    "coordinates": [
      8.5466169,
      47.3846641
    ]
  }
},
{
  "type": "Feature",
  "id": "node/9417226686",
  "properties": {
    "addr:city": "Zürich",
    "addr:housenumber": "14",
    "addr:postcode": "8006",
    "addr:street": "Röslistrasse",
    "description": "Turnhalle Schulhaus Rösli",
    "emergency": "disaster_help_point",
    "name": "Notfalltreffpunkt RFO/GFO Kanton Zürich",
    "id": "node/9417226686"
  },
  "geometry": {
    "type": "Point",
    "coordinates": [
      8.541951,
      47.3883158
    ]
  }
},
{
  "type": "Feature",
  "id": "node/9417226687",
  "properties": {
    "addr:city": "Zürich",
    "addr:housenumber": "25",
    "addr:postcode": "8057",
    "addr:street": "Schürbungert",
    "description": "Turnhalle Schulhaus Allenmoos",
    "emergency": "disaster_help_point",
    "name": "Notfalltreffpunkt RFO/GFO Kanton Zürich",
    "id": "node/9417226687"
  },
  "geometry": {
    "type": "Point",
    "coordinates": [
      8.5393824,
      47.4024715
    ]
  }
},
{
  "type": "Feature",
  "id": "node/9417226688",
  "properties": {
    "addr:city": "Zürich",
    "addr:housenumber": "43",
    "addr:postcode": "8037",
    "addr:street": "Rousseaustrasse",
    "description": "Turnhalle Schulhaus Letten",
    "emergency": "disaster_help_point",
    "name": "Notfalltreffpunkt RFO/GFO Kanton Zürich",
    "id": "node/9417226688"
  },
  "geometry": {
    "type": "Point",
    "coordinates": [
      8.5328555,
      47.3891579
    ]
  }
},
{
  "type": "Feature",
  "id": "node/9417226689",
  "properties": {
    "addr:city": "Zürich",
    "addr:housenumber": "11",
    "addr:postcode": "8057",
    "addr:street": "Guggachstrasse",
    "description": "Turnhalle Schulhaus Milchbuck",
    "emergency": "disaster_help_point",
    "name": "Notfalltreffpunkt RFO/GFO Kanton Zürich",
    "id": "node/9417226689"
  },
  "geometry": {
    "type": "Point",
    "coordinates": [
      8.5375837,
      47.3962011
    ]
  }
},
{
  "type": "Feature",
  "id": "node/9417226690",
  "properties": {
    "addr:city": "Zürich",
    "addr:housenumber": "270",
    "addr:postcode": "8037",
    "addr:street": "Nordstrasse",
    "description": "Turnhalle Schulhaus Noprdstrasse",
    "emergency": "disaster_help_point",
    "name": "Notfalltreffpunkt RFO/GFO Kanton Zürich",
    "id": "node/9417226690"
  },
  "geometry": {
    "type": "Point",
    "coordinates": [
      8.5261516,
      47.394915
    ]
  }
},
{
  "type": "Feature",
  "id": "node/9417226691",
  "properties": {
    "addr:city": "Zürich",
    "addr:housenumber": "107",
    "addr:postcode": "8055",
    "addr:street": "Gutstrasse",
    "description": "Turnhalle Schulhaus Im Gut",
    "emergency": "disaster_help_point",
    "name": "Notfalltreffpunkt RFO/GFO Kanton Zürich",
    "id": "node/9417226691"
  },
  "geometry": {
    "type": "Point",
    "coordinates": [
      8.5036775,
      47.3713504
    ]
  }
},
{
  "type": "Feature",
  "id": "node/9417226692",
  "properties": {
    "addr:city": "Zürich",
    "addr:housenumber": "61",
    "addr:postcode": "8005",
    "addr:street": "Pfingstweidstrasse",
    "description": "Turnhalle Schulhaus Pfingstweid",
    "emergency": "disaster_help_point",
    "name": "Notfalltreffpunkt RFO/GFO Kanton Zürich",
    "id": "node/9417226692"
  },
  "geometry": {
    "type": "Point",
    "coordinates": [
      8.5136587,
      47.3889513
    ]
  }
},
{
  "type": "Feature",
  "id": "node/9417226693",
  "properties": {
    "addr:city": "Zürich",
    "addr:housenumber": "201",
    "addr:postcode": "8045",
    "addr:street": "Schweighofstrasse",
    "description": "Turnhalle Schulhaus Friesenberg",
    "emergency": "disaster_help_point",
    "name": "Notfalltreffpunkt RFO/GFO Kanton Zürich",
    "id": "node/9417226693"
  },
  "geometry": {
    "type": "Point",
    "coordinates": [
      8.5058727,
      47.3593037
    ]
  }
},
{
  "type": "Feature",
  "id": "node/9417226694",
  "properties": {
    "addr:city": "Zürich",
    "addr:housenumber": "29",
    "addr:postcode": "8003",
    "addr:street": "Aegertenstrasse",
    "description": "Turnhalle Schulhaus Aegerten",
    "emergency": "disaster_help_point",
    "name": "Notfalltreffpunkt RFO/GFO Kanton Zürich",
    "id": "node/9417226694"
  },
  "geometry": {
    "type": "Point",
    "coordinates": [
      8.5224821,
      47.3688637
    ]
  }
},
{
  "type": "Feature",
  "id": "node/9417226695",
  "properties": {
    "addr:city": "Zürich",
    "addr:housenumber": "111",
    "addr:postcode": "8045",
    "addr:street": "Bachtobelstrasse",
    "description": "Turnhalle Schulhaus Bachtobel",
    "emergency": "disaster_help_point",
    "name": "Notfalltreffpunkt RFO/GFO Kanton Zürich",
    "id": "node/9417226695"
  },
  "geometry": {
    "type": "Point",
    "coordinates": [
      8.5111533,
      47.3585801
    ]
  }
},
{
  "type": "Feature",
  "id": "node/9417226696",
  "properties": {
    "addr:city": "Zürich",
    "addr:housenumber": "66",
    "addr:postcode": "8055",
    "addr:street": "Küngenmatt",
    "description": "Turnhalle Schulhaus Küngenmatt",
    "emergency": "disaster_help_point",
    "name": "Notfalltreffpunkt RFO/GFO Kanton Zürich",
    "id": "node/9417226696"
  },
  "geometry": {
    "type": "Point",
    "coordinates": [
      8.5030053,
      47.3681903
    ]
  }
},
{
  "type": "Feature",
  "id": "node/9417226698",
  "properties": {
    "addr:city": "Zürich",
    "addr:housenumber": "40",
    "addr:postcode": "8041",
    "addr:street": "Wegackerstrasse",
    "description": "Turnhalle Schulhaus Leimbach",
    "emergency": "disaster_help_point",
    "name": "Notfalltreffpunkt RFO/GFO Kanton Zürich",
    "id": "node/9417226698"
  },
  "geometry": {
    "type": "Point",
    "coordinates": [
      8.5163314,
      47.3334202
    ]
  }
},
{
  "type": "Feature",
  "id": "node/9417226699",
  "properties": {
    "addr:city": "Zürich",
    "addr:housenumber": "10",
    "addr:postcode": "8038",
    "addr:street": "Tannenrauchstrasse",
    "description": "Turnhalle Schulhaus Manegg",
    "emergency": "disaster_help_point",
    "name": "Notfalltreffpunkt RFO/GFO Kanton Zürich",
    "id": "node/9417226699"
  },
  "geometry": {
    "type": "Point",
    "coordinates": [
      8.5268314,
      47.3482979
    ]
  }
},
{
  "type": "Feature",
  "id": "node/9417226700",
  "properties": {
    "addr:city": "Zürich",
    "addr:housenumber": "21",
    "addr:postcode": "8002",
    "addr:street": "Schulhausstrasse",
    "description": "Turnhalle Schulhaus Gabler",
    "emergency": "disaster_help_point",
    "name": "Notfalltreffpunkt RFO/GFO Kanton Zürich",
    "id": "node/9417226700"
  },
  "geometry": {
    "type": "Point",
    "coordinates": [
      8.5305152,
      47.3602697
    ]
  }
},
{
  "type": "Feature",
  "id": "node/9417226701",
  "properties": {
    "addr:city": "Zwillikon",
    "addr:housenumber": "1",
    "addr:postcode": "8909",
    "addr:street": "Langacherstrasse",
    "description": "Schulhaus Zwillikon",
    "emergency": "disaster_help_point",
    "name": "Notfalltreffpunkt RFO/GFO Kanton Zürich",
    "id": "node/9417226701"
  },
  "geometry": {
    "type": "Point",
    "coordinates": [
      8.429966,
      47.2866431
    ]
  }
},
{
  "type": "Feature",
  "id": "node/9417226702",
  "properties": {
    "addr:city": "Zumikon",
    "addr:housenumber": "45",
    "addr:postcode": "8126",
    "addr:street": "Dorfstrasse",
    "description": "Dreifach-Turnhalle \"Farlifang\"",
    "emergency": "disaster_help_point",
    "name": "Notfalltreffpunkt RFO/GFO Kanton Zürich",
    "id": "node/9417226702"
  },
  "geometry": {
    "type": "Point",
    "coordinates": [
      8.6230397,
      47.3335141
    ]
  }
},
{
  "type": "Feature",
  "id": "node/9417226703",
  "properties": {
    "addr:city": "Zollikon",
    "addr:housenumber": "96",
    "addr:postcode": "8702",
    "addr:street": "Rotfluhstrasse",
    "description": "Gemeindesaal",
    "emergency": "disaster_help_point",
    "name": "Notfalltreffpunkt RFO/GFO Kanton Zürich",
    "id": "node/9417226703"
  },
  "geometry": {
    "type": "Point",
    "coordinates": [
      8.5757551,
      47.3381365
    ]
  }
},
{
  "type": "Feature",
  "id": "node/9417226704",
  "properties": {
    "addr:city": "Zollikerberg",
    "addr:housenumber": "6",
    "addr:postcode": "8125",
    "addr:street": "Schulweg",
    "description": "Schulhaus Rüterwis",
    "emergency": "disaster_help_point",
    "name": "Notfalltreffpunkt RFO/GFO Kanton Zürich",
    "id": "node/9417226704"
  },
  "geometry": {
    "type": "Point",
    "coordinates": [
      8.6030646,
      47.3452583
    ]
  }
},
{
  "type": "Feature",
  "id": "node/9417226705",
  "properties": {
    "addr:city": "Zell",
    "addr:housenumber": "26",
    "addr:postcode": "8487",
    "addr:street": "Stationsstrasse",
    "description": "Primarschulhaus Zell",
    "emergency": "disaster_help_point",
    "name": "Notfalltreffpunkt RFO/GFO Kanton Zürich",
    "id": "node/9417226705"
  },
  "geometry": {
    "type": "Point",
    "coordinates": [
      8.8217484,
      47.445323
    ]
  }
},
{
  "type": "Feature",
  "id": "node/9417226706",
  "properties": {
    "addr:city": "Wolfhausen",
    "addr:housenumber": "11",
    "addr:postcode": "8633",
    "addr:street": "Schulstrasse",
    "description": "Mehrzweckraum Geissbergsaal",
    "emergency": "disaster_help_point",
    "name": "Notfalltreffpunkt RFO/GFO Kanton Zürich",
    "id": "node/9417226706"
  },
  "geometry": {
    "type": "Point",
    "coordinates": [
      8.8044779,
      47.2570239
    ]
  }
},
{
  "type": "Feature",
  "id": "node/9417226707",
  "properties": {
    "addr:city": "Winterberg ZH",
    "addr:housenumber": "16",
    "addr:postcode": "8312",
    "addr:street": "Poststrasse",
    "description": "Seniorenzentrum",
    "emergency": "disaster_help_point",
    "name": "Notfalltreffpunkt RFO/GFO Kanton Zürich",
    "id": "node/9417226707"
  },
  "geometry": {
    "type": "Point",
    "coordinates": [
      8.6934429,
      47.4559524
    ]
  }
},
{
  "type": "Feature",
  "id": "node/9417226708",
  "properties": {
    "addr:city": "Winkel",
    "addr:housenumber": "15",
    "addr:postcode": "8185",
    "addr:street": "Hungerbüelstrasse",
    "description": "Schulanlage Grossacher",
    "emergency": "disaster_help_point",
    "name": "Notfalltreffpunkt RFO/GFO Kanton Zürich",
    "id": "node/9417226708"
  },
  "geometry": {
    "type": "Point",
    "coordinates": [
      8.5579026,
      47.487521
    ]
  }
},
{
  "type": "Feature",
  "id": "node/9417226709",
  "properties": {
    "addr:city": "Wil-ZH",
    "addr:housenumber": "15",
    "addr:postcode": "8196",
    "addr:street": "Langgass",
    "description": "Buchenloo",
    "emergency": "disaster_help_point",
    "name": "Notfalltreffpunkt RFO/GFO Kanton Zürich",
    "id": "node/9417226709"
  },
  "geometry": {
    "type": "Point",
    "coordinates": [
      8.4925786,
      47.6129514
    ]
  }
},
{
  "type": "Feature",
  "id": "node/9417226710",
  "properties": {
    "addr:city": "Wil-ZH",
    "addr:postcode": "8196",
    "addr:street": "Hüslihof",
    "description": "Schwimmbad",
    "emergency": "disaster_help_point",
    "name": "Notfalltreffpunkt RFO/GFO Kanton Zürich",
    "id": "node/9417226710"
  },
  "geometry": {
    "type": "Point",
    "coordinates": [
      8.5252362,
      47.6111391
    ]
  }
},
{
  "type": "Feature",
  "id": "node/9417226711",
  "properties": {
    "addr:city": "Wil-ZH",
    "addr:housenumber": "15a",
    "addr:postcode": "8196",
    "addr:street": "Dorfstrasse",
    "description": "Gemeindehaus",
    "emergency": "disaster_help_point",
    "name": "Notfalltreffpunkt RFO/GFO Kanton Zürich",
    "id": "node/9417226711"
  },
  "geometry": {
    "type": "Point",
    "coordinates": [
      8.5079755,
      47.6053902
    ]
  }
},
{
  "type": "Feature",
  "id": "node/9417226712",
  "properties": {
    "addr:city": "Wil-ZH",
    "addr:housenumber": "16",
    "addr:postcode": "8196",
    "addr:street": "Schützenhausstrasse",
    "description": "Schulhaus Landbüel",
    "emergency": "disaster_help_point",
    "name": "Notfalltreffpunkt RFO/GFO Kanton Zürich",
    "id": "node/9417226712"
  },
  "geometry": {
    "type": "Point",
    "coordinates": [
      8.5070479,
      47.5996153
    ]
  }
},
{
  "type": "Feature",
  "id": "node/9417226713",
  "properties": {
    "addr:city": "Wildberg",
    "addr:housenumber": "18",
    "addr:postcode": "8489",
    "addr:street": "Schulhausstrasse",
    "description": "Turnhalle",
    "emergency": "disaster_help_point",
    "name": "Notfalltreffpunkt RFO/GFO Kanton Zürich",
    "id": "node/9417226713"
  },
  "geometry": {
    "type": "Point",
    "coordinates": [
      8.8162664,
      47.4246179
    ]
  }
},
{
  "type": "Feature",
  "id": "node/9417226714",
  "properties": {
    "addr:city": "Wila",
    "addr:housenumber": "23",
    "addr:postcode": "8492",
    "addr:street": "Eichhaldenstrasse",
    "description": "Schulhaus mit Gemeindesaal und Turnhalle",
    "emergency": "disaster_help_point",
    "name": "Notfalltreffpunkt RFO/GFO Kanton Zürich",
    "id": "node/9417226714"
  },
  "geometry": {
    "type": "Point",
    "coordinates": [
      8.8431941,
      47.4208485
    ]
  }
},
{
  "type": "Feature",
  "id": "node/9417226715",
  "properties": {
    "addr:city": "Wiesendangen",
    "addr:housenumber": "9",
    "addr:postcode": "8542",
    "addr:street": "Trottenstrasse",
    "description": "Feuerwehrgeäbude",
    "emergency": "disaster_help_point",
    "name": "Notfalltreffpunkt RFO/GFO Kanton Zürich",
    "id": "node/9417226715"
  },
  "geometry": {
    "type": "Point",
    "coordinates": [
      8.7885943,
      47.5214999
    ]
  }
},
{
  "type": "Feature",
  "id": "node/9417226716",
  "properties": {
    "addr:city": "Wetzikon",
    "addr:housenumber": "11",
    "addr:postcode": "8620",
    "addr:street": "Eggstrasse",
    "description": "Turnhalle",
    "emergency": "disaster_help_point",
    "name": "Notfalltreffpunkt RFO/GFO Kanton Zürich",
    "id": "node/9417226716"
  },
  "geometry": {
    "type": "Point",
    "coordinates": [
      8.8006972,
      47.3248342
    ]
  }
},
{
  "type": "Feature",
  "id": "node/9417237617",
  "properties": {
    "addr:city": "Wetzikon",
    "addr:housenumber": "63",
    "addr:postcode": "8620",
    "addr:street": "Rapperswilerstrasse",
    "description": "Kunsteisbahn",
    "emergency": "disaster_help_point",
    "name": "Notfalltreffpunkt RFO/GFO Kanton Zürich",
    "id": "node/9417237617"
  },
  "geometry": {
    "type": "Point",
    "coordinates": [
      8.7990229,
      47.3152105
    ]
  }
},
{
  "type": "Feature",
  "id": "node/9417237618",
  "properties": {
    "addr:city": "Wetzikon",
    "addr:housenumber": "39",
    "addr:postcode": "8620",
    "addr:street": "Schulhausstrasse",
    "description": "Singsaal/Turnhalle",
    "emergency": "disaster_help_point",
    "name": "Notfalltreffpunkt RFO/GFO Kanton Zürich",
    "id": "node/9417237618"
  },
  "geometry": {
    "type": "Point",
    "coordinates": [
      8.7849756,
      47.3304341
    ]
  }
},
{
  "type": "Feature",
  "id": "node/9417237619",
  "properties": {
    "addr:city": "Wetzikon",
    "addr:housenumber": "27",
    "addr:postcode": "8623",
    "addr:street": "Wallenbachstrasse",
    "description": "Zivilschutzanlage",
    "emergency": "disaster_help_point",
    "name": "Notfalltreffpunkt RFO/GFO Kanton Zürich",
    "id": "node/9417237619"
  },
  "geometry": {
    "type": "Point",
    "coordinates": [
      8.814117,
      47.3347502
    ]
  }
},
{
  "type": "Feature",
  "id": "node/9417237620",
  "properties": {
    "addr:city": "Wettswil a.A.",
    "addr:housenumber": "1",
    "addr:postcode": "8907",
    "addr:street": "Dettenbühlstrasse",
    "description": "Schulhaus",
    "emergency": "disaster_help_point",
    "name": "Notfalltreffpunkt RFO/GFO Kanton Zürich",
    "id": "node/9417237620"
  },
  "geometry": {
    "type": "Point",
    "coordinates": [
      8.4757577,
      47.3392078
    ]
  }
},
{
  "type": "Feature",
  "id": "node/9417237621",
  "properties": {
    "addr:city": "Wermatswil",
    "addr:housenumber": "2",
    "addr:postcode": "8615",
    "addr:street": "Chammerholzstrasse",
    "description": "Schulhaus",
    "emergency": "disaster_help_point",
    "name": "Notfalltreffpunkt RFO/GFO Kanton Zürich",
    "id": "node/9417237621"
  },
  "geometry": {
    "type": "Point",
    "coordinates": [
      8.7459573,
      47.3623403
    ]
  }
},
{
  "type": "Feature",
  "id": "node/9417237622",
  "properties": {
    "addr:city": "Weisslingen",
    "addr:housenumber": "9",
    "addr:postcode": "8484",
    "addr:street": "Dorfstrasse",
    "description": "Volg",
    "emergency": "disaster_help_point",
    "name": "Notfalltreffpunkt RFO/GFO Kanton Zürich",
    "id": "node/9417237622"
  },
  "geometry": {
    "type": "Point",
    "coordinates": [
      8.764668,
      47.4300698
    ]
  }
},
{
  "type": "Feature",
  "id": "node/9417237623",
  "properties": {
    "addr:city": "Weisslingen",
    "addr:housenumber": "38",
    "addr:postcode": "8484",
    "addr:street": "Dorfstrasse",
    "description": "Mehrzweckhalle",
    "emergency": "disaster_help_point",
    "name": "Notfalltreffpunkt RFO/GFO Kanton Zürich",
    "id": "node/9417237623"
  },
  "geometry": {
    "type": "Point",
    "coordinates": [
      8.763586,
      47.4329337
    ]
  }
},
{
  "type": "Feature",
  "id": "node/9417237624",
  "properties": {
    "addr:city": "Weisslingen",
    "addr:place": "Lendikon",
    "addr:postcode": "8484",
    "description": "Bushaltestelle",
    "emergency": "disaster_help_point",
    "name": "Notfalltreffpunkt RFO/GFO Kanton Zürich",
    "id": "node/9417237624"
  },
  "geometry": {
    "type": "Point",
    "coordinates": [
      8.7788397,
      47.4258854
    ]
  }
},
{
  "type": "Feature",
  "id": "node/9417237625",
  "properties": {
    "addr:city": "Weisslingen",
    "addr:housenumber": "28",
    "addr:postcode": "8484",
    "addr:street": "Ludetswilerstrasse",
    "description": "Sprützehüsli Neschwil",
    "emergency": "disaster_help_point",
    "name": "Notfalltreffpunkt RFO/GFO Kanton Zürich",
    "id": "node/9417237625"
  },
  "geometry": {
    "type": "Point",
    "coordinates": [
      8.7891459,
      47.4287699
    ]
  }
},
{
  "type": "Feature",
  "id": "node/9417237626",
  "properties": {
    "addr:city": "Weisslingen",
    "addr:postcode": "8484",
    "addr:street": "Dettenried",
    "description": "Brunnen",
    "emergency": "disaster_help_point",
    "name": "Notfalltreffpunkt RFO/GFO Kanton Zürich",
    "id": "node/9417237626"
  },
  "geometry": {
    "type": "Point",
    "coordinates": [
      8.7772742,
      47.440593
    ]
  }
},
{
  "type": "Feature",
  "id": "node/9417237627",
  "properties": {
    "addr:city": "Weiningen",
    "addr:housenumber": "10b",
    "addr:postcode": "8104",
    "addr:street": "Schlüechtistrasse",
    "description": "Turnhalle",
    "emergency": "disaster_help_point",
    "name": "Notfalltreffpunkt RFO/GFO Kanton Zürich",
    "id": "node/9417237627"
  },
  "geometry": {
    "type": "Point",
    "coordinates": [
      8.4335037,
      47.4176253
    ]
  }
},
{
  "type": "Feature",
  "id": "node/9417237628",
  "properties": {
    "addr:city": "Weiach",
    "addr:housenumber": "10",
    "addr:postcode": "8187",
    "addr:street": "Stadlerstrasse",
    "description": "Gemeindesaal",
    "emergency": "disaster_help_point",
    "name": "Notfalltreffpunkt RFO/GFO Kanton Zürich",
    "id": "node/9417237628"
  },
  "geometry": {
    "type": "Point",
    "coordinates": [
      8.4369396,
      47.5563923
    ]
  }
},
{
  "type": "Feature",
  "id": "node/9417237629",
  "properties": {
    "addr:city": "Wasterkingen",
    "addr:housenumber": "128",
    "addr:postcode": "8195",
    "addr:street": "Schulweg",
    "description": "Schulhaus",
    "emergency": "disaster_help_point",
    "name": "Notfalltreffpunkt RFO/GFO Kanton Zürich",
    "id": "node/9417237629"
  },
  "geometry": {
    "type": "Point",
    "coordinates": [
      8.4712897,
      47.5900453
    ]
  }
},
{
  "type": "Feature",
  "id": "node/9417237630",
  "properties": {
    "addr:city": "Wangen",
    "addr:housenumber": "50A",
    "addr:postcode": "8602",
    "addr:street": "Unterdorfstrasse",
    "description": "Turnhalle Oberwiesen",
    "emergency": "disaster_help_point",
    "name": "Notfalltreffpunkt RFO/GFO Kanton Zürich",
    "id": "node/9417237630"
  },
  "geometry": {
    "type": "Point",
    "coordinates": [
      8.6415909,
      47.4127238
    ]
  }
},
{
  "type": "Feature",
  "id": "node/9417237631",
  "properties": {
    "addr:city": "Wallisellen",
    "addr:housenumber": "58",
    "addr:postcode": "8304",
    "addr:street": "Alte Winterthurerstrasse",
    "description": "Mehrzweckhalle (Dreifachturnhalle)",
    "emergency": "disaster_help_point",
    "name": "Notfalltreffpunkt RFO/GFO Kanton Zürich",
    "id": "node/9417237631"
  },
  "geometry": {
    "type": "Point",
    "coordinates": [
      8.5939087,
      47.4174649
    ]
  }
},
{
  "type": "Feature",
  "id": "node/9417237632",
  "properties": {
    "addr:city": "Wald",
    "addr:housenumber": "12",
    "addr:postcode": "8636",
    "addr:street": "Bahnhofstrasse",
    "description": "Gemeindesaal",
    "emergency": "disaster_help_point",
    "name": "Notfalltreffpunkt RFO/GFO Kanton Zürich",
    "id": "node/9417237632"
  },
  "geometry": {
    "type": "Point",
    "coordinates": [
      8.9148963,
      47.2753996
    ]
  }
},
{
  "type": "Feature",
  "id": "node/9417237633",
  "properties": {
    "addr:city": "Wädenswil",
    "addr:housenumber": "5",
    "addr:postcode": "8820",
    "addr:street": "Glärnischstrasse",
    "description": "Mehrzweckhalle",
    "emergency": "disaster_help_point",
    "name": "Notfalltreffpunkt RFO/GFO Kanton Zürich",
    "id": "node/9417237633"
  },
  "geometry": {
    "type": "Point",
    "coordinates": [
      8.6671841,
      47.2307996
    ]
  }
},
{
  "type": "Feature",
  "id": "node/9417237634",
  "properties": {
    "addr:city": "Volketswil",
    "addr:housenumber": "35",
    "addr:postcode": "8604",
    "addr:street": "Usterstrasse",
    "description": "Kultur- und Sportzentrum Gries",
    "emergency": "disaster_help_point",
    "name": "Notfalltreffpunkt RFO/GFO Kanton Zürich",
    "id": "node/9417237634"
  },
  "geometry": {
    "type": "Point",
    "coordinates": [
      8.6804589,
      47.3854798
    ]
  }
},
{
  "type": "Feature",
  "id": "node/9417237635",
  "properties": {
    "addr:city": "Volken",
    "addr:housenumber": "2",
    "addr:postcode": "8459",
    "addr:street": "Ankackerstrasse",
    "description": "Schulhaus",
    "emergency": "disaster_help_point",
    "name": "Notfalltreffpunkt RFO/GFO Kanton Zürich",
    "id": "node/9417237635"
  },
  "geometry": {
    "type": "Point",
    "coordinates": [
      8.6278372,
      47.5742084
    ]
  }
},
{
  "type": "Feature",
  "id": "node/9417237636",
  "properties": {
    "addr:city": "Uster",
    "addr:housenumber": "109",
    "addr:postcode": "8610",
    "addr:street": "Seestrasse",
    "description": "Turnhalle",
    "emergency": "disaster_help_point",
    "name": "Notfalltreffpunkt RFO/GFO Kanton Zürich",
    "id": "node/9417237636"
  },
  "geometry": {
    "type": "Point",
    "coordinates": [
      8.7029797,
      47.3438024
    ]
  }
},
{
  "type": "Feature",
  "id": "node/9417237637",
  "properties": {
    "addr:city": "Uster",
    "addr:housenumber": "33",
    "addr:postcode": "8610",
    "addr:street": "Zürichstrasse",
    "description": "Turnhalle",
    "emergency": "disaster_help_point",
    "name": "Notfalltreffpunkt RFO/GFO Kanton Zürich",
    "id": "node/9417237637"
  },
  "geometry": {
    "type": "Point",
    "coordinates": [
      8.708047,
      47.3520767
    ]
  }
},
{
  "type": "Feature",
  "id": "node/9417237638",
  "properties": {
    "addr:city": "Uster",
    "addr:housenumber": "10",
    "addr:postcode": "8610",
    "addr:street": "Wührestrasse",
    "description": "Turnhalle",
    "emergency": "disaster_help_point",
    "name": "Notfalltreffpunkt RFO/GFO Kanton Zürich",
    "id": "node/9417237638"
  },
  "geometry": {
    "type": "Point",
    "coordinates": [
      8.715879,
      47.3397474
    ]
  }
},
{
  "type": "Feature",
  "id": "node/9417237639",
  "properties": {
    "addr:city": "Uster",
    "addr:housenumber": "31",
    "addr:postcode": "8610",
    "addr:street": "Aathalstrasse",
    "description": "Turnhalle",
    "emergency": "disaster_help_point",
    "name": "Notfalltreffpunkt RFO/GFO Kanton Zürich",
    "id": "node/9417237639"
  },
  "geometry": {
    "type": "Point",
    "coordinates": [
      8.7308961,
      47.3456252
    ]
  }
},
{
  "type": "Feature",
  "id": "node/9417237640",
  "properties": {
    "addr:city": "Uster",
    "addr:housenumber": "10",
    "addr:postcode": "8610",
    "addr:street": "Hasenbühlstrasse",
    "description": "Turnhalle",
    "emergency": "disaster_help_point",
    "name": "Notfalltreffpunkt RFO/GFO Kanton Zürich",
    "id": "node/9417237640"
  },
  "geometry": {
    "type": "Point",
    "coordinates": [
      8.7216126,
      47.3547423
    ]
  }
},
{
  "type": "Feature",
  "id": "node/9417237641",
  "properties": {
    "addr:city": "Uster",
    "addr:housenumber": "30",
    "addr:postcode": "8610",
    "addr:street": "Wilstrasse",
    "description": "Turnhalle",
    "emergency": "disaster_help_point",
    "name": "Notfalltreffpunkt RFO/GFO Kanton Zürich",
    "id": "node/9417237641"
  },
  "geometry": {
    "type": "Point",
    "coordinates": [
      8.7115707,
      47.3488624
    ]
  }
},
{
  "type": "Feature",
  "id": "node/9417237642",
  "properties": {
    "addr:city": "Uster",
    "addr:housenumber": "70",
    "addr:postcode": "8610",
    "addr:street": "Gschwaderstrasse",
    "description": "Turnhalle",
    "emergency": "disaster_help_point",
    "name": "Notfalltreffpunkt RFO/GFO Kanton Zürich",
    "id": "node/9417237642"
  },
  "geometry": {
    "type": "Point",
    "coordinates": [
      8.7174354,
      47.3605008
    ]
  }
},
{
  "type": "Feature",
  "id": "node/9417237643",
  "properties": {
    "addr:city": "Urdorf",
    "addr:housenumber": "77",
    "addr:postcode": "8902",
    "addr:street": "Birmensdorferstrasse",
    "description": "Mehrzweckhalle",
    "emergency": "disaster_help_point",
    "name": "Notfalltreffpunkt RFO/GFO Kanton Zürich",
    "id": "node/9417237643"
  },
  "geometry": {
    "type": "Point",
    "coordinates": [
      8.422122,
      47.3854401
    ]
  }
},
{
  "type": "Feature",
  "id": "node/9417237644",
  "properties": {
    "addr:city": "Unterstammheim",
    "addr:housenumber": "5",
    "addr:postcode": "8476",
    "addr:street": "Rietweg",
    "description": "Sporthalle Stammheim",
    "emergency": "disaster_help_point",
    "name": "Notfalltreffpunkt RFO/GFO Kanton Zürich",
    "id": "node/9417237644"
  },
  "geometry": {
    "type": "Point",
    "coordinates": [
      8.7916284,
      47.6338836
    ]
  }
},
{
  "type": "Feature",
  "id": "node/9417237645",
  "properties": {
    "addr:city": "Unterengstringen",
    "addr:housenumber": "15",
    "addr:postcode": "8103",
    "addr:street": "Büelstrasse",
    "description": "Gemeindehaus / Gemeindesaal",
    "emergency": "disaster_help_point",
    "name": "Notfalltreffpunkt RFO/GFO Kanton Zürich",
    "id": "node/9417237645"
  },
  "geometry": {
    "type": "Point",
    "coordinates": [
      8.4434255,
      47.413186
    ]
  }
},
{
  "type": "Feature",
  "id": "node/9417237646",
  "properties": {
    "addr:city": "Uitikon Waldegg",
    "addr:housenumber": "61",
    "addr:postcode": "8142",
    "addr:street": "Zürcherstrasse",
    "description": "Gemeindesaal Üdiker-Huus",
    "emergency": "disaster_help_point",
    "name": "Notfalltreffpunkt RFO/GFO Kanton Zürich",
    "id": "node/9417237646"
  },
  "geometry": {
    "type": "Point",
    "coordinates": [
      8.4536873,
      47.3703523
    ]
  }
},
{
  "type": "Feature",
  "id": "node/9417237647",
  "properties": {
    "addr:city": "Uetikon am See",
    "addr:housenumber": "111",
    "addr:postcode": "8707",
    "addr:street": "Bergstrasse",
    "description": "Gemeindesaal Riedsteg",
    "emergency": "disaster_help_point",
    "name": "Notfalltreffpunkt RFO/GFO Kanton Zürich",
    "id": "node/9417237647"
  },
  "geometry": {
    "type": "Point",
    "coordinates": [
      8.6770961,
      47.2635908
    ]
  }
},
{
  "type": "Feature",
  "id": "node/9417237648",
  "properties": {
    "addr:city": "Turbenthal",
    "addr:housenumber": "2d",
    "addr:postcode": "8488",
    "addr:street": "Feldstrasse",
    "description": "Mehrzweckhalle / Turnhalle",
    "emergency": "disaster_help_point",
    "name": "Notfalltreffpunkt RFO/GFO Kanton Zürich",
    "id": "node/9417237648"
  },
  "geometry": {
    "type": "Point",
    "coordinates": [
      8.8509014,
      47.4363175
    ]
  }
},
{
  "type": "Feature",
  "id": "node/9417237649",
  "properties": {
    "addr:city": "Truttikon",
    "addr:housenumber": "6",
    "addr:postcode": "8467",
    "addr:street": "Schulhausstrasse",
    "description": "Turnhalle",
    "emergency": "disaster_help_point",
    "name": "Notfalltreffpunkt RFO/GFO Kanton Zürich",
    "id": "node/9417237649"
  },
  "geometry": {
    "type": "Point",
    "coordinates": [
      8.7287634,
      47.6305339
    ]
  }
},
{
  "type": "Feature",
  "id": "node/9417237650",
  "properties": {
    "addr:city": "Trüllikon",
    "addr:housenumber": "7",
    "addr:postcode": "8466",
    "addr:street": "Pfannenstil",
    "description": "Mehrzweckhalle",
    "emergency": "disaster_help_point",
    "name": "Notfalltreffpunkt RFO/GFO Kanton Zürich",
    "id": "node/9417237650"
  },
  "geometry": {
    "type": "Point",
    "coordinates": [
      8.6824222,
      47.6381005
    ]
  }
},
{
  "type": "Feature",
  "id": "node/9417237651",
  "properties": {
    "addr:city": "Theilingen",
    "addr:housenumber": "36",
    "addr:postcode": "8484",
    "addr:street": "Theiligerstrasse",
    "description": "Dorfbrunnen",
    "emergency": "disaster_help_point",
    "name": "Notfalltreffpunkt RFO/GFO Kanton Zürich",
    "id": "node/9417237651"
  },
  "geometry": {
    "type": "Point",
    "coordinates": [
      8.7675956,
      47.4209598
    ]
  }
},
{
  "type": "Feature",
  "id": "node/9417237652",
  "properties": {
    "addr:city": "Thalwil",
    "addr:housenumber": "5",
    "addr:postcode": "8800",
    "addr:street": "Rudishaldenstrasse",
    "description": "Schulhaus",
    "emergency": "disaster_help_point",
    "name": "Notfalltreffpunkt RFO/GFO Kanton Zürich",
    "id": "node/9417237652"
  },
  "geometry": {
    "type": "Point",
    "coordinates": [
      8.5573321,
      47.2938346
    ]
  }
},
{
  "type": "Feature",
  "id": "node/9417237653",
  "properties": {
    "addr:city": "Thalheim an der Thur",
    "addr:housenumber": "125",
    "addr:postcode": "8478",
    "addr:street": "Thurtalstrasse",
    "description": "Schulhaus",
    "emergency": "disaster_help_point",
    "name": "Notfalltreffpunkt RFO/GFO Kanton Zürich",
    "id": "node/9417237653"
  },
  "geometry": {
    "type": "Point",
    "coordinates": [
      8.7452595,
      47.5817774
    ]
  }
},
{
  "type": "Feature",
  "id": "node/9417237654",
  "properties": {
    "addr:city": "Teufen",
    "addr:housenumber": "17",
    "addr:postcode": "8427",
    "addr:street": "Oberteufenerstrasse",
    "description": "Altes Schulhaus Teufen",
    "emergency": "disaster_help_point",
    "name": "Notfalltreffpunkt RFO/GFO Kanton Zürich",
    "id": "node/9417237654"
  },
  "geometry": {
    "type": "Point",
    "coordinates": [
      8.5668889,
      47.5514405
    ]
  }
},
{
  "type": "Feature",
  "id": "node/9417237655",
  "properties": {
    "addr:city": "Tann",
    "addr:housenumber": "44c",
    "addr:postcode": "8632",
    "addr:street": "Nauenstrasse",
    "description": "Feuerwehrgebäude",
    "emergency": "disaster_help_point",
    "name": "Notfalltreffpunkt RFO/GFO Kanton Zürich",
    "id": "node/9417237655"
  },
  "geometry": {
    "type": "Point",
    "coordinates": [
      8.8563313,
      47.2745875
    ]
  }
},
{
  "type": "Feature",
  "id": "node/9417237656",
  "properties": {
    "addr:city": "Tagelswangen",
    "addr:housenumber": "1",
    "addr:postcode": "8317",
    "addr:street": "Falkenstrasse",
    "description": "Schulhaus Bucksaal",
    "emergency": "disaster_help_point",
    "name": "Notfalltreffpunkt RFO/GFO Kanton Zürich",
    "id": "node/9417237656"
  },
  "geometry": {
    "type": "Point",
    "coordinates": [
      8.6702327,
      47.4329943
    ]
  }
},
{
  "type": "Feature",
  "id": "node/9417237657",
  "properties": {
    "addr:city": "Sulzbach",
    "addr:housenumber": "14",
    "addr:postcode": "8614",
    "addr:street": "Oberdorfstrasse",
    "description": "Schulhaus",
    "emergency": "disaster_help_point",
    "name": "Notfalltreffpunkt RFO/GFO Kanton Zürich",
    "id": "node/9417237657"
  },
  "geometry": {
    "type": "Point",
    "coordinates": [
      8.7468822,
      47.3288213
    ]
  }
},
{
  "type": "Feature",
  "id": "node/9417237658",
  "properties": {
    "addr:city": "Steinmaur",
    "addr:housenumber": "22",
    "addr:postcode": "8162",
    "addr:street": "Hauptstrasse",
    "description": "Gemeindehaus",
    "emergency": "disaster_help_point",
    "name": "Notfalltreffpunkt RFO/GFO Kanton Zürich",
    "id": "node/9417237658"
  },
  "geometry": {
    "type": "Point",
    "coordinates": [
      8.4492913,
      47.4939619
    ]
  }
},
{
  "type": "Feature",
  "id": "node/9417237659",
  "properties": {
    "addr:city": "Stallikon",
    "addr:housenumber": "44",
    "addr:postcode": "8143",
    "addr:street": "Püntenstrasse",
    "description": "Werkhof/MZA Pünten",
    "emergency": "disaster_help_point",
    "name": "Notfalltreffpunkt RFO/GFO Kanton Zürich",
    "id": "node/9417237659"
  },
  "geometry": {
    "type": "Point",
    "coordinates": [
      8.4889882,
      47.3280834
    ]
  }
},
{
  "type": "Feature",
  "id": "node/9417237660",
  "properties": {
    "addr:city": "Stäfa",
    "addr:housenumber": "35",
    "addr:postcode": "8712",
    "addr:street": "Tränkebachstrasse",
    "description": "Gemeindesaal",
    "emergency": "disaster_help_point",
    "name": "Notfalltreffpunkt RFO/GFO Kanton Zürich",
    "id": "node/9417237660"
  },
  "geometry": {
    "type": "Point",
    "coordinates": [
      8.7314177,
      47.2415753
    ]
  }
},
{
  "type": "Feature",
  "id": "node/9417237661",
  "properties": {
    "addr:city": "Stadel b.N",
    "addr:housenumber": "55",
    "addr:postcode": "8174",
    "addr:street": "Hinterdorfstrasse 55",
    "description": "Mehrzweckanlage",
    "emergency": "disaster_help_point",
    "name": "Notfalltreffpunkt RFO/GFO Kanton Zürich",
    "id": "node/9417237661"
  },
  "geometry": {
    "type": "Point",
    "coordinates": [
      8.4681794,
      47.5345591
    ]
  }
},
{
  "type": "Feature",
  "id": "node/9417237663",
  "properties": {
    "addr:city": "Schwerzenbach",
    "addr:housenumber": "7c",
    "addr:postcode": "8603",
    "addr:street": "Bahnhofstrasse",
    "description": "Turnhalle",
    "emergency": "disaster_help_point",
    "name": "Notfalltreffpunkt RFO/GFO Kanton Zürich",
    "id": "node/9417237663"
  },
  "geometry": {
    "type": "Point",
    "coordinates": [
      8.655771,
      47.3831878
    ]
  }
},
{
  "type": "Feature",
  "id": "node/9417237664",
  "properties": {
    "addr:city": "Schönenberg",
    "addr:housenumber": "2",
    "addr:postcode": "8824",
    "addr:street": "Hüttnerstrasse",
    "description": "Gemeindesaal",
    "emergency": "disaster_help_point",
    "name": "Notfalltreffpunkt RFO/GFO Kanton Zürich",
    "id": "node/9417237664"
  },
  "geometry": {
    "type": "Point",
    "coordinates": [
      8.6441243,
      47.1926855
    ]
  }
},
{
  "type": "Feature",
  "id": "node/9417237665",
  "properties": {
    "addr:city": "Schöfflisdorf",
    "addr:housenumber": "2",
    "addr:postcode": "8165",
    "addr:street": "Oberdorfstrasse",
    "description": "Gemeindehaus",
    "emergency": "disaster_help_point",
    "name": "Notfalltreffpunkt RFO/GFO Kanton Zürich",
    "id": "node/9417237665"
  },
  "geometry": {
    "type": "Point",
    "coordinates": [
      8.4164614,
      47.4999284
    ]
  }
},
{
  "type": "Feature",
  "id": "node/9417237666",
  "properties": {
    "addr:city": "Schmidrüti",
    "addr:housenumber": "4",
    "addr:postcode": "8495",
    "addr:street": "Kalcheggstrasse",
    "description": "Schulhaus Schmidrüti",
    "emergency": "disaster_help_point",
    "name": "Notfalltreffpunkt RFO/GFO Kanton Zürich",
    "id": "node/9417237666"
  },
  "geometry": {
    "type": "Point",
    "coordinates": [
      8.901046,
      47.4135012
    ]
  }
},
{
  "type": "Feature",
  "id": "node/9417237667",
  "properties": {
    "addr:city": "Schlieren",
    "addr:housenumber": "4",
    "addr:postcode": "8952",
    "addr:street": "Schürrainweg",
    "description": "Turnhalle Kalktarren",
    "emergency": "disaster_help_point",
    "name": "Notfalltreffpunkt RFO/GFO Kanton Zürich",
    "id": "node/9417237667"
  },
  "geometry": {
    "type": "Point",
    "coordinates": [
      8.4376403,
      47.3929976
    ]
  }
},
{
  "type": "Feature",
  "id": "node/9417237668",
  "properties": {
    "addr:city": "Schlieren",
    "addr:housenumber": "2",
    "addr:postcode": "8952",
    "addr:street": "Hofackerstrasse",
    "description": "Turnhalle Hofacker",
    "emergency": "disaster_help_point",
    "name": "Notfalltreffpunkt RFO/GFO Kanton Zürich",
    "id": "node/9417237668"
  },
  "geometry": {
    "type": "Point",
    "coordinates": [
      8.4446286,
      47.3947989
    ]
  }
},
{
  "type": "Feature",
  "id": "node/9417237669",
  "properties": {
    "addr:city": "Schlieren",
    "addr:housenumber": "16",
    "addr:postcode": "8952",
    "addr:street": "Schulstrasse",
    "description": "Turnhalle Rotes Schulhaus",
    "emergency": "disaster_help_point",
    "name": "Notfalltreffpunkt RFO/GFO Kanton Zürich",
    "id": "node/9417237669"
  },
  "geometry": {
    "type": "Point",
    "coordinates": [
      8.4514039,
      47.3965208
    ]
  }
},
{
  "type": "Feature",
  "id": "node/9417237670",
  "properties": {
    "addr:city": "Schlieren",
    "addr:housenumber": "78",
    "addr:postcode": "8952",
    "addr:street": "Zürcherstrasse",
    "description": "Turnhalle Im Moos",
    "emergency": "disaster_help_point",
    "name": "Notfalltreffpunkt RFO/GFO Kanton Zürich",
    "id": "node/9417237670"
  },
  "geometry": {
    "type": "Point",
    "coordinates": [
      8.4584774,
      47.3978798
    ]
  }
},
{
  "type": "Feature",
  "id": "node/9417237671",
  "properties": {
    "addr:city": "Schleinikon",
    "addr:housenumber": "16",
    "addr:postcode": "8165",
    "addr:street": "Dorfstrasse",
    "description": "Gemeindesaal",
    "emergency": "disaster_help_point",
    "name": "Notfalltreffpunkt RFO/GFO Kanton Zürich",
    "id": "node/9417237671"
  },
  "geometry": {
    "type": "Point",
    "coordinates": [
      8.3958973,
      47.4974648
    ]
  }
},
{
  "type": "Feature",
  "id": "node/9417237672",
  "properties": {
    "addr:city": "Schlatt",
    "addr:postcode": "8418",
    "addr:street": "Kollbrunnerstrasse",
    "description": "Höhe Einmündung Lisihaldenweg",
    "emergency": "disaster_help_point",
    "name": "Notfalltreffpunkt RFO/GFO Kanton Zürich",
    "id": "node/9417237672"
  },
  "geometry": {
    "type": "Point",
    "coordinates": [
      8.8071941,
      47.4677057
    ]
  }
},
{
  "type": "Feature",
  "id": "node/9417237673",
  "properties": {
    "addr:city": "Schlatt",
    "addr:housenumber": "1",
    "addr:postcode": "8418",
    "addr:street": "Schützenhausstrasse",
    "description": "Gemeindehaus",
    "emergency": "disaster_help_point",
    "name": "Notfalltreffpunkt RFO/GFO Kanton Zürich",
    "id": "node/9417237673"
  },
  "geometry": {
    "type": "Point",
    "coordinates": [
      8.8285267,
      47.4697812
    ]
  }
},
{
  "type": "Feature",
  "id": "node/9417237674",
  "properties": {
    "addr:city": "Schlatt",
    "addr:housenumber": "1",
    "addr:postcode": "8418",
    "addr:street": "Untere Herstelstrasse",
    "description": "Bauerhof",
    "emergency": "disaster_help_point",
    "name": "Notfalltreffpunkt RFO/GFO Kanton Zürich",
    "id": "node/9417237674"
  },
  "geometry": {
    "type": "Point",
    "coordinates": [
      8.8452467,
      47.4629225
    ]
  }
},
{
  "type": "Feature",
  "id": "node/9417237675",
  "properties": {
    "addr:city": "Schlatt",
    "addr:postcode": "8418",
    "addr:street": "Elgger- Heitertal-Räterschenstrasse",
    "description": "Kreuzung",
    "emergency": "disaster_help_point",
    "name": "Notfalltreffpunkt RFO/GFO Kanton Zürich",
    "id": "node/9417237675"
  },
  "geometry": {
    "type": "Point",
    "coordinates": [
      8.8202757,
      47.4790013
    ]
  }
},
{
  "type": "Feature",
  "id": "node/9417237676",
  "properties": {
    "addr:city": "Rutschwil (Dägerlen)",
    "addr:housenumber": "5",
    "addr:postcode": "8471",
    "addr:street": "Schulweg",
    "description": "Mehrzweckhalle",
    "emergency": "disaster_help_point",
    "name": "Notfalltreffpunkt RFO/GFO Kanton Zürich",
    "id": "node/9417237676"
  },
  "geometry": {
    "type": "Point",
    "coordinates": [
      8.7299533,
      47.5586342
    ]
  }
},
{
  "type": "Feature",
  "id": "node/9417237677",
  "properties": {
    "addr:city": "Rüti",
    "addr:housenumber": "31",
    "addr:postcode": "8630",
    "addr:street": "Werkstrasse",
    "description": "Gemeinschaftszentrum",
    "emergency": "disaster_help_point",
    "name": "Notfalltreffpunkt RFO/GFO Kanton Zürich",
    "id": "node/9417237677"
  },
  "geometry": {
    "type": "Point",
    "coordinates": [
      8.8518907,
      47.2556335
    ]
  }
},
{
  "type": "Feature",
  "id": "node/9417237678",
  "properties": {
    "addr:city": "Russikon",
    "addr:housenumber": "7",
    "addr:postcode": "8332",
    "addr:street": "Riedweg",
    "description": "Mehrzweckanlage",
    "emergency": "disaster_help_point",
    "name": "Notfalltreffpunkt RFO/GFO Kanton Zürich",
    "id": "node/9417237678"
  },
  "geometry": {
    "type": "Point",
    "coordinates": [
      8.7791336,
      47.3953581
    ]
  }
},
{
  "type": "Feature",
  "id": "node/9417237679",
  "properties": {
    "addr:city": "Rüschlikon",
    "addr:housenumber": "29",
    "addr:postcode": "8803",
    "addr:street": "Pilgerweg",
    "description": "Gemeindehaus",
    "emergency": "disaster_help_point",
    "name": "Notfalltreffpunkt RFO/GFO Kanton Zürich",
    "id": "node/9417237679"
  },
  "geometry": {
    "type": "Point",
    "coordinates": [
      8.5554773,
      47.3081912
    ]
  }
},
{
  "type": "Feature",
  "id": "node/9417237680",
  "properties": {
    "addr:city": "Rümlang",
    "addr:housenumber": "4",
    "addr:postcode": "8153",
    "addr:street": "Katzenrütistrasse",
    "description": "Schulhaus",
    "emergency": "disaster_help_point",
    "name": "Notfalltreffpunkt RFO/GFO Kanton Zürich",
    "id": "node/9417237680"
  },
  "geometry": {
    "type": "Point",
    "coordinates": [
      8.5281696,
      47.4501972
    ]
  }
},
{
  "type": "Feature",
  "id": "node/9417237681",
  "properties": {
    "addr:city": "Rorbas",
    "addr:housenumber": "5",
    "addr:postcode": "8427",
    "addr:street": "Zilacherstrasse",
    "description": "Steigwiessaal",
    "emergency": "disaster_help_point",
    "name": "Notfalltreffpunkt RFO/GFO Kanton Zürich",
    "id": "node/9417237681"
  },
  "geometry": {
    "type": "Point",
    "coordinates": [
      8.5776952,
      47.530593
    ]
  }
},
{
  "type": "Feature",
  "id": "node/9417237682",
  "properties": {
    "addr:city": "Langenhard",
    "addr:housenumber": "141",
    "addr:postcode": "8486",
    "addr:street": "Langenhardstrasse",
    "description": "Primarschulhaus Langenhard, Unterlangenhard",
    "emergency": "disaster_help_point",
    "name": "Notfalltreffpunkt RFO/GFO Kanton Zürich",
    "id": "node/9417237682"
  },
  "geometry": {
    "type": "Point",
    "coordinates": [
      8.8082482,
      47.4540293
    ]
  }
},
{
  "type": "Feature",
  "id": "node/9417237683",
  "properties": {
    "addr:city": "Rikon im Tösstal",
    "addr:housenumber": "13",
    "addr:postcode": "8486",
    "addr:street": "Schulstrasse",
    "description": "Oberstufenschulhaus Engelburg",
    "emergency": "disaster_help_point",
    "name": "Notfalltreffpunkt RFO/GFO Kanton Zürich",
    "id": "node/9417237683"
  },
  "geometry": {
    "type": "Point",
    "coordinates": [
      8.7962705,
      47.4461646
    ]
  }
},
{
  "type": "Feature",
  "id": "node/9417237684",
  "properties": {
    "addr:city": "Rifferswil",
    "addr:housenumber": "2a.1",
    "addr:postcode": "8911",
    "addr:street": "Dorfplatz",
    "description": "Engelscheune",
    "emergency": "disaster_help_point",
    "name": "Notfalltreffpunkt RFO/GFO Kanton Zürich",
    "id": "node/9417237684"
  },
  "geometry": {
    "type": "Point",
    "coordinates": [
      8.4957702,
      47.2430249
    ]
  }
},
{
  "type": "Feature",
  "id": "node/9417237685",
  "properties": {
    "addr:city": "Rickenbach",
    "addr:housenumber": "2",
    "addr:postcode": "8545",
    "addr:street": "Breitestrasse",
    "description": "Mehrzweckhalle Hofacker",
    "emergency": "disaster_help_point",
    "name": "Notfalltreffpunkt RFO/GFO Kanton Zürich",
    "id": "node/9417237685"
  },
  "geometry": {
    "type": "Point",
    "coordinates": [
      8.7886474,
      47.5408387
    ]
  }
},
{
  "type": "Feature",
  "id": "node/9417237686",
  "properties": {
    "addr:city": "Rickenbach",
    "addr:housenumber": "4",
    "addr:postcode": "8545",
    "addr:street": "Bungertstrasse",
    "description": "Oberstufenschulhaus Bungert",
    "emergency": "disaster_help_point",
    "name": "Notfalltreffpunkt RFO/GFO Kanton Zürich",
    "id": "node/9417237686"
  },
  "geometry": {
    "type": "Point",
    "coordinates": [
      8.7991646,
      47.5536596
    ]
  }
},
{
  "type": "Feature",
  "id": "node/9417237687",
  "properties": {
    "addr:city": "Samstagern",
    "addr:housenumber": "17",
    "addr:postcode": "8833",
    "addr:street": "Stationsstrasse",
    "description": "Haaggerisaal",
    "emergency": "disaster_help_point",
    "name": "Notfalltreffpunkt RFO/GFO Kanton Zürich",
    "id": "node/9417237687"
  },
  "geometry": {
    "type": "Point",
    "coordinates": [
      8.6781698,
      47.1931245
    ]
  }
},
{
  "type": "Feature",
  "id": "node/9417237688",
  "properties": {
    "addr:city": "Richterswil",
    "addr:housenumber": "29",
    "addr:postcode": "8805",
    "addr:street": "Kirchstrasse",
    "description": "Schulhaus",
    "emergency": "disaster_help_point",
    "name": "Notfalltreffpunkt RFO/GFO Kanton Zürich",
    "id": "node/9417237688"
  },
  "geometry": {
    "type": "Point",
    "coordinates": [
      8.7017094,
      47.2074689
    ]
  }
},
{
  "type": "Feature",
  "id": "node/9417237689",
  "properties": {
    "addr:city": "Rheinau",
    "addr:housenumber": "32",
    "addr:postcode": "8462",
    "addr:street": "Poststrasse",
    "description": "Mehrzweckgebäude",
    "emergency": "disaster_help_point",
    "name": "Notfalltreffpunkt RFO/GFO Kanton Zürich",
    "id": "node/9417237689"
  },
  "geometry": {
    "type": "Point",
    "coordinates": [
      8.6002857,
      47.642972
    ]
  }
},
{
  "type": "Feature",
  "id": "node/9417237690",
  "properties": {
    "addr:city": "Regensdorf/Watt",
    "addr:housenumber": "75",
    "addr:postcode": "8105",
    "addr:street": "Pächterriedstrasse",
    "description": "Mehrzweckhalle",
    "emergency": "disaster_help_point",
    "name": "Notfalltreffpunkt RFO/GFO Kanton Zürich",
    "id": "node/9417237690"
  },
  "geometry": {
    "type": "Point",
    "coordinates": [
      8.4702821,
      47.447202
    ]
  }
},
{
  "type": "Feature",
  "id": "node/9417237691",
  "properties": {
    "addr:city": "Regensdorf",
    "addr:housenumber": "86",
    "addr:postcode": "8105",
    "addr:street": "Adlikerstrasse",
    "description": "Schulhaus, Turnhalle",
    "emergency": "disaster_help_point",
    "name": "Notfalltreffpunkt RFO/GFO Kanton Zürich",
    "id": "node/9417237691"
  },
  "geometry": {
    "type": "Point",
    "coordinates": [
      8.4649121,
      47.4348368
    ]
  }
},
{
  "type": "Feature",
  "id": "node/9417237692",
  "properties": {
    "addr:city": "Regensberg",
    "addr:housenumber": "32",
    "addr:postcode": "8158",
    "addr:street": "Unterburg",
    "description": "Gemeindehaus",
    "emergency": "disaster_help_point",
    "name": "Notfalltreffpunkt RFO/GFO Kanton Zürich",
    "id": "node/9417237692"
  },
  "geometry": {
    "type": "Point",
    "coordinates": [
      8.4362117,
      47.4822564
    ]
  }
},
{
  "type": "Feature",
  "id": "node/9417237693",
  "properties": {
    "addr:city": "Rafz",
    "addr:housenumber": "12.1",
    "addr:postcode": "8197",
    "addr:street": "Solgemerweg",
    "description": "Solgen",
    "emergency": "disaster_help_point",
    "name": "Notfalltreffpunkt RFO/GFO Kanton Zürich",
    "id": "node/9417237693"
  },
  "geometry": {
    "type": "Point",
    "coordinates": [
      8.5645482,
      47.6121315
    ]
  }
},
{
  "type": "Feature",
  "id": "node/9417237694",
  "properties": {
    "addr:city": "Rafz",
    "addr:housenumber": "1.1000000000000001",
    "addr:postcode": "8197",
    "addr:street": "Wilerwäg",
    "description": "Blettliacker",
    "emergency": "disaster_help_point",
    "name": "Notfalltreffpunkt RFO/GFO Kanton Zürich",
    "id": "node/9417237694"
  },
  "geometry": {
    "type": "Point",
    "coordinates": [
      8.5283062,
      47.6213819
    ]
  }
},
{
  "type": "Feature",
  "id": "node/9417237695",
  "properties": {
    "addr:city": "Rafz",
    "addr:housenumber": "12",
    "addr:postcode": "8197",
    "addr:street": "Tannewäg",
    "description": "Schulhaus Schalmenacker",
    "emergency": "disaster_help_point",
    "name": "Notfalltreffpunkt RFO/GFO Kanton Zürich",
    "id": "node/9417237695"
  },
  "geometry": {
    "type": "Point",
    "coordinates": [
      8.5397803,
      47.6069545
    ]
  }
},
{
  "type": "Feature",
  "id": "node/9417237696",
  "properties": {
    "addr:city": "Pfungen",
    "addr:housenumber": "46",
    "addr:postcode": "8422",
    "addr:street": "Breiteackerstrasse",
    "description": "Mehrzweckhalle Seebel",
    "emergency": "disaster_help_point",
    "name": "Notfalltreffpunkt RFO/GFO Kanton Zürich",
    "id": "node/9417237696"
  },
  "geometry": {
    "type": "Point",
    "coordinates": [
      8.649236,
      47.5152777
    ]
  }
},
{
  "type": "Feature",
  "id": "node/9417237697",
  "properties": {
    "addr:city": "Pfäffikon",
    "addr:housenumber": "7",
    "addr:postcode": "8330",
    "addr:street": "Mettlenstrasse",
    "description": "Sporthalle Mettlen",
    "emergency": "disaster_help_point",
    "name": "Notfalltreffpunkt RFO/GFO Kanton Zürich",
    "id": "node/9417237697"
  },
  "geometry": {
    "type": "Point",
    "coordinates": [
      8.791411,
      47.3626752
    ]
  }
},
{
  "type": "Feature",
  "id": "node/9417237698",
  "properties": {
    "addr:city": "Ottikon b. Kemptthal",
    "addr:housenumber": "4",
    "addr:postcode": "8307",
    "addr:street": "Giessenstrasse",
    "description": "Hütteschür",
    "emergency": "disaster_help_point",
    "name": "Notfalltreffpunkt RFO/GFO Kanton Zürich",
    "id": "node/9417237698"
  },
  "geometry": {
    "type": "Point",
    "coordinates": [
      8.7164049,
      47.4357046
    ]
  }
},
{
  "type": "Feature",
  "id": "node/9417237699",
  "properties": {
    "addr:city": "Ottikon",
    "addr:housenumber": "34",
    "addr:postcode": "8626",
    "addr:street": "Schönbüelstrasse",
    "description": "Schulhaus Schönbüel",
    "emergency": "disaster_help_point",
    "name": "Notfalltreffpunkt RFO/GFO Kanton Zürich",
    "id": "node/9417237699"
  },
  "geometry": {
    "type": "Point",
    "coordinates": [
      8.8002342,
      47.2864816
    ]
  }
},
{
  "type": "Feature",
  "id": "node/9417237700",
  "properties": {
    "addr:city": "Ottikon",
    "addr:housenumber": "117",
    "addr:postcode": "8626",
    "addr:street": "Grüningerstrasse",
    "description": "Schulhaus Strick",
    "emergency": "disaster_help_point",
    "name": "Notfalltreffpunkt RFO/GFO Kanton Zürich",
    "id": "node/9417237700"
  },
  "geometry": {
    "type": "Point",
    "coordinates": [
      8.782027,
      47.2968964
    ]
  }
},
{
  "type": "Feature",
  "id": "node/9417237701",
  "properties": {
    "addr:city": "Ottenbach",
    "addr:housenumber": "12",
    "addr:postcode": "8913",
    "addr:street": "Schulrain",
    "description": "Gemeindesaal",
    "emergency": "disaster_help_point",
    "name": "Notfalltreffpunkt RFO/GFO Kanton Zürich",
    "id": "node/9417237701"
  },
  "geometry": {
    "type": "Point",
    "coordinates": [
      8.4072489,
      47.2819697
    ]
  }
},
{
  "type": "Feature",
  "id": "node/9417237702",
  "properties": {
    "addr:city": "Otelfingen",
    "addr:housenumber": "9",
    "addr:postcode": "8112",
    "addr:street": "Bühlstrasse",
    "description": "Mehrzweckhalle",
    "emergency": "disaster_help_point",
    "name": "Notfalltreffpunkt RFO/GFO Kanton Zürich",
    "id": "node/9417237702"
  },
  "geometry": {
    "type": "Point",
    "coordinates": [
      8.3925756,
      47.4624852
    ]
  }
},
{
  "type": "Feature",
  "id": "node/9417237703",
  "properties": {
    "addr:city": "Ossingen",
    "addr:housenumber": "1",
    "addr:postcode": "8475",
    "addr:street": "Neuwiesstrasse",
    "description": "Feuerwehrgebäude / Werkhof",
    "emergency": "disaster_help_point",
    "name": "Notfalltreffpunkt RFO/GFO Kanton Zürich",
    "id": "node/9417237703"
  },
  "geometry": {
    "type": "Point",
    "coordinates": [
      8.7355283,
      47.6122531
    ]
  }
},
{
  "type": "Feature",
  "id": "node/9417237704",
  "properties": {
    "addr:city": "Opfikon",
    "addr:housenumber": "48c",
    "addr:postcode": "8152",
    "addr:street": "Giebeleichstrasse",
    "description": "Turnhalle Schulanlage Lättenwiesen",
    "emergency": "disaster_help_point",
    "name": "Notfalltreffpunkt RFO/GFO Kanton Zürich",
    "id": "node/9417237704"
  },
  "geometry": {
    "type": "Point",
    "coordinates": [
      8.564127,
      47.4273564
    ]
  }
},
{
  "type": "Feature",
  "id": "node/9417237705",
  "properties": {
    "addr:city": "Oetwil am See",
    "addr:housenumber": "10",
    "addr:postcode": "8616",
    "addr:street": "Bachtelweg",
    "description": "Mehrzweckgebäude Breiti",
    "emergency": "disaster_help_point",
    "name": "Notfalltreffpunkt RFO/GFO Kanton Zürich",
    "id": "node/9417237705"
  },
  "geometry": {
    "type": "Point",
    "coordinates": [
      8.7238086,
      47.272309
    ]
  }
},
{
  "type": "Feature",
  "id": "node/9417237706",
  "properties": {
    "addr:city": "Oetwil a.d.L.",
    "addr:housenumber": "7",
    "addr:postcode": "8955",
    "addr:street": "Alte Landstrasse",
    "description": "Gemeindehaus / Gemeindesaal",
    "emergency": "disaster_help_point",
    "name": "Notfalltreffpunkt RFO/GFO Kanton Zürich",
    "id": "node/9417237706"
  },
  "geometry": {
    "type": "Point",
    "coordinates": [
      8.394289,
      47.4286419
    ]
  }
},
{
  "type": "Feature",
  "id": "node/9417237707",
  "properties": {
    "addr:city": "Obfelden",
    "addr:housenumber": "11",
    "addr:postcode": "8912",
    "addr:street": "Bächlerstrasse",
    "description": "Mehrzweckgebäude",
    "emergency": "disaster_help_point",
    "name": "Notfalltreffpunkt RFO/GFO Kanton Zürich",
    "id": "node/9417237707"
  },
  "geometry": {
    "type": "Point",
    "coordinates": [
      8.4168794,
      47.2607227
    ]
  }
},
{
  "type": "Feature",
  "id": "node/9417237708",
  "properties": {
    "addr:city": "Oberweningen",
    "addr:housenumber": "6",
    "addr:postcode": "8165",
    "addr:street": "Dorfstrasse",
    "description": "Gemeindehaus",
    "emergency": "disaster_help_point",
    "name": "Notfalltreffpunkt RFO/GFO Kanton Zürich",
    "id": "node/9417237708"
  },
  "geometry": {
    "type": "Point",
    "coordinates": [
      8.4063805,
      47.5017401
    ]
  }
},
{
  "type": "Feature",
  "id": "node/9417237709",
  "properties": {
    "addr:city": "Oberrieden",
    "addr:housenumber": "10",
    "addr:postcode": "8942",
    "addr:street": "Püntstrasse",
    "description": "Mehrzweckhalle",
    "emergency": "disaster_help_point",
    "name": "Notfalltreffpunkt RFO/GFO Kanton Zürich",
    "id": "node/9417237709"
  },
  "geometry": {
    "type": "Point",
    "coordinates": [
      8.5770164,
      47.273852
    ]
  }
},
{
  "type": "Feature",
  "id": "node/9417237710",
  "properties": {
    "addr:city": "Oberglatt",
    "addr:housenumber": "7",
    "addr:postcode": "8154",
    "addr:street": "Hofstetterstrasse",
    "description": "Schulhaus",
    "emergency": "disaster_help_point",
    "name": "Notfalltreffpunkt RFO/GFO Kanton Zürich",
    "id": "node/9417237710"
  },
  "geometry": {
    "type": "Point",
    "coordinates": [
      8.5178411,
      47.4770897
    ]
  }
},
{
  "type": "Feature",
  "id": "node/9417237711",
  "properties": {
    "addr:city": "Oberengstringen",
    "addr:housenumber": "125",
    "addr:postcode": "8102",
    "addr:street": "Zürcherstrasse",
    "description": "Gemeindehaus / Zentrumsplatz",
    "emergency": "disaster_help_point",
    "name": "Notfalltreffpunkt RFO/GFO Kanton Zürich",
    "id": "node/9417237711"
  },
  "geometry": {
    "type": "Point",
    "coordinates": [
      8.4621722,
      47.4088479
    ]
  }
},
{
  "type": "Feature",
  "id": "node/9417237712",
  "properties": {
    "addr:city": "Oberembrach",
    "addr:housenumber": "11",
    "addr:postcode": "8425",
    "addr:street": "Embracherstrasse",
    "description": "Primarschule / Turnhalle",
    "emergency": "disaster_help_point",
    "name": "Notfalltreffpunkt RFO/GFO Kanton Zürich",
    "id": "node/9417237712"
  },
  "geometry": {
    "type": "Point",
    "coordinates": [
      8.6161754,
      47.4876895
    ]
  }
},
{
  "type": "Feature",
  "id": "node/9417237713",
  "properties": {
    "addr:city": "Nürensdorf",
    "addr:housenumber": "3",
    "addr:postcode": "8309",
    "addr:street": "Im Hegliacher",
    "description": "Schulhaus Sunnerai",
    "emergency": "disaster_help_point",
    "name": "Notfalltreffpunkt RFO/GFO Kanton Zürich",
    "id": "node/9417237713"
  },
  "geometry": {
    "type": "Point",
    "coordinates": [
      8.6386621,
      47.4597628
    ]
  }
},
{
  "type": "Feature",
  "id": "node/9417237714",
  "properties": {
    "addr:city": "Nürensdorf",
    "addr:housenumber": "12",
    "addr:postcode": "8309",
    "addr:street": "Ebnetstrasse",
    "description": "Mehrzweckhalle",
    "emergency": "disaster_help_point",
    "name": "Notfalltreffpunkt RFO/GFO Kanton Zürich",
    "id": "node/9417237714"
  },
  "geometry": {
    "type": "Point",
    "coordinates": [
      8.6514526,
      47.4477469
    ]
  }
},
{
  "type": "Feature",
  "id": "node/9417237715",
  "properties": {
    "addr:city": "Nohl",
    "addr:housenumber": "1",
    "addr:postcode": "8212",
    "addr:street": "Schulstrasse",
    "description": "ehemaliges Schulhaus",
    "emergency": "disaster_help_point",
    "name": "Notfalltreffpunkt RFO/GFO Kanton Zürich",
    "id": "node/9417237715"
  },
  "geometry": {
    "type": "Point",
    "coordinates": [
      8.6078659,
      47.6710663
    ]
  }
},
{
  "type": "Feature",
  "id": "node/9417237716",
  "properties": {
    "addr:city": "Niederweningen",
    "addr:housenumber": "19",
    "addr:postcode": "8166",
    "addr:street": "Alte Stationsstrasse",
    "description": "Gemeindehaus",
    "emergency": "disaster_help_point",
    "name": "Notfalltreffpunkt RFO/GFO Kanton Zürich",
    "id": "node/9417237716"
  },
  "geometry": {
    "type": "Point",
    "coordinates": [
      8.3815326,
      47.5062085
    ]
  }
},
{
  "type": "Feature",
  "id": "node/9417237717",
  "properties": {
    "addr:city": "Niederhasli",
    "addr:housenumber": "8",
    "addr:postcode": "8155",
    "addr:street": "Seefeldstrasse",
    "description": "Schulhaus",
    "emergency": "disaster_help_point",
    "name": "Notfalltreffpunkt RFO/GFO Kanton Zürich",
    "id": "node/9417237717"
  },
  "geometry": {
    "type": "Point",
    "coordinates": [
      8.4939906,
      47.4726143
    ]
  }
},
{
  "type": "Feature",
  "id": "node/9417237718",
  "properties": {
    "addr:city": "Niederglatt",
    "addr:housenumber": "63",
    "addr:postcode": "8172",
    "addr:street": "Grafschaftstrasse",
    "description": "Schulhaus",
    "emergency": "disaster_help_point",
    "name": "Notfalltreffpunkt RFO/GFO Kanton Zürich",
    "id": "node/9417237718"
  },
  "geometry": {
    "type": "Point",
    "coordinates": [
      8.4998031,
      47.4946613
    ]
  }
},
{
  "type": "Feature",
  "id": "node/9417237719",
  "properties": {
    "addr:city": "Neftenbach",
    "addr:housenumber": "19",
    "addr:postcode": "8413",
    "addr:street": "Schulstrasse",
    "description": "Mehrzweckhalle",
    "emergency": "disaster_help_point",
    "name": "Notfalltreffpunkt RFO/GFO Kanton Zürich",
    "id": "node/9417237719"
  },
  "geometry": {
    "type": "Point",
    "coordinates": [
      8.6660707,
      47.5255886
    ]
  }
},
{
  "type": "Feature",
  "id": "node/9417237720",
  "properties": {
    "addr:city": "Neerach",
    "addr:housenumber": "14",
    "addr:postcode": "8173",
    "addr:street": "Binzmühlestrasse",
    "description": "Gemeindehaus",
    "emergency": "disaster_help_point",
    "name": "Notfalltreffpunkt RFO/GFO Kanton Zürich",
    "id": "node/9417237720"
  },
  "geometry": {
    "type": "Point",
    "coordinates": [
      8.4716573,
      47.5112322
    ]
  }
},
{
  "type": "Feature",
  "id": "node/9417237721",
  "properties": {
    "addr:city": "Nänikon",
    "addr:housenumber": "6",
    "addr:postcode": "8606",
    "addr:street": "Baumgartenweg",
    "description": "Turnhalle",
    "emergency": "disaster_help_point",
    "name": "Notfalltreffpunkt RFO/GFO Kanton Zürich",
    "id": "node/9417237721"
  },
  "geometry": {
    "type": "Point",
    "coordinates": [
      8.6922342,
      47.3691789
    ]
  }
},
{
  "type": "Feature",
  "id": "node/9417237722",
  "properties": {
    "addr:city": "Mönchaltorf",
    "addr:housenumber": "7",
    "addr:postcode": "8617",
    "addr:street": "Schulhausstrasse",
    "description": "Schulanlage Rietwis",
    "emergency": "disaster_help_point",
    "name": "Notfalltreffpunkt RFO/GFO Kanton Zürich",
    "id": "node/9417237722"
  },
  "geometry": {
    "type": "Point",
    "coordinates": [
      8.7195995,
      47.3089682
    ]
  }
},
{
  "type": "Feature",
  "id": "node/9417237723",
  "properties": {
    "addr:city": "Mettmenstetten",
    "addr:housenumber": "2",
    "addr:postcode": "8932",
    "addr:street": "Albisstrasse",
    "description": "Mehrzweckhalle Wygarten",
    "emergency": "disaster_help_point",
    "name": "Notfalltreffpunkt RFO/GFO Kanton Zürich",
    "id": "node/9417237723"
  },
  "geometry": {
    "type": "Point",
    "coordinates": [
      8.4638093,
      47.2432957
    ]
  }
},
{
  "type": "Feature",
  "id": "node/9417237724",
  "properties": {
    "addr:city": "Meilen",
    "addr:housenumber": "12",
    "addr:postcode": "8706",
    "addr:street": "Toggwilerstrasse",
    "description": "beim KP Hallenbad",
    "emergency": "disaster_help_point",
    "name": "Notfalltreffpunkt RFO/GFO Kanton Zürich",
    "id": "node/9417237724"
  },
  "geometry": {
    "type": "Point",
    "coordinates": [
      8.6480726,
      47.2739111
    ]
  }
},
{
  "type": "Feature",
  "id": "node/9417237725",
  "properties": {
    "addr:city": "Maur",
    "addr:housenumber": "8",
    "addr:postcode": "8124",
    "addr:street": "Zürichstrasse",
    "description": "Gemeindehaus",
    "emergency": "disaster_help_point",
    "name": "Notfalltreffpunkt RFO/GFO Kanton Zürich",
    "id": "node/9417237725"
  },
  "geometry": {
    "type": "Point",
    "coordinates": [
      8.6676338,
      47.340514
    ]
  }
},
{
  "type": "Feature",
  "id": "node/9417237726",
  "properties": {
    "addr:city": "Maschwanden",
    "addr:housenumber": "56",
    "addr:postcode": "8933",
    "addr:street": "Dorfstrasse",
    "description": "Schulhaus",
    "emergency": "disaster_help_point",
    "name": "Notfalltreffpunkt RFO/GFO Kanton Zürich",
    "id": "node/9417237726"
  },
  "geometry": {
    "type": "Point",
    "coordinates": [
      8.4263244,
      47.234142
    ]
  }
},
{
  "type": "Feature",
  "id": "node/9417237727",
  "properties": {
    "addr:city": "Marthalen",
    "addr:housenumber": "10",
    "addr:postcode": "8460",
    "addr:street": "Ruedelfingerstrass",
    "description": "Feuerwehrgebäude",
    "emergency": "disaster_help_point",
    "name": "Notfalltreffpunkt RFO/GFO Kanton Zürich",
    "id": "node/9417237727"
  },
  "geometry": {
    "type": "Point",
    "coordinates": [
      8.657135,
      47.6322254
    ]
  }
},
{
  "type": "Feature",
  "id": "node/9417237728",
  "properties": {
    "addr:city": "Männedorf",
    "addr:housenumber": "55",
    "addr:postcode": "8708",
    "addr:street": "Haldenstrasse",
    "description": "Hallenbad",
    "emergency": "disaster_help_point",
    "name": "Notfalltreffpunkt RFO/GFO Kanton Zürich",
    "id": "node/9417237728"
  },
  "geometry": {
    "type": "Point",
    "coordinates": [
      8.7012547,
      47.2552955
    ]
  }
},
{
  "type": "Feature",
  "id": "node/9417237729",
  "properties": {
    "addr:city": "Lufingen",
    "addr:housenumber": "31",
    "addr:postcode": "8426",
    "addr:street": "Hintermarchlen",
    "description": "Schulhaus Gsteig mit Turnhalle",
    "emergency": "disaster_help_point",
    "name": "Notfalltreffpunkt RFO/GFO Kanton Zürich",
    "id": "node/9417237729"
  },
  "geometry": {
    "type": "Point",
    "coordinates": [
      8.5887983,
      47.4833593
    ]
  }
},
{
  "type": "Feature",
  "id": "node/9417237730",
  "properties": {
    "addr:city": "Lindau",
    "addr:housenumber": "2",
    "addr:postcode": "8315",
    "addr:street": "Tagelswangerstrasse",
    "description": "Gemeindehaus",
    "emergency": "disaster_help_point",
    "name": "Notfalltreffpunkt RFO/GFO Kanton Zürich",
    "id": "node/9417237730"
  },
  "geometry": {
    "type": "Point",
    "coordinates": [
      8.6713359,
      47.4417079
    ]
  }
},
{
  "type": "Feature",
  "id": "node/9417237731",
  "properties": {
    "addr:city": "Laufen-Uhwiesen",
    "addr:housenumber": "8",
    "addr:postcode": "8248",
    "addr:street": "Wassergasse",
    "description": "Mehrzweckgebäude",
    "emergency": "disaster_help_point",
    "name": "Notfalltreffpunkt RFO/GFO Kanton Zürich",
    "id": "node/9417237731"
  },
  "geometry": {
    "type": "Point",
    "coordinates": [
      8.6398784,
      47.6675556
    ]
  }
},
{
  "type": "Feature",
  "id": "node/9417237732",
  "properties": {
    "addr:city": "Langnau am Albis",
    "addr:housenumber": "4",
    "addr:postcode": "8135",
    "addr:street": "In der Schwerzi",
    "description": "Mehrzweckgebäude Schwerzi",
    "emergency": "disaster_help_point",
    "name": "Notfalltreffpunkt RFO/GFO Kanton Zürich",
    "id": "node/9417237732"
  },
  "geometry": {
    "type": "Point",
    "coordinates": [
      8.5317403,
      47.2876573
    ]
  }
},
{
  "type": "Feature",
  "id": "node/9417237733",
  "properties": {
    "addr:city": "Kyburg",
    "addr:housenumber": "1",
    "addr:postcode": "8314",
    "addr:street": "Allmendstrasse",
    "description": "Schulhaus",
    "emergency": "disaster_help_point",
    "name": "Notfalltreffpunkt RFO/GFO Kanton Zürich",
    "id": "node/9417237733"
  },
  "geometry": {
    "type": "Point",
    "coordinates": [
      8.7434967,
      47.4554435
    ]
  }
},
{
  "type": "Feature",
  "id": "node/9417237734",
  "properties": {
    "addr:city": "Küsnacht",
    "addr:housenumber": "11",
    "addr:postcode": "8700",
    "addr:street": "Johannisburgstrasse",
    "description": "KEK Kunsteisbahn",
    "emergency": "disaster_help_point",
    "name": "Notfalltreffpunkt RFO/GFO Kanton Zürich",
    "id": "node/9417237734"
  },
  "geometry": {
    "type": "Point",
    "coordinates": [
      8.6058054,
      47.3277797
    ]
  }
},
{
  "type": "Feature",
  "id": "node/9417237735",
  "properties": {
    "addr:city": "Küsnacht",
    "addr:housenumber": "37",
    "addr:postcode": "8700",
    "addr:street": "Untere Heslibachstrasse",
    "description": "Turnhalle Heslibach",
    "emergency": "disaster_help_point",
    "name": "Notfalltreffpunkt RFO/GFO Kanton Zürich",
    "id": "node/9417237735"
  },
  "geometry": {
    "type": "Point",
    "coordinates": [
      8.5854895,
      47.3132849
    ]
  }
},
{
  "type": "Feature",
  "id": "node/9417237736",
  "properties": {
    "addr:city": "Kollbrunn",
    "addr:housenumber": "4",
    "addr:postcode": "8483",
    "addr:street": "Dorfstrasse",
    "description": "Primarschulhaus Kollbrunn",
    "emergency": "disaster_help_point",
    "name": "Notfalltreffpunkt RFO/GFO Kanton Zürich",
    "id": "node/9417237736"
  },
  "geometry": {
    "type": "Point",
    "coordinates": [
      8.773995,
      47.4573353
    ]
  }
},
{
  "type": "Feature",
  "id": "node/9417237737",
  "properties": {
    "addr:city": "Knonau",
    "addr:housenumber": "8",
    "addr:postcode": "8934",
    "addr:street": "Stampfistrasse",
    "description": "Mehrzweckgebäude",
    "emergency": "disaster_help_point",
    "name": "Notfalltreffpunkt RFO/GFO Kanton Zürich",
    "id": "node/9417237737"
  },
  "geometry": {
    "type": "Point",
    "coordinates": [
      8.4604163,
      47.2226634
    ]
  }
},
{
  "type": "Feature",
  "id": "node/9417237738",
  "properties": {
    "addr:city": "Kloten",
    "addr:housenumber": "11a",
    "addr:postcode": "8302",
    "addr:street": "Nägelimoosstrasse",
    "description": "Schulanlage Nägelimoos",
    "emergency": "disaster_help_point",
    "name": "Notfalltreffpunkt RFO/GFO Kanton Zürich",
    "id": "node/9417237738"
  },
  "geometry": {
    "type": "Point",
    "coordinates": [
      8.5865512,
      47.4628552
    ]
  }
},
{
  "type": "Feature",
  "id": "node/9417237739",
  "properties": {
    "addr:city": "Kloten",
    "addr:housenumber": "5",
    "addr:postcode": "8302",
    "addr:street": "Gerlisbergstrasse",
    "description": "Schulanlage Dorf und Feld",
    "emergency": "disaster_help_point",
    "name": "Notfalltreffpunkt RFO/GFO Kanton Zürich",
    "id": "node/9417237739"
  },
  "geometry": {
    "type": "Point",
    "coordinates": [
      8.5841817,
      47.4538387
    ]
  }
},
{
  "type": "Feature",
  "id": "node/9417237740",
  "properties": {
    "addr:city": "Kloten",
    "addr:housenumber": "14",
    "addr:postcode": "8302",
    "addr:street": "Lägernstrasse",
    "description": "Schulanlage Hinterwiden",
    "emergency": "disaster_help_point",
    "name": "Notfalltreffpunkt RFO/GFO Kanton Zürich",
    "id": "node/9417237740"
  },
  "geometry": {
    "type": "Point",
    "coordinates": [
      8.5754494,
      47.4467199
    ]
  }
},
{
  "type": "Feature",
  "id": "node/9417237741",
  "properties": {
    "addr:city": "Kloten",
    "addr:housenumber": "29",
    "addr:postcode": "8302",
    "addr:street": "Schulstrasse",
    "description": "Schulhaus Spitz",
    "emergency": "disaster_help_point",
    "name": "Notfalltreffpunkt RFO/GFO Kanton Zürich",
    "id": "node/9417237741"
  },
  "geometry": {
    "type": "Point",
    "coordinates": [
      8.5857583,
      47.4451519
    ]
  }
},
{
  "type": "Feature",
  "id": "node/9417237742",
  "properties": {
    "addr:city": "Kloten",
    "addr:housenumber": "2",
    "addr:postcode": "8302",
    "addr:street": "Talacherstrasse",
    "description": "Sporthalle Ruebisbach",
    "emergency": "disaster_help_point",
    "name": "Notfalltreffpunkt RFO/GFO Kanton Zürich",
    "id": "node/9417237742"
  },
  "geometry": {
    "type": "Point",
    "coordinates": [
      8.5780894,
      47.4622642
    ]
  }
},
{
  "type": "Feature",
  "id": "node/9417237743",
  "properties": {
    "addr:city": "Kloten",
    "addr:housenumber": "10",
    "addr:postcode": "8302",
    "addr:street": "Schluefweg",
    "description": "Zentrum Schluefweg",
    "emergency": "disaster_help_point",
    "name": "Notfalltreffpunkt RFO/GFO Kanton Zürich",
    "id": "node/9417237743"
  },
  "geometry": {
    "type": "Point",
    "coordinates": [
      8.5823164,
      47.4441786
    ]
  }
},
{
  "type": "Feature",
  "id": "node/9417237744",
  "properties": {
    "addr:city": "Kleinandelfingen",
    "addr:housenumber": "7",
    "addr:postcode": "8451",
    "addr:street": "Schulstrasse",
    "description": "Mehrzweckgebäude (Schulgebäude)",
    "emergency": "disaster_help_point",
    "name": "Notfalltreffpunkt RFO/GFO Kanton Zürich",
    "id": "node/9417237744"
  },
  "geometry": {
    "type": "Point",
    "coordinates": [
      8.6854693,
      47.5984644
    ]
  }
},
{
  "type": "Feature",
  "id": "node/9417237745",
  "properties": {
    "addr:city": "Kilchberg",
    "addr:housenumber": "110",
    "addr:postcode": "8802",
    "addr:street": "Alte Landstrasse",
    "description": "Gemeindehaus",
    "emergency": "disaster_help_point",
    "name": "Notfalltreffpunkt RFO/GFO Kanton Zürich",
    "id": "node/9417237745"
  },
  "geometry": {
    "type": "Point",
    "coordinates": [
      8.5449929,
      47.3243038
    ]
  }
},
{
  "type": "Feature",
  "id": "node/9417237746",
  "properties": {
    "addr:city": "Kappel am Albis",
    "addr:housenumber": "4",
    "addr:postcode": "8926",
    "addr:street": "Zur Mühle",
    "description": "Gemeindesaal",
    "emergency": "disaster_help_point",
    "name": "Notfalltreffpunkt RFO/GFO Kanton Zürich",
    "id": "node/9417237746"
  },
  "geometry": {
    "type": "Point",
    "coordinates": [
      8.5261163,
      47.2263797
    ]
  }
},
{
  "type": "Feature",
  "id": "node/9417237747",
  "properties": {
    "addr:city": "Illnau",
    "addr:housenumber": "2",
    "addr:postcode": "8308",
    "addr:street": "Usterstrasse",
    "description": "Hotzehuus",
    "emergency": "disaster_help_point",
    "name": "Notfalltreffpunkt RFO/GFO Kanton Zürich",
    "id": "node/9417237747"
  },
  "geometry": {
    "type": "Point",
    "coordinates": [
      8.7250774,
      47.4083615
    ]
  }
},
{
  "type": "Feature",
  "id": "node/9417237748",
  "properties": {
    "addr:city": "Hüttikon",
    "addr:housenumber": "22",
    "addr:postcode": "8115",
    "addr:street": "Zürcherstrasse",
    "description": "Turnhalle Schulhaus Rotflue",
    "emergency": "disaster_help_point",
    "name": "Notfalltreffpunkt RFO/GFO Kanton Zürich",
    "id": "node/9417237748"
  },
  "geometry": {
    "type": "Point",
    "coordinates": [
      8.3875056,
      47.4459317
    ]
  }
},
{
  "type": "Feature",
  "id": "node/9417237749",
  "properties": {
    "addr:city": "Hüntwangen",
    "addr:housenumber": "10",
    "addr:postcode": "8194",
    "addr:street": "Vorderer Kirchweg",
    "description": "Kirchgemeindehaus",
    "emergency": "disaster_help_point",
    "name": "Notfalltreffpunkt RFO/GFO Kanton Zürich",
    "id": "node/9417237749"
  },
  "geometry": {
    "type": "Point",
    "coordinates": [
      8.4944469,
      47.5958811
    ]
  }
},
{
  "type": "Feature",
  "id": "node/9417237750",
  "properties": {
    "addr:city": "Hüntwangen",
    "addr:housenumber": "1",
    "addr:postcode": "8194",
    "addr:street": "Wolfhagstrasse",
    "description": "Mehrzweckgebäude",
    "emergency": "disaster_help_point",
    "name": "Notfalltreffpunkt RFO/GFO Kanton Zürich",
    "id": "node/9417237750"
  },
  "geometry": {
    "type": "Point",
    "coordinates": [
      8.487716,
      47.5970935
    ]
  }
},
{
  "type": "Feature",
  "id": "node/9417237751",
  "properties": {
    "addr:city": "Höri",
    "addr:housenumber": "15",
    "addr:postcode": "8181",
    "addr:street": "Schulhausstrasse",
    "description": "Glatthalle (Mehrzweckhalle)",
    "emergency": "disaster_help_point",
    "name": "Notfalltreffpunkt RFO/GFO Kanton Zürich",
    "id": "node/9417237751"
  },
  "geometry": {
    "type": "Point",
    "coordinates": [
      8.504559,
      47.5087933
    ]
  }
},
{
  "type": "Feature",
  "id": "node/9417237752",
  "properties": {
    "addr:city": "Horgen",
    "addr:housenumber": "5",
    "addr:postcode": "8810",
    "addr:street": "Waldeggstrasse",
    "description": "Schulhaus",
    "emergency": "disaster_help_point",
    "name": "Notfalltreffpunkt RFO/GFO Kanton Zürich",
    "id": "node/9417237752"
  },
  "geometry": {
    "type": "Point",
    "coordinates": [
      8.6063926,
      47.2452042
    ]
  }
},
{
  "type": "Feature",
  "id": "node/9417237753",
  "properties": {
    "addr:city": "Horgen",
    "addr:housenumber": "10",
    "addr:postcode": "8810",
    "addr:street": "Bahnhofstrasse",
    "description": "Gemeindeverwaltung",
    "emergency": "disaster_help_point",
    "name": "Notfalltreffpunkt RFO/GFO Kanton Zürich",
    "id": "node/9417237753"
  },
  "geometry": {
    "type": "Point",
    "coordinates": [
      8.5975931,
      47.2609633
    ]
  }
},
{
  "type": "Feature",
  "id": "node/9417237754",
  "properties": {
    "addr:city": "Hombrechtikon",
    "addr:housenumber": "2",
    "addr:postcode": "8634",
    "addr:street": "Uerikerstrasse",
    "description": "Mehrzweckgebäude",
    "emergency": "disaster_help_point",
    "name": "Notfalltreffpunkt RFO/GFO Kanton Zürich",
    "id": "node/9417237754"
  },
  "geometry": {
    "type": "Point",
    "coordinates": [
      8.7675644,
      47.2492423
    ]
  }
},
{
  "type": "Feature",
  "id": "node/9417237755",
  "properties": {
    "addr:city": "Hofstetten",
    "addr:housenumber": "5",
    "addr:postcode": "8354",
    "addr:street": "Elggerstrasse",
    "description": "Thurnhalle und Schulhaus",
    "emergency": "disaster_help_point",
    "name": "Notfalltreffpunkt RFO/GFO Kanton Zürich",
    "id": "node/9417237755"
  },
  "geometry": {
    "type": "Point",
    "coordinates": [
      8.8547619,
      47.4740507
    ]
  }
},
{
  "type": "Feature",
  "id": "node/9417237756",
  "properties": {
    "addr:city": "Hochfelden",
    "addr:housenumber": "12",
    "addr:postcode": "8182",
    "addr:street": "Schulhausstrasse",
    "description": "Schulhaus Wisacher",
    "emergency": "disaster_help_point",
    "name": "Notfalltreffpunkt RFO/GFO Kanton Zürich",
    "id": "node/9417237756"
  },
  "geometry": {
    "type": "Point",
    "coordinates": [
      8.5155278,
      47.5260066
    ]
  }
},
{
  "type": "Feature",
  "id": "node/9417237757",
  "properties": {
    "addr:city": "Hittnau",
    "addr:housenumber": "60",
    "addr:postcode": "8335",
    "addr:street": "Jakob Stutz-Strasse",
    "description": "Mehrzweckturnhalle",
    "emergency": "disaster_help_point",
    "name": "Notfalltreffpunkt RFO/GFO Kanton Zürich",
    "id": "node/9417237757"
  },
  "geometry": {
    "type": "Point",
    "coordinates": [
      8.8249924,
      47.3648161
    ]
  }
},
{
  "type": "Feature",
  "id": "node/9417237758",
  "properties": {
    "addr:city": "Hirzel",
    "addr:housenumber": "47",
    "addr:postcode": "8816",
    "addr:street": "Dorfstrasse",
    "description": "Turnhalle",
    "emergency": "disaster_help_point",
    "name": "Notfalltreffpunkt RFO/GFO Kanton Zürich",
    "id": "node/9417237758"
  },
  "geometry": {
    "type": "Point",
    "coordinates": [
      8.6056056,
      47.2158235
    ]
  }
},
{
  "type": "Feature",
  "id": "node/9417237759",
  "properties": {
    "addr:city": "Hinwil",
    "addr:housenumber": "3",
    "addr:postcode": "8340",
    "addr:street": "Gemeindehausstrasse",
    "description": "Schulhaus Meiliwiese",
    "emergency": "disaster_help_point",
    "name": "Notfalltreffpunkt RFO/GFO Kanton Zürich",
    "id": "node/9417237759"
  },
  "geometry": {
    "type": "Point",
    "coordinates": [
      8.8405918,
      47.3013809
    ]
  }
},
{
  "type": "Feature",
  "id": "node/9417237760",
  "properties": {
    "addr:city": "Hettlingen",
    "addr:housenumber": "24",
    "addr:postcode": "8442",
    "addr:street": "Schulstrasse",
    "description": "Mehrzweckhalle",
    "emergency": "disaster_help_point",
    "name": "Notfalltreffpunkt RFO/GFO Kanton Zürich",
    "id": "node/9417237760"
  },
  "geometry": {
    "type": "Point",
    "coordinates": [
      8.7056972,
      47.5489535
    ]
  }
},
{
  "type": "Feature",
  "id": "node/9417237761",
  "properties": {
    "addr:city": "Herrliberg",
    "addr:housenumber": "3",
    "addr:postcode": "8704",
    "addr:street": "Kirchenrank",
    "description": "Öffentlicher Schutzraum",
    "emergency": "disaster_help_point",
    "name": "Notfalltreffpunkt RFO/GFO Kanton Zürich",
    "id": "node/9417237761"
  },
  "geometry": {
    "type": "Point",
    "coordinates": [
      8.6107799,
      47.2844162
    ]
  }
},
{
  "type": "Feature",
  "id": "node/9417237762",
  "properties": {
    "addr:city": "Henggart",
    "addr:housenumber": "15",
    "addr:postcode": "8444",
    "addr:street": "Flaachtalstrasse",
    "description": "Gemeindesaal",
    "emergency": "disaster_help_point",
    "name": "Notfalltreffpunkt RFO/GFO Kanton Zürich",
    "id": "node/9417237762"
  },
  "geometry": {
    "type": "Point",
    "coordinates": [
      8.6811678,
      47.5658236
    ]
  }
},
{
  "type": "Feature",
  "id": "node/9417237763",
  "properties": {
    "addr:city": "Hedingen",
    "addr:housenumber": "6",
    "addr:postcode": "8908",
    "addr:street": "Vordere Zelglistrasse",
    "description": "Schulhaus Schachen",
    "emergency": "disaster_help_point",
    "name": "Notfalltreffpunkt RFO/GFO Kanton Zürich",
    "id": "node/9417237763"
  },
  "geometry": {
    "type": "Point",
    "coordinates": [
      8.4453585,
      47.2967103
    ]
  }
},
{
  "type": "Feature",
  "id": "node/9417237764",
  "properties": {
    "addr:city": "Hausen am Albis",
    "addr:housenumber": "5",
    "addr:postcode": "8915",
    "addr:street": "Schulhausstrasse",
    "description": "Gemeindesaal",
    "emergency": "disaster_help_point",
    "name": "Notfalltreffpunkt RFO/GFO Kanton Zürich",
    "id": "node/9417237764"
  },
  "geometry": {
    "type": "Point",
    "coordinates": [
      8.5364296,
      47.2418171
    ]
  }
},
{
  "type": "Feature",
  "id": "node/9417237765",
  "properties": {
    "addr:city": "Hagenbuch",
    "addr:housenumber": "1",
    "addr:postcode": "8523",
    "addr:street": "Dorfplatz",
    "description": "Gemeindehaus / Gemeindesaal",
    "emergency": "disaster_help_point",
    "name": "Notfalltreffpunkt RFO/GFO Kanton Zürich",
    "id": "node/9417237765"
  },
  "geometry": {
    "type": "Point",
    "coordinates": [
      8.8881468,
      47.5209263
    ]
  }
},
{
  "type": "Feature",
  "id": "node/9417237766",
  "properties": {
    "addr:city": "Gundetswil",
    "addr:housenumber": "1",
    "addr:postcode": "8543",
    "addr:street": "Liebensbergerstrasse",
    "description": "Werkgebäude",
    "emergency": "disaster_help_point",
    "name": "Notfalltreffpunkt RFO/GFO Kanton Zürich",
    "id": "node/9417237766"
  },
  "geometry": {
    "type": "Point",
    "coordinates": [
      8.8250661,
      47.5400938
    ]
  }
},
{
  "type": "Feature",
  "id": "node/9417237767",
  "properties": {
    "addr:city": "Grüt",
    "addr:housenumber": "14",
    "addr:postcode": "8624",
    "addr:street": "Wolfrichtistrasse",
    "description": "Schulhaus Wolfrichti",
    "emergency": "disaster_help_point",
    "name": "Notfalltreffpunkt RFO/GFO Kanton Zürich",
    "id": "node/9417237767"
  },
  "geometry": {
    "type": "Point",
    "coordinates": [
      8.7846352,
      47.3106565
    ]
  }
},
{
  "type": "Feature",
  "id": "node/9417237768",
  "properties": {
    "addr:city": "Grüningen",
    "addr:housenumber": "4",
    "addr:postcode": "8627",
    "addr:street": "Werkstrasse",
    "description": "Werkhof",
    "emergency": "disaster_help_point",
    "name": "Notfalltreffpunkt RFO/GFO Kanton Zürich",
    "id": "node/9417237768"
  },
  "geometry": {
    "type": "Point",
    "coordinates": [
      8.7574509,
      47.2837494
    ]
  }
},
{
  "type": "Feature",
  "id": "node/9417237769",
  "properties": {
    "addr:city": "Greifensee",
    "addr:housenumber": "13.2",
    "addr:postcode": "8606",
    "addr:street": "Breitistrasse",
    "description": "Sporthalle",
    "emergency": "disaster_help_point",
    "name": "Notfalltreffpunkt RFO/GFO Kanton Zürich",
    "id": "node/9417237769"
  },
  "geometry": {
    "type": "Point",
    "coordinates": [
      8.678124,
      47.367667
    ]
  }
},
{
  "type": "Feature",
  "id": "node/9417237770",
  "properties": {
    "addr:city": "Grafstal",
    "addr:housenumber": "3",
    "addr:postcode": "8310",
    "addr:street": "Rütelistrasse",
    "description": "Schulhaus Grafstal",
    "emergency": "disaster_help_point",
    "name": "Notfalltreffpunkt RFO/GFO Kanton Zürich",
    "id": "node/9417237770"
  },
  "geometry": {
    "type": "Point",
    "coordinates": [
      8.69791,
      47.442402
    ]
  }
},
{
  "type": "Feature",
  "id": "node/9417237771",
  "properties": {
    "addr:city": "Gossau",
    "addr:housenumber": "4",
    "addr:postcode": "8625",
    "addr:street": "Berghofstrasse",
    "description": "Gemeindehaus",
    "emergency": "disaster_help_point",
    "name": "Notfalltreffpunkt RFO/GFO Kanton Zürich",
    "id": "node/9417237771"
  },
  "geometry": {
    "type": "Point",
    "coordinates": [
      8.762616,
      47.3017177
    ]
  }
},
{
  "type": "Feature",
  "id": "node/9417237772",
  "properties": {
    "addr:city": "Gockhausen",
    "addr:housenumber": "22",
    "addr:postcode": "8044",
    "addr:street": "Tüfweg",
    "description": "Turnhalle Schulhaus Gockhausen",
    "emergency": "disaster_help_point",
    "name": "Notfalltreffpunkt RFO/GFO Kanton Zürich",
    "id": "node/9417237772"
  },
  "geometry": {
    "type": "Point",
    "coordinates": [
      8.6012255,
      47.3829221
    ]
  }
},
{
  "type": "Feature",
  "id": "node/9417237773",
  "properties": {
    "addr:city": "Glattfelden",
    "addr:housenumber": "4",
    "addr:postcode": "8192",
    "addr:street": "Sportweg",
    "description": "Mehrzweckhalle \"Eichhölzli\"",
    "emergency": "disaster_help_point",
    "name": "Notfalltreffpunkt RFO/GFO Kanton Zürich",
    "id": "node/9417237773"
  },
  "geometry": {
    "type": "Point",
    "coordinates": [
      8.5060441,
      47.5536718
    ]
  }
},
{
  "type": "Feature",
  "id": "node/9417237774",
  "properties": {
    "addr:city": "Geroldswil",
    "addr:housenumber": "34",
    "addr:postcode": "8954",
    "addr:street": "Huebwiesenstrasse",
    "description": "Gemeindeverwaltung",
    "emergency": "disaster_help_point",
    "name": "Notfalltreffpunkt RFO/GFO Kanton Zürich",
    "id": "node/9417237774"
  },
  "geometry": {
    "type": "Point",
    "coordinates": [
      8.4100234,
      47.4221425
    ]
  }
},
{
  "type": "Feature",
  "id": "node/9417237775",
  "properties": {
    "addr:city": "Gattikon",
    "addr:housenumber": "2",
    "addr:postcode": "8136",
    "addr:street": "Obstgartenstrasse",
    "description": "Schulhaus",
    "emergency": "disaster_help_point",
    "name": "Notfalltreffpunkt RFO/GFO Kanton Zürich",
    "id": "node/9417237775"
  },
  "geometry": {
    "type": "Point",
    "coordinates": [
      8.5515744,
      47.2821243
    ]
  }
},
{
  "type": "Feature",
  "id": "node/9417237776",
  "properties": {
    "addr:city": "Freienstein",
    "addr:housenumber": "7",
    "addr:postcode": "8427",
    "addr:street": "Dorfstrasse",
    "description": "Gemeindesaal",
    "emergency": "disaster_help_point",
    "name": "Notfalltreffpunkt RFO/GFO Kanton Zürich",
    "id": "node/9417237776"
  },
  "geometry": {
    "type": "Point",
    "coordinates": [
      8.5829261,
      47.5305144
    ]
  }
},
{
  "type": "Feature",
  "id": "node/9417237777",
  "properties": {
    "addr:city": "Forch",
    "addr:housenumber": "17",
    "addr:postcode": "8127",
    "addr:street": "Aeschstrasse",
    "description": "Schulhausanlage",
    "emergency": "disaster_help_point",
    "name": "Notfalltreffpunkt RFO/GFO Kanton Zürich",
    "id": "node/9417237777"
  },
  "geometry": {
    "type": "Point",
    "coordinates": [
      8.6555953,
      47.3267796
    ]
  }
},
{
  "type": "Feature",
  "id": "node/9417237778",
  "properties": {
    "addr:city": "Forch",
    "addr:housenumber": "3",
    "addr:postcode": "8127",
    "addr:street": "Wangen",
    "description": "Schulhaus Limberg",
    "emergency": "disaster_help_point",
    "name": "Notfalltreffpunkt RFO/GFO Kanton Zürich",
    "id": "node/9417237778"
  },
  "geometry": {
    "type": "Point",
    "coordinates": [
      8.6352472,
      47.3202908
    ]
  }
},
{
  "type": "Feature",
  "id": "node/9417237779",
  "properties": {
    "addr:city": "Flurlingen",
    "addr:housenumber": "33",
    "addr:postcode": "8247",
    "addr:street": "Gründenstrasse",
    "description": "Rheintalparkplatz / Rheintalsaal",
    "emergency": "disaster_help_point",
    "name": "Notfalltreffpunkt RFO/GFO Kanton Zürich",
    "id": "node/9417237779"
  },
  "geometry": {
    "type": "Point",
    "coordinates": [
      8.626721,
      47.6858865
    ]
  }
},
{
  "type": "Feature",
  "id": "node/9417237780",
  "properties": {
    "addr:city": "Flaach",
    "addr:housenumber": "15",
    "addr:postcode": "8416",
    "addr:street": "Botzengasse",
    "description": "Mehrzweckhalle (Worbighalle)",
    "emergency": "disaster_help_point",
    "name": "Notfalltreffpunkt RFO/GFO Kanton Zürich",
    "id": "node/9417237780"
  },
  "geometry": {
    "type": "Point",
    "coordinates": [
      8.6127809,
      47.577366
    ]
  }
},
{
  "type": "Feature",
  "id": "node/9417237781",
  "properties": {
    "addr:city": "Fischental",
    "addr:housenumber": "432",
    "addr:postcode": "8497",
    "addr:street": "Tösstalstrasse",
    "description": "Gemeindesaal",
    "emergency": "disaster_help_point",
    "name": "Notfalltreffpunkt RFO/GFO Kanton Zürich",
    "id": "node/9417237781"
  },
  "geometry": {
    "type": "Point",
    "coordinates": [
      8.9200754,
      47.3315224
    ]
  }
},
{
  "type": "Feature",
  "id": "node/9417237782",
  "properties": {
    "addr:city": "Feuerthalen",
    "addr:housenumber": "4",
    "addr:postcode": "8245",
    "addr:street": "Erlenstrasse",
    "description": "Mehrzweckhalle",
    "emergency": "disaster_help_point",
    "name": "Notfalltreffpunkt RFO/GFO Kanton Zürich",
    "id": "node/9417237782"
  },
  "geometry": {
    "type": "Point",
    "coordinates": [
      8.6480499,
      47.6872134
    ]
  }
},
{
  "type": "Feature",
  "id": "node/9417237783",
  "properties": {
    "addr:city": "Fehraltorf",
    "addr:housenumber": "22",
    "addr:postcode": "8320",
    "addr:street": "Schulhausstrasse",
    "description": "Heiget Huus",
    "emergency": "disaster_help_point",
    "name": "Notfalltreffpunkt RFO/GFO Kanton Zürich",
    "id": "node/9417237783"
  },
  "geometry": {
    "type": "Point",
    "coordinates": [
      8.7551854,
      47.3886193
    ]
  }
},
{
  "type": "Feature",
  "id": "node/9417237784",
  "properties": {
    "addr:city": "Fällanden",
    "addr:housenumber": "13",
    "addr:postcode": "8117",
    "addr:street": "Wigartenstrasse",
    "description": "Zwicky-Fabrik",
    "emergency": "disaster_help_point",
    "name": "Notfalltreffpunkt RFO/GFO Kanton Zürich",
    "id": "node/9417237784"
  },
  "geometry": {
    "type": "Point",
    "coordinates": [
      8.6428125,
      47.3706313
    ]
  }
},
{
  "type": "Feature",
  "id": "node/9417237785",
  "properties": {
    "addr:city": "Esslingen",
    "addr:housenumber": "27",
    "addr:postcode": "8133",
    "addr:street": "Vogelsangstrasse",
    "description": "Schulanlage Vogelsang",
    "emergency": "disaster_help_point",
    "name": "Notfalltreffpunkt RFO/GFO Kanton Zürich",
    "id": "node/9417237785"
  },
  "geometry": {
    "type": "Point",
    "coordinates": [
      8.7105965,
      47.2908247
    ]
  }
},
{
  "type": "Feature",
  "id": "node/9417237786",
  "properties": {
    "addr:city": "Erlenbach",
    "addr:housenumber": "32",
    "addr:postcode": "8703",
    "addr:street": "Schulhausstrasse",
    "description": "Feuerwehrgebäude",
    "emergency": "disaster_help_point",
    "name": "Notfalltreffpunkt RFO/GFO Kanton Zürich",
    "id": "node/9417237786"
  },
  "geometry": {
    "type": "Point",
    "coordinates": [
      8.5932615,
      47.3026468
    ]
  }
},
{
  "type": "Feature",
  "id": "node/9417237787",
  "properties": {
    "addr:city": "Embrach",
    "addr:housenumber": "9",
    "addr:postcode": "8424",
    "addr:street": "Dorfstrasse",
    "description": "Gemeindesaal",
    "emergency": "disaster_help_point",
    "name": "Notfalltreffpunkt RFO/GFO Kanton Zürich",
    "id": "node/9417237787"
  },
  "geometry": {
    "type": "Point",
    "coordinates": [
      8.5946251,
      47.5023614
    ]
  }
},
{
  "type": "Feature",
  "id": "node/9417237788",
  "properties": {
    "addr:city": "Elsau",
    "addr:housenumber": "5",
    "addr:postcode": "8352",
    "addr:street": "Im Ebnet",
    "description": "Mehrzweckhalle",
    "emergency": "disaster_help_point",
    "name": "Notfalltreffpunkt RFO/GFO Kanton Zürich",
    "id": "node/9417237788"
  },
  "geometry": {
    "type": "Point",
    "coordinates": [
      8.8000508,
      47.502188
    ]
  }
},
{
  "type": "Feature",
  "id": "node/9417237789",
  "properties": {
    "addr:city": "Ellikon an der Thur",
    "addr:housenumber": "5",
    "addr:postcode": "8548",
    "addr:street": "Bürglistrass",
    "description": "Gemeindesaal",
    "emergency": "disaster_help_point",
    "name": "Notfalltreffpunkt RFO/GFO Kanton Zürich",
    "id": "node/9417237789"
  },
  "geometry": {
    "type": "Point",
    "coordinates": [
      8.8271394,
      47.5635103
    ]
  }
},
{
  "type": "Feature",
  "id": "node/9417237790",
  "properties": {
    "addr:city": "Elgg",
    "addr:housenumber": "6",
    "addr:postcode": "8353",
    "addr:street": "Oberhofstrasse",
    "description": "Mehrzweckgebäude",
    "emergency": "disaster_help_point",
    "name": "Notfalltreffpunkt RFO/GFO Kanton Zürich",
    "id": "node/9417237790"
  },
  "geometry": {
    "type": "Point",
    "coordinates": [
      8.8713063,
      47.4902997
    ]
  }
},
{
  "type": "Feature",
  "id": "node/9417237791",
  "properties": {
    "addr:city": "Eglisau",
    "addr:housenumber": "72",
    "addr:postcode": "8193",
    "addr:street": "Rhihaldenstrasse",
    "description": "Schulhaus Steinboden",
    "emergency": "disaster_help_point",
    "name": "Notfalltreffpunkt RFO/GFO Kanton Zürich",
    "id": "node/9417237791"
  },
  "geometry": {
    "type": "Point",
    "coordinates": [
      8.5323999,
      47.5715142
    ]
  }
},
{
  "type": "Feature",
  "id": "node/9417237792",
  "properties": {
    "addr:city": "Eglisau",
    "addr:housenumber": "61",
    "addr:postcode": "8193",
    "addr:street": "Obergass",
    "description": "Schulhaus Städtli",
    "emergency": "disaster_help_point",
    "name": "Notfalltreffpunkt RFO/GFO Kanton Zürich",
    "id": "node/9417237792"
  },
  "geometry": {
    "type": "Point",
    "coordinates": [
      8.5265026,
      47.5755992
    ]
  }
},
{
  "type": "Feature",
  "id": "node/9417237793",
  "properties": {
    "addr:city": "Egg",
    "addr:housenumber": "1",
    "addr:postcode": "8132",
    "addr:street": "Kirchwiesweg",
    "description": "Dreifachturnhalle",
    "emergency": "disaster_help_point",
    "name": "Notfalltreffpunkt RFO/GFO Kanton Zürich",
    "id": "node/9417237793"
  },
  "geometry": {
    "type": "Point",
    "coordinates": [
      8.692682,
      47.2998546
    ]
  }
},
{
  "type": "Feature",
  "id": "node/9417237794",
  "properties": {
    "addr:city": "Effretikon",
    "addr:housenumber": "29",
    "addr:postcode": "8307",
    "addr:street": "Märtplatz",
    "description": "Stadthaus",
    "emergency": "disaster_help_point",
    "name": "Notfalltreffpunkt RFO/GFO Kanton Zürich",
    "id": "node/9417237794"
  },
  "geometry": {
    "type": "Point",
    "coordinates": [
      8.6861576,
      47.4274894
    ]
  }
},
{
  "type": "Feature",
  "id": "node/9417237795",
  "properties": {
    "addr:city": "Ebmatingen",
    "addr:housenumber": "6",
    "addr:postcode": "8123",
    "addr:street": "Leeacherstrasse",
    "description": "Schulhausanlage",
    "emergency": "disaster_help_point",
    "name": "Notfalltreffpunkt RFO/GFO Kanton Zürich",
    "id": "node/9417237795"
  },
  "geometry": {
    "type": "Point",
    "coordinates": [
      8.6373492,
      47.3526165
    ]
  }
},
{
  "type": "Feature",
  "id": "node/9417237796",
  "properties": {
    "addr:city": "Dübendorf",
    "addr:housenumber": "37",
    "addr:postcode": "8600",
    "addr:street": "Bahnhofstrasse",
    "description": "Reformiertes Kirchenzentrum REZ",
    "emergency": "disaster_help_point",
    "name": "Notfalltreffpunkt RFO/GFO Kanton Zürich",
    "id": "node/9417237796"
  },
  "geometry": {
    "type": "Point",
    "coordinates": [
      8.6201595,
      47.3988225
    ]
  }
},
{
  "type": "Feature",
  "id": "node/9417237797",
  "properties": {
    "addr:city": "Dübendorf",
    "addr:housenumber": "15",
    "addr:postcode": "8600",
    "addr:street": "Lägernstrasse",
    "description": "Sporthalle Stägenbuck",
    "emergency": "disaster_help_point",
    "name": "Notfalltreffpunkt RFO/GFO Kanton Zürich",
    "id": "node/9417237797"
  },
  "geometry": {
    "type": "Point",
    "coordinates": [
      8.6219474,
      47.4029689
    ]
  }
},
{
  "type": "Feature",
  "id": "node/9417237798",
  "properties": {
    "addr:city": "Dübendorf",
    "addr:housenumber": "14",
    "addr:postcode": "8600",
    "addr:street": "Leepüntstrasse",
    "description": "Katholisches Pfarreizentrum",
    "emergency": "disaster_help_point",
    "name": "Notfalltreffpunkt RFO/GFO Kanton Zürich",
    "id": "node/9417237798"
  },
  "geometry": {
    "type": "Point",
    "coordinates": [
      8.6182913,
      47.3958192
    ]
  }
},
{
  "type": "Feature",
  "id": "node/9417237799",
  "properties": {
    "addr:city": "Dorf",
    "addr:housenumber": "2",
    "addr:postcode": "8458",
    "addr:street": "Dorfstrasse",
    "description": "Gemeindehaus",
    "emergency": "disaster_help_point",
    "name": "Notfalltreffpunkt RFO/GFO Kanton Zürich",
    "id": "node/9417237799"
  },
  "geometry": {
    "type": "Point",
    "coordinates": [
      8.6467012,
      47.490793
    ]
  }
},
{
  "type": "Feature",
  "id": "node/9417237800",
  "properties": {
    "addr:city": "Dinhard",
    "addr:housenumber": "51",
    "addr:postcode": "8474",
    "addr:street": "Ebnetstrasse",
    "description": "Primarschule Dinhard",
    "emergency": "disaster_help_point",
    "name": "Notfalltreffpunkt RFO/GFO Kanton Zürich",
    "id": "node/9417237800"
  },
  "geometry": {
    "type": "Point",
    "coordinates": [
      8.7646302,
      47.5568124
    ]
  }
},
{
  "type": "Feature",
  "id": "node/9417237801",
  "properties": {
    "addr:city": "Dietlikon",
    "addr:housenumber": "2",
    "addr:postcode": "8305",
    "addr:street": "Fuchshalde",
    "description": "Mehrzweckhalle",
    "emergency": "disaster_help_point",
    "name": "Notfalltreffpunkt RFO/GFO Kanton Zürich",
    "id": "node/9417237801"
  },
  "geometry": {
    "type": "Point",
    "coordinates": [
      8.6151721,
      47.4201379
    ]
  }
},
{
  "type": "Feature",
  "id": "node/9417237802",
  "properties": {
    "addr:city": "Dietikon",
    "addr:postcode": "8953",
    "addr:street": "Rapidplatz",
    "description": "Öffentlicher Platz",
    "emergency": "disaster_help_point",
    "name": "Notfalltreffpunkt RFO/GFO Kanton Zürich",
    "id": "node/9417237802"
  },
  "geometry": {
    "type": "Point",
    "coordinates": [
      8.40486,
      47.41005
    ]
  }
},
{
  "type": "Feature",
  "id": "node/9417237803",
  "properties": {
    "addr:city": "Dietikon",
    "addr:housenumber": "70",
    "addr:postcode": "8953",
    "addr:street": "Schöneggstrasse",
    "description": "Schulhaus Wolfsmatt",
    "emergency": "disaster_help_point",
    "name": "Notfalltreffpunkt RFO/GFO Kanton Zürich",
    "id": "node/9417237803"
  },
  "geometry": {
    "type": "Point",
    "coordinates": [
      8.4086469,
      47.3989564
    ]
  }
},
{
  "type": "Feature",
  "id": "node/9417237804",
  "properties": {
    "addr:city": "Dietikon",
    "addr:housenumber": "15",
    "addr:postcode": "8953",
    "addr:street": "Fondlistrasse",
    "description": "Stadthalle",
    "emergency": "disaster_help_point",
    "name": "Notfalltreffpunkt RFO/GFO Kanton Zürich",
    "id": "node/9417237804"
  },
  "geometry": {
    "type": "Point",
    "coordinates": [
      8.3869167,
      47.4071913
    ]
  }
},
{
  "type": "Feature",
  "id": "node/9417237805",
  "properties": {
    "addr:city": "Dietikon",
    "addr:housenumber": "22",
    "addr:postcode": "8953",
    "addr:street": "Bremgartnerstrasse",
    "description": "Stadthaus",
    "emergency": "disaster_help_point",
    "name": "Notfalltreffpunkt RFO/GFO Kanton Zürich",
    "id": "node/9417237805"
  },
  "geometry": {
    "type": "Point",
    "coordinates": [
      8.4009419,
      47.4029065
    ]
  }
},
{
  "type": "Feature",
  "id": "node/9417237806",
  "properties": {
    "addr:city": "Dielsdorf",
    "addr:housenumber": "5",
    "addr:postcode": "8157",
    "addr:street": "Früeblistrasse",
    "description": "Schulanlage Früebli",
    "emergency": "disaster_help_point",
    "name": "Notfalltreffpunkt RFO/GFO Kanton Zürich",
    "id": "node/9417237806"
  },
  "geometry": {
    "type": "Point",
    "coordinates": [
      8.455483,
      47.4811533
    ]
  }
},
{
  "type": "Feature",
  "id": "node/9417237807",
  "properties": {
    "addr:city": "Dättlikon",
    "addr:housenumber": "3",
    "addr:postcode": "8421",
    "addr:street": "Schulstrasse",
    "description": "Turnhalle Schulhaus",
    "emergency": "disaster_help_point",
    "name": "Notfalltreffpunkt RFO/GFO Kanton Zürich",
    "id": "node/9417237807"
  },
  "geometry": {
    "type": "Point",
    "coordinates": [
      8.6214846,
      47.5247303
    ]
  }
},
{
  "type": "Feature",
  "id": "node/9417237808",
  "properties": {
    "addr:city": "Dänikon",
    "addr:housenumber": "1",
    "addr:postcode": "8114",
    "addr:street": "Oberdorfstrasse",
    "description": "Gemeindesaal",
    "emergency": "disaster_help_point",
    "name": "Notfalltreffpunkt RFO/GFO Kanton Zürich",
    "id": "node/9417237808"
  },
  "geometry": {
    "type": "Point",
    "coordinates": [
      8.4055852,
      47.4455931
    ]
  }
},
{
  "type": "Feature",
  "id": "node/9417237809",
  "properties": {
    "addr:city": "Dällikon",
    "addr:housenumber": "6",
    "addr:postcode": "8108",
    "addr:street": "Schulstrasse",
    "description": "Mehrzweckhalle Leepünt",
    "emergency": "disaster_help_point",
    "name": "Notfalltreffpunkt RFO/GFO Kanton Zürich",
    "id": "node/9417237809"
  },
  "geometry": {
    "type": "Point",
    "coordinates": [
      8.4391308,
      47.4385168
    ]
  }
},
{
  "type": "Feature",
  "id": "node/9417237810",
  "properties": {
    "addr:city": "Dachsen",
    "addr:housenumber": "1",
    "addr:postcode": "8447",
    "addr:street": "Dorfstrasse",
    "description": "Mehrzweckgebäude",
    "emergency": "disaster_help_point",
    "name": "Notfalltreffpunkt RFO/GFO Kanton Zürich",
    "id": "node/9417237810"
  },
  "geometry": {
    "type": "Point",
    "coordinates": [
      8.6152969,
      47.6674924
    ]
  }
},
{
  "type": "Feature",
  "id": "node/9417237811",
  "properties": {
    "addr:city": "Bülach",
    "addr:housenumber": "16",
    "addr:postcode": "8180",
    "addr:street": "Schulweg",
    "description": "Schulhaus Eschenmosen",
    "emergency": "disaster_help_point",
    "name": "Notfalltreffpunkt RFO/GFO Kanton Zürich",
    "id": "node/9417237811"
  },
  "geometry": {
    "type": "Point",
    "coordinates": [
      8.5658357,
      47.5162094
    ]
  }
},
{
  "type": "Feature",
  "id": "node/9417237812",
  "properties": {
    "addr:city": "Bülach",
    "addr:housenumber": "100",
    "addr:postcode": "8180",
    "addr:street": "Dachslenbergstrasse",
    "description": "Rest. Sternen in Nussbaumen",
    "emergency": "disaster_help_point",
    "name": "Notfalltreffpunkt RFO/GFO Kanton Zürich",
    "id": "node/9417237812"
  },
  "geometry": {
    "type": "Point",
    "coordinates": [
      8.556199,
      47.5308563
    ]
  }
},
{
  "type": "Feature",
  "id": "node/9417237813",
  "properties": {
    "addr:city": "Bülach",
    "addr:housenumber": "51",
    "addr:postcode": "8180",
    "addr:street": "Unterweg",
    "description": "Schulhaus Hohfuri",
    "emergency": "disaster_help_point",
    "name": "Notfalltreffpunkt RFO/GFO Kanton Zürich",
    "id": "node/9417237813"
  },
  "geometry": {
    "type": "Point",
    "coordinates": [
      8.5438116,
      47.5265587
    ]
  }
},
{
  "type": "Feature",
  "id": "node/9417237814",
  "properties": {
    "addr:city": "Bülach",
    "addr:housenumber": "8",
    "addr:postcode": "8180",
    "addr:street": "Allmendstrasse",
    "description": "Stadthalle",
    "emergency": "disaster_help_point",
    "name": "Notfalltreffpunkt RFO/GFO Kanton Zürich",
    "id": "node/9417237814"
  },
  "geometry": {
    "type": "Point",
    "coordinates": [
      8.5367574,
      47.5155084
    ]
  }
},
{
  "type": "Feature",
  "id": "node/9417237815",
  "properties": {
    "addr:city": "Buchs",
    "addr:housenumber": "1a",
    "addr:postcode": "8107",
    "addr:street": "Drisglerstrasse",
    "description": "Mehrzweckgebäude Petermoos",
    "emergency": "disaster_help_point",
    "name": "Notfalltreffpunkt RFO/GFO Kanton Zürich",
    "id": "node/9417237815"
  },
  "geometry": {
    "type": "Point",
    "coordinates": [
      8.4446904,
      47.4570068
    ]
  }
},
{
  "type": "Feature",
  "id": "node/9417237816",
  "properties": {
    "addr:city": "Buch am Irchel",
    "addr:housenumber": "5",
    "addr:postcode": "8414",
    "addr:street": "Aspenstrasse",
    "description": "Irchelhalle",
    "emergency": "disaster_help_point",
    "name": "Notfalltreffpunkt RFO/GFO Kanton Zürich",
    "id": "node/9417237816"
  },
  "geometry": {
    "type": "Point",
    "coordinates": [
      8.6189439,
      47.5478548
    ]
  }
},
{
  "type": "Feature",
  "id": "node/9417237817",
  "properties": {
    "addr:city": "Bubikon",
    "addr:housenumber": "7",
    "addr:postcode": "8608",
    "addr:street": "Mittlistbergweg",
    "description": "Schulhaus Mitlistberg",
    "emergency": "disaster_help_point",
    "name": "Notfalltreffpunkt RFO/GFO Kanton Zürich",
    "id": "node/9417237817"
  },
  "geometry": {
    "type": "Point",
    "coordinates": [
      8.8154828,
      47.267715
    ]
  }
},
{
  "type": "Feature",
  "id": "node/9417237818",
  "properties": {
    "addr:city": "Brüttisellen",
    "addr:housenumber": "10",
    "addr:postcode": "8306",
    "addr:street": "Schüracherstrasse",
    "description": "Gsellhof / Gemeindesaal",
    "emergency": "disaster_help_point",
    "name": "Notfalltreffpunkt RFO/GFO Kanton Zürich",
    "id": "node/9417237818"
  },
  "geometry": {
    "type": "Point",
    "coordinates": [
      8.6304721,
      47.422167
    ]
  }
},
{
  "type": "Feature",
  "id": "node/9417237819",
  "properties": {
    "addr:city": "Brütten",
    "addr:housenumber": "7",
    "addr:postcode": "8311",
    "addr:street": "Brüelgasse",
    "description": "Gemeindesaal",
    "emergency": "disaster_help_point",
    "name": "Notfalltreffpunkt RFO/GFO Kanton Zürich",
    "id": "node/9417237819"
  },
  "geometry": {
    "type": "Point",
    "coordinates": [
      8.6757902,
      47.4730533
    ]
  }
},
{
  "type": "Feature",
  "id": "node/9417237820",
  "properties": {
    "addr:city": "Boppelsen",
    "addr:housenumber": "2",
    "addr:postcode": "8113",
    "addr:street": "Oberdorfstrasse",
    "description": "Merzweckhalle",
    "emergency": "disaster_help_point",
    "name": "Notfalltreffpunkt RFO/GFO Kanton Zürich",
    "id": "node/9417237820"
  },
  "geometry": {
    "type": "Point",
    "coordinates": [
      8.4026059,
      47.4707132
    ]
  }
},
{
  "type": "Feature",
  "id": "node/9417237821",
  "properties": {
    "addr:city": "Bonstetten",
    "addr:housenumber": "2",
    "addr:postcode": "8906",
    "addr:street": "Schuelrain",
    "description": "Schulhaus",
    "emergency": "disaster_help_point",
    "name": "Notfalltreffpunkt RFO/GFO Kanton Zürich",
    "id": "node/9417237821"
  },
  "geometry": {
    "type": "Point",
    "coordinates": [
      8.4711114,
      47.3231535
    ]
  }
},
{
  "type": "Feature",
  "id": "node/9417237822",
  "properties": {
    "addr:city": "Bonstetten",
    "addr:housenumber": "4",
    "addr:postcode": "8906",
    "addr:street": "Am Rainli",
    "description": "Gemeindesaal",
    "emergency": "disaster_help_point",
    "name": "Notfalltreffpunkt RFO/GFO Kanton Zürich",
    "id": "node/9417237822"
  },
  "geometry": {
    "type": "Point",
    "coordinates": [
      8.4673612,
      47.3145876
    ]
  }
},
{
  "type": "Feature",
  "id": "node/9417237823",
  "properties": {
    "addr:city": "Birmensdorf",
    "addr:housenumber": "10",
    "addr:postcode": "8903",
    "addr:street": "Dorfstrasse",
    "description": "Gemeindezentrum Brüelmatt (Mehrzweckgebäude)",
    "emergency": "disaster_help_point",
    "name": "Notfalltreffpunkt RFO/GFO Kanton Zürich",
    "id": "node/9417237823"
  },
  "geometry": {
    "type": "Point",
    "coordinates": [
      8.4390482,
      47.3536863
    ]
  }
},
{
  "type": "Feature",
  "id": "node/9417237824",
  "properties": {
    "addr:city": "Binz",
    "addr:housenumber": "2",
    "addr:postcode": "8122",
    "addr:street": "Gassacherstrasse",
    "description": "Schulhausanlage",
    "emergency": "disaster_help_point",
    "name": "Notfalltreffpunkt RFO/GFO Kanton Zürich",
    "id": "node/9417237824"
  },
  "geometry": {
    "type": "Point",
    "coordinates": [
      8.628951,
      47.3570841
    ]
  }
},
{
  "type": "Feature",
  "id": "node/9417237825",
  "properties": {
    "addr:city": "Bertschikon",
    "addr:housenumber": "8",
    "addr:postcode": "8614",
    "addr:street": "Männetsrietstrasse",
    "description": "Schulhaus Männetsriet",
    "emergency": "disaster_help_point",
    "name": "Notfalltreffpunkt RFO/GFO Kanton Zürich",
    "id": "node/9417237825"
  },
  "geometry": {
    "type": "Point",
    "coordinates": [
      8.7603516,
      47.3229555
    ]
  }
},
{
  "type": "Feature",
  "id": "node/9417237826",
  "properties": {
    "addr:city": "Berg am Irchel",
    "addr:housenumber": "13",
    "addr:postcode": "8415",
    "addr:street": "Winkel",
    "description": "Landihaus (Gemeindesaal)",
    "emergency": "disaster_help_point",
    "name": "Notfalltreffpunkt RFO/GFO Kanton Zürich",
    "id": "node/9417237826"
  },
  "geometry": {
    "type": "Point",
    "coordinates": [
      8.5972446,
      47.5689684
    ]
  }
},
{
  "type": "Feature",
  "id": "node/9417237827",
  "properties": {
    "addr:city": "Benken",
    "addr:housenumber": "3",
    "addr:postcode": "8463",
    "addr:street": "Schulstrasse",
    "description": "Turnhalle Primarschule",
    "emergency": "disaster_help_point",
    "name": "Notfalltreffpunkt RFO/GFO Kanton Zürich",
    "id": "node/9417237827"
  },
  "geometry": {
    "type": "Point",
    "coordinates": [
      8.6546756,
      47.6514725
    ]
  }
},
{
  "type": "Feature",
  "id": "node/9417237828",
  "properties": {
    "addr:city": "Sternenberg",
    "addr:housenumber": "2",
    "addr:postcode": "8499",
    "addr:street": "Dorfstrasse",
    "description": "Feuerwehrdepot",
    "emergency": "disaster_help_point",
    "name": "Notfalltreffpunkt RFO/GFO Kanton Zürich",
    "id": "node/9417237828"
  },
  "geometry": {
    "type": "Point",
    "coordinates": [
      8.9154082,
      47.3851798
    ]
  }
},
{
  "type": "Feature",
  "id": "node/9417237829",
  "properties": {
    "addr:city": "Saland",
    "addr:housenumber": "27",
    "addr:postcode": "8493",
    "addr:street": "Haselhalden",
    "description": "Schulhaus",
    "emergency": "disaster_help_point",
    "name": "Notfalltreffpunkt RFO/GFO Kanton Zürich",
    "id": "node/9417237829"
  },
  "geometry": {
    "type": "Point",
    "coordinates": [
      8.8592001,
      47.3834019
    ]
  }
},
{
  "type": "Feature",
  "id": "node/9417237830",
  "properties": {
    "addr:city": "Bauma",
    "addr:housenumber": "4",
    "addr:postcode": "8494",
    "addr:street": "Altlandenbergstrasse",
    "description": "Schulhaus mit Merhrzweckareal",
    "emergency": "disaster_help_point",
    "name": "Notfalltreffpunkt RFO/GFO Kanton Zürich",
    "id": "node/9417237830"
  },
  "geometry": {
    "type": "Point",
    "coordinates": [
      8.8724363,
      47.3707703
    ]
  }
},
{
  "type": "Feature",
  "id": "node/9417237831",
  "properties": {
    "addr:city": "Bassersdorf",
    "addr:housenumber": "1",
    "addr:postcode": "8303",
    "addr:street": "Möslistrasse",
    "description": "Turnhalle Schulhaus Mösli",
    "emergency": "disaster_help_point",
    "name": "Notfalltreffpunkt RFO/GFO Kanton Zürich",
    "id": "node/9417237831"
  },
  "geometry": {
    "type": "Point",
    "coordinates": [
      8.630533,
      47.4462014
    ]
  }
},
{
  "type": "Feature",
  "id": "node/9417237832",
  "properties": {
    "addr:city": "Bäretswil",
    "addr:housenumber": "8",
    "addr:postcode": "8344",
    "addr:street": "Bahnhofstrasse",
    "description": "Mehrzweckhalle Dorf",
    "emergency": "disaster_help_point",
    "name": "Notfalltreffpunkt RFO/GFO Kanton Zürich",
    "id": "node/9417237832"
  },
  "geometry": {
    "type": "Point",
    "coordinates": [
      8.8551057,
      47.3365033
    ]
  }
},
{
  "type": "Feature",
  "id": "node/9417237833",
  "properties": {
    "addr:city": "Bachs",
    "addr:housenumber": "8",
    "addr:postcode": "8164",
    "addr:street": "Gmeindhusweg",
    "description": "Gemeindeverwaltung",
    "emergency": "disaster_help_point",
    "name": "Notfalltreffpunkt RFO/GFO Kanton Zürich",
    "id": "node/9417237833"
  },
  "geometry": {
    "type": "Point",
    "coordinates": [
      8.4393757,
      47.5248995
    ]
  }
},
{
  "type": "Feature",
  "id": "node/9417237834",
  "properties": {
    "addr:city": "Bachenbülach",
    "addr:housenumber": "1a",
    "addr:postcode": "8184",
    "addr:street": "Schulhausstrasse",
    "description": "Mehrzweckhalle",
    "emergency": "disaster_help_point",
    "name": "Notfalltreffpunkt RFO/GFO Kanton Zürich",
    "id": "node/9417237834"
  },
  "geometry": {
    "type": "Point",
    "coordinates": [
      8.5464813,
      47.5023734
    ]
  }
},
{
  "type": "Feature",
  "id": "node/9417237835",
  "properties": {
    "addr:city": "Andelfingen",
    "addr:housenumber": "38a",
    "addr:postcode": "8450",
    "addr:street": "Landstrasse",
    "description": "Gemeindesaal (Löwensaal)",
    "emergency": "disaster_help_point",
    "name": "Notfalltreffpunkt RFO/GFO Kanton Zürich",
    "id": "node/9417237835"
  },
  "geometry": {
    "type": "Point",
    "coordinates": [
      8.6791209,
      47.59426
    ]
  }
},
{
  "type": "Feature",
  "id": "node/9417237836",
  "properties": {
    "addr:city": "Altikon",
    "addr:housenumber": "19",
    "addr:postcode": "8479",
    "addr:street": "Rickenbacherstrasse",
    "description": "Primarschulhaus",
    "emergency": "disaster_help_point",
    "name": "Notfalltreffpunkt RFO/GFO Kanton Zürich",
    "id": "node/9417237836"
  },
  "geometry": {
    "type": "Point",
    "coordinates": [
      8.7829601,
      47.5717398
    ]
  }
},
{
  "type": "Feature",
  "id": "node/9417237837",
  "properties": {
    "addr:city": "Affoltern am Albis",
    "addr:housenumber": "2",
    "addr:postcode": "8910",
    "addr:street": "Butzenstrasse",
    "description": "Schulhaus Stigeli / Doppelturnhalle",
    "emergency": "disaster_help_point",
    "name": "Notfalltreffpunkt RFO/GFO Kanton Zürich",
    "id": "node/9417237837"
  },
  "geometry": {
    "type": "Point",
    "coordinates": [
      8.4567124,
      47.2791599
    ]
  }
},
{
  "type": "Feature",
  "id": "node/9417237838",
  "properties": {
    "addr:city": "Affoltern am Albis",
    "addr:housenumber": "1",
    "addr:postcode": "8910",
    "addr:street": "Marktplatz",
    "description": "Kasinosaal",
    "emergency": "disaster_help_point",
    "name": "Notfalltreffpunkt RFO/GFO Kanton Zürich",
    "id": "node/9417237838"
  },
  "geometry": {
    "type": "Point",
    "coordinates": [
      8.450016,
      47.2766372
    ]
  }
},
{
  "type": "Feature",
  "id": "node/9417237839",
  "properties": {
    "addr:city": "Aeugst am Albis",
    "addr:housenumber": "2",
    "addr:postcode": "8914",
    "addr:street": "Pfarrhausweg",
    "description": "Feuerwehrdepot",
    "emergency": "disaster_help_point",
    "name": "Notfalltreffpunkt RFO/GFO Kanton Zürich",
    "id": "node/9417237839"
  },
  "geometry": {
    "type": "Point",
    "coordinates": [
      8.4863845,
      47.267587
    ]
  }
},
{
  "type": "Feature",
  "id": "node/9417237840",
  "properties": {
    "addr:city": "Aesch",
    "addr:housenumber": "16",
    "addr:postcode": "8904",
    "addr:street": "Lielistrasse",
    "description": "Mehrzweckhalle",
    "emergency": "disaster_help_point",
    "name": "Notfalltreffpunkt RFO/GFO Kanton Zürich",
    "id": "node/9417237840"
  },
  "geometry": {
    "type": "Point",
    "coordinates": [
      8.4325649,
      47.336067
    ]
  }
},
{
  "type": "Feature",
  "id": "node/9417237841",
  "properties": {
    "addr:city": "Adliswil",
    "addr:housenumber": "3",
    "addr:postcode": "8134",
    "addr:street": "Wilackerstrasse",
    "description": "Schulhaus Wilacker",
    "emergency": "disaster_help_point",
    "name": "Notfalltreffpunkt RFO/GFO Kanton Zürich",
    "id": "node/9417237841"
  },
  "geometry": {
    "type": "Point",
    "coordinates": [
      8.5204321,
      47.3043783
    ]
  }
},
{
  "type": "Feature",
  "id": "node/9417237842",
  "properties": {
    "addr:city": "Adliswil",
    "addr:housenumber": "30",
    "addr:postcode": "8134",
    "addr:street": "Sonnenbergstrasse",
    "description": "Schulhaus Sonnenberg/Hofern",
    "emergency": "disaster_help_point",
    "name": "Notfalltreffpunkt RFO/GFO Kanton Zürich",
    "id": "node/9417237842"
  },
  "geometry": {
    "type": "Point",
    "coordinates": [
      8.5192759,
      47.3106319
    ]
  }
},
{
  "type": "Feature",
  "id": "node/9417237843",
  "properties": {
    "addr:city": "Adliswil",
    "addr:housenumber": "20",
    "addr:postcode": "8134",
    "addr:street": "Zelgstrasse",
    "description": "Schulhaus Zopf",
    "emergency": "disaster_help_point",
    "name": "Notfalltreffpunkt RFO/GFO Kanton Zürich",
    "id": "node/9417237843"
  },
  "geometry": {
    "type": "Point",
    "coordinates": [
      8.5160369,
      47.31856
    ]
  }
},
{
  "type": "Feature",
  "id": "node/9417237844",
  "properties": {
    "addr:city": "Adliswil",
    "addr:housenumber": "4",
    "addr:postcode": "8134",
    "addr:street": "Kopfholzstrasse",
    "description": "Schulhaus Kopfholz",
    "emergency": "disaster_help_point",
    "name": "Notfalltreffpunkt RFO/GFO Kanton Zürich",
    "id": "node/9417237844"
  },
  "geometry": {
    "type": "Point",
    "coordinates": [
      8.5331472,
      47.3079194
    ]
  }
},
{
  "type": "Feature",
  "id": "node/9417237845",
  "properties": {
    "addr:city": "Adliswil",
    "addr:housenumber": "4",
    "addr:postcode": "8134",
    "addr:street": "Parkweg",
    "description": "Schulhaus Dietlimoos",
    "emergency": "disaster_help_point",
    "name": "Notfalltreffpunkt RFO/GFO Kanton Zürich",
    "id": "node/9417237845"
  },
  "geometry": {
    "type": "Point",
    "coordinates": [
      8.5312786,
      47.3187135
    ]
  }
},
{
  "type": "Feature",
  "id": "node/9417237846",
  "properties": {
    "addr:city": "Adlikon",
    "addr:housenumber": "1",
    "addr:postcode": "8452",
    "addr:street": "Unterdorfstrasse",
    "description": "Gemeindesaal",
    "emergency": "disaster_help_point",
    "name": "Notfalltreffpunkt RFO/GFO Kanton Zürich",
    "id": "node/9417237846"
  },
  "geometry": {
    "type": "Point",
    "coordinates": [
      8.6919245,
      47.5829329
    ]
  }
},
{
  "type": "Feature",
  "id": "node/9417237847",
  "properties": {
    "addr:city": "Aathal-Seegräben",
    "addr:housenumber": "10",
    "addr:postcode": "8607",
    "addr:street": "Rutschbergstrasse",
    "description": "Gemeindehaus",
    "emergency": "disaster_help_point",
    "name": "Notfalltreffpunkt RFO/GFO Kanton Zürich",
    "id": "node/9417237847"
  },
  "geometry": {
    "type": "Point",
    "coordinates": [
      8.7699666,
      47.343508
    ]
  }
},
{
  "type": "Feature",
  "id": "node/9433959206",
  "properties": {
    "addr:city": "Winterthur",
    "addr:housenumber": "1",
    "addr:postcode": "8400",
    "addr:street": "St. Gallerstrasse",
    "description": "Schulhaus Geiselweid",
    "emergency": "disaster_help_point",
    "name": "Notfalltreffpunkt RFO/GFO Kanton Zürich",
    "id": "node/9433959206"
  },
  "geometry": {
    "type": "Point",
    "coordinates": [
      8.7335736,
      47.4988407
    ]
  }
},
{
  "type": "Feature",
  "id": "node/9433959207",
  "properties": {
    "addr:city": "Winterthur",
    "addr:housenumber": "9",
    "addr:postcode": "8400",
    "addr:street": "Hochwachtstrasse",
    "description": "Schulhaus Heiligberg",
    "emergency": "disaster_help_point",
    "name": "Notfalltreffpunkt RFO/GFO Kanton Zürich",
    "id": "node/9433959207"
  },
  "geometry": {
    "type": "Point",
    "coordinates": [
      8.7254358,
      47.4957955
    ]
  }
},
{
  "type": "Feature",
  "id": "node/9433959208",
  "properties": {
    "addr:city": "Winterthur",
    "addr:housenumber": "14",
    "addr:postcode": "8406",
    "addr:street": "Hündlerstrasse",
    "description": "Schulhaus Laubegg",
    "emergency": "disaster_help_point",
    "name": "Notfalltreffpunkt RFO/GFO Kanton Zürich",
    "id": "node/9433959208"
  },
  "geometry": {
    "type": "Point",
    "coordinates": [
      8.7010512,
      47.4782847
    ]
  }
},
{
  "type": "Feature",
  "id": "node/9433959209",
  "properties": {
    "addr:city": "Winterthur",
    "addr:housenumber": "15",
    "addr:postcode": "8406",
    "addr:street": "Rebwiesenstrasse",
    "description": "Schulhaus Rebwiesen",
    "emergency": "disaster_help_point",
    "name": "Notfalltreffpunkt RFO/GFO Kanton Zürich",
    "id": "node/9433959209"
  },
  "geometry": {
    "type": "Point",
    "coordinates": [
      8.7059978,
      47.4947598
    ]
  }
},
{
  "type": "Feature",
  "id": "node/9433959210",
  "properties": {
    "addr:city": "Winterthur",
    "addr:housenumber": "50",
    "addr:postcode": "8408",
    "addr:street": "Holzlegistrasse",
    "description": "Schulhaus Langwiesen",
    "emergency": "disaster_help_point",
    "name": "Notfalltreffpunkt RFO/GFO Kanton Zürich",
    "id": "node/9433959210"
  },
  "geometry": {
    "type": "Point",
    "coordinates": [
      8.6891837,
      47.5135704
    ]
  }
},
{
  "type": "Feature",
  "id": "node/9433959211",
  "properties": {
    "addr:city": "Winterthur",
    "addr:housenumber": "42",
    "addr:postcode": "8400",
    "addr:street": "Wülflingerstrasse",
    "description": "Schulhaus Wülflingerstrasse",
    "emergency": "disaster_help_point",
    "name": "Notfalltreffpunkt RFO/GFO Kanton Zürich",
    "id": "node/9433959211"
  },
  "geometry": {
    "type": "Point",
    "coordinates": [
      8.716777,
      47.5060933
    ]
  }
},
{
  "type": "Feature",
  "id": "node/9433959212",
  "properties": {
    "addr:city": "Winterthur",
    "addr:housenumber": "54",
    "addr:postcode": "8400",
    "addr:street": "Buchackerstrasse",
    "description": "Schulhaus Schachen",
    "emergency": "disaster_help_point",
    "name": "Notfalltreffpunkt RFO/GFO Kanton Zürich",
    "id": "node/9433959212"
  },
  "geometry": {
    "type": "Point",
    "coordinates": [
      8.7169835,
      47.5169036
    ]
  }
},
{
  "type": "Feature",
  "id": "node/9433959213",
  "properties": {
    "addr:city": "Winterthur",
    "addr:housenumber": "88",
    "addr:postcode": "8404",
    "addr:street": "Wiesendangerstrasse",
    "description": "Schulhaus Stadel",
    "emergency": "disaster_help_point",
    "name": "Notfalltreffpunkt RFO/GFO Kanton Zürich",
    "id": "node/9433959213"
  },
  "geometry": {
    "type": "Point",
    "coordinates": [
      8.7640737,
      47.534282
    ]
  }
},
{
  "type": "Feature",
  "id": "node/9433959214",
  "properties": {
    "addr:city": "Winterthur",
    "addr:housenumber": "140",
    "addr:postcode": "8404",
    "addr:street": "Guggenbühlstrasse",
    "description": "Schulhaus Wallrüti",
    "emergency": "disaster_help_point",
    "name": "Notfalltreffpunkt RFO/GFO Kanton Zürich",
    "id": "node/9433959214"
  },
  "geometry": {
    "type": "Point",
    "coordinates": [
      8.7598237,
      47.5191163
    ]
  }
},
{
  "type": "Feature",
  "id": "node/9433959215",
  "properties": {
    "addr:city": "Winterthur",
    "addr:housenumber": "17",
    "addr:postcode": "8404",
    "addr:street": "Talackerstrasse",
    "description": "Schulhaus Rychenberg",
    "emergency": "disaster_help_point",
    "name": "Notfalltreffpunkt RFO/GFO Kanton Zürich",
    "id": "node/9433959215"
  },
  "geometry": {
    "type": "Point",
    "coordinates": [
      8.7516028,
      47.5075274
    ]
  }
},
{
  "type": "Feature",
  "id": "node/9433959216",
  "properties": {
    "addr:city": "Winterthur",
    "addr:housenumber": "50",
    "addr:postcode": "8404",
    "addr:street": "Ida-Sträuli-Strasse",
    "description": "Schulhaus Neuhegi",
    "emergency": "disaster_help_point",
    "name": "Notfalltreffpunkt RFO/GFO Kanton Zürich",
    "id": "node/9433959216"
  },
  "geometry": {
    "type": "Point",
    "coordinates": [
      8.7672709,
      47.5041347
    ]
  }
},
{
  "type": "Feature",
  "id": "node/9433966017",
  "properties": {
    "addr:city": "Winterthur",
    "addr:housenumber": "30",
    "addr:postcode": "8400",
    "addr:street": "Grüzefeldstrasse",
    "description": "Zielbau Arena",
    "emergency": "disaster_help_point",
    "name": "Notfalltreffpunkt RFO/GFO Kanton Zürich",
    "id": "node/9433966017"
  },
  "geometry": {
    "type": "Point",
    "coordinates": [
      8.7483989,
      47.4951938
    ]
  }
},
{
  "type": "Feature",
  "id": "node/9433966018",
  "properties": {
    "addr:city": "Winterthur",
    "addr:housenumber": "32",
    "addr:postcode": "8405",
    "addr:street": "Büelhofstrasse",
    "description": "Schulhaus Büelwiesen",
    "emergency": "disaster_help_point",
    "name": "Notfalltreffpunkt RFO/GFO Kanton Zürich",
    "id": "node/9433966018"
  },
  "geometry": {
    "type": "Point",
    "coordinates": [
      8.7652512,
      47.4834012
    ]
  }
},
{
  "type": "Feature",
  "id": "node/9433966019",
  "properties": {
    "addr:city": "Winterthur",
    "addr:housenumber": "1",
    "addr:postcode": "8482",
    "addr:street": "Herrmann-Bühler-Strasse",
    "description": "Schulhaus Sennhof",
    "emergency": "disaster_help_point",
    "name": "Notfalltreffpunkt RFO/GFO Kanton Zürich",
    "id": "node/9433966019"
  },
  "geometry": {
    "type": "Point",
    "coordinates": [
      8.7585296,
      47.466209
    ]
  }
},
{
  "type": "Feature",
  "id": "node/9433966020",
  "properties": {
    "addr:city": "Winterthur",
    "addr:housenumber": "108",
    "addr:postcode": "8405",
    "addr:street": "Ibergstrasse",
    "description": "Schulhaus Iberg",
    "emergency": "disaster_help_point",
    "name": "Notfalltreffpunkt RFO/GFO Kanton Zürich",
    "id": "node/9433966020"
  },
  "geometry": {
    "type": "Point",
    "coordinates": [
      8.7783598,
      47.4644216
    ]
  }
},
{
  "type": "Feature",
  "id": "node/9447243797",
  "properties": {
    "addr:city": "Seuzach",
    "addr:housenumber": "4",
    "addr:postcode": "8472",
    "addr:street": "Rebhogerstrasse",
    "description": "ALST-Anlage",
    "emergency": "disaster_help_point",
    "name": "Notfalltreffpunkt RFO/GFO Kanton Zürich",
    "id": "node/9447243797"
  },
  "geometry": {
    "type": "Point",
    "coordinates": [
      8.7117693,
      47.528255
    ]
  }
},
{
  "type": "Feature",
  "id": "node/9447243798",
  "properties": {
    "addr:city": "Seuzach",
    "addr:housenumber": "16",
    "addr:postcode": "8472",
    "addr:street": "Ohringerstrasse",
    "description": "Schulanlage Rietacker",
    "emergency": "disaster_help_point",
    "name": "Notfalltreffpunkt RFO/GFO Kanton Zürich",
    "id": "node/9447243798"
  },
  "geometry": {
    "type": "Point",
    "coordinates": [
      8.7274441,
      47.536216
    ]
  }
},
{
  "type": "Feature",
  "id": "node/9570899368",
  "properties": {
    "addr:city": "Humlikon",
    "addr:housenumber": "2.1",
    "addr:postcode": "8457",
    "addr:street": "Andelfingerstrasse",
    "description": "Turnhalle",
    "emergency": "disaster_help_point",
    "name": "Notfalltreffpunkt RFO/GFO Kanton Zürich",
    "id": "node/9570899368"
  },
  "geometry": {
    "type": "Point",
    "coordinates": [
      8.6676295,
      47.5742389
    ]
  }
},
{
  "type": "Feature",
  "id": "node/9582606083",
  "properties": {
    "addr:city": "Weisslingen",
    "addr:housenumber": "44",
    "addr:place": "Lendikon",
    "addr:postcode": "8484",
    "description": "Brunnen",
    "emergency": "disaster_help_point",
    "name": "Notfalltreffpunkt RFO/GFO Kanton Zürich",
    "id": "node/9582606083"
  },
  "geometry": {
    "type": "Point",
    "coordinates": [
      8.7799252,
      47.4254859
    ]
  }
},
{
  "type": "Feature",
  "id": "node/9582831133",
  "properties": {
    "addr:city": "Kollbrunn",
    "addr:housenumber": "17",
    "addr:postcode": "8483",
    "addr:street": "Untere Bahnhofstrasse",
    "description": "Mehrzweckhalle Regenbodgen",
    "emergency": "disaster_help_point",
    "name": "Notfalltreffpunkt RFO/GFO Kanton Zürich",
    "id": "node/9582831133"
  },
  "geometry": {
    "type": "Point",
    "coordinates": [
      8.7720668,
      47.4576011
    ]
  }
},
{
  "type": "Feature",
  "id": "node/9582853627",
  "properties": {
    "addr:city": "Zürich",
    "addr:housenumber": "71",
    "addr:postcode": "8038",
    "addr:street": "Balberstrasse",
    "description": "Turnhalle Entlisberg",
    "emergency": "disaster_help_point",
    "name": "Notfalltreffpunkt RFO/GFO Kanton Zürich",
    "id": "node/9582853627"
  },
  "geometry": {
    "type": "Point",
    "coordinates": [
      8.527069,
      47.3376672
    ]
  }
},
{
  "type": "Feature",
  "id": "node/9585240133",
  "properties": {
    "addr:city": "Dorf",
    "addr:housenumber": "2",
    "addr:postcode": "8458",
    "addr:street": "Dorfstrasse",
    "description": "Gemeindehaus",
    "emergency": "disaster_help_point",
    "name": "Notfalltreffpunkt RFO/GFO Kanton Zürich",
    "id": "node/9585240133"
  },
  "geometry": {
    "type": "Point",
    "coordinates": [
      8.6484559,
      47.5724976
    ]
  }
}
]
}
