{
"type": "FeatureCollection",
"features": [
{
  "type": "Feature",
  "id": "way/13066827",
  "properties": {
    "addr:city": "Buchberg",
    "addr:housenumber": "15",
    "addr:street": "Kindergartenstrasse",
    "amenity": "kindergarten",
    "building": "yes",
    "name": "Kindergarten",
    "id": "way/13066827"
  },
  "geometry": {
    "type": "Polygon",
    "coordinates": [
      [
        [
          8.5628462,
          47.5749579
        ],
        [
          8.5626976,
          47.5748582
        ],
        [
          8.5628013,
          47.5747874
        ],
        [
          8.5628826,
          47.5748419
        ],
        [
          8.5629013,
          47.5748292
        ],
        [
          8.5629686,
          47.5748743
        ],
        [
          8.5628462,
          47.5749579
        ]
      ]
    ]
  }
},
{
  "type": "Feature",
  "id": "way/22952685",
  "properties": {
    "addr:city": "Stein am Rhein",
    "addr:country": "CH",
    "addr:housenumber": "14",
    "addr:postcode": "8260",
    "addr:street": "Burgackerstrasse",
    "amenity": "kindergarten",
    "building": "kindergarten",
    "building:levels": "1",
    "name": "Kindergarten Burgacker",
    "roof:levels": "0",
    "id": "way/22952685"
  },
  "geometry": {
    "type": "Polygon",
    "coordinates": [
      [
        [
          8.8589793,
          47.6541653
        ],
        [
          8.8588963,
          47.6540837
        ],
        [
          8.8589356,
          47.6540656
        ],
        [
          8.8589155,
          47.6540454
        ],
        [
          8.8590352,
          47.6539886
        ],
        [
          8.8590569,
          47.6540088
        ],
        [
          8.8590968,
          47.6539906
        ],
        [
          8.8591818,
          47.6540729
        ],
        [
          8.8589793,
          47.6541653
        ]
      ]
    ]
  }
},
{
  "type": "Feature",
  "id": "way/42526782",
  "properties": {
    "addr:city": "Stein am Rhein",
    "addr:country": "CH",
    "addr:housenumber": "12",
    "addr:postcode": "8260",
    "addr:street": "Burgackerstrasse",
    "amenity": "kindergarten",
    "building": "kindergarten",
    "building:levels": "1",
    "name": "Kindergarten Burgacker",
    "roof:levels": "0",
    "id": "way/42526782"
  },
  "geometry": {
    "type": "Polygon",
    "coordinates": [
      [
        [
          8.8585183,
          47.6542846
        ],
        [
          8.8586697,
          47.6542134
        ],
        [
          8.8587356,
          47.6542766
        ],
        [
          8.8585823,
          47.654348
        ],
        [
          8.8585183,
          47.6542846
        ]
      ]
    ]
  }
},
{
  "type": "Feature",
  "id": "way/93920861",
  "properties": {
    "addr:city": "Bargen (SH)",
    "addr:country": "CH",
    "addr:housenumber": "1",
    "addr:postcode": "8233",
    "addr:street": "Schulstrasse",
    "amenity": "kindergarten",
    "building": "yes",
    "name": "Kindergarten Bargen",
    "id": "way/93920861"
  },
  "geometry": {
    "type": "Polygon",
    "coordinates": [
      [
        [
          8.6112073,
          47.7929687
        ],
        [
          8.6112066,
          47.7929459
        ],
        [
          8.6111652,
          47.7929464
        ],
        [
          8.6111637,
          47.7928969
        ],
        [
          8.6111443,
          47.7928972
        ],
        [
          8.6111432,
          47.7928579
        ],
        [
          8.6111626,
          47.7928577
        ],
        [
          8.6111601,
          47.7927709
        ],
        [
          8.6112983,
          47.7927691
        ],
        [
          8.6113035,
          47.7929438
        ],
        [
          8.6112999,
          47.7929438
        ],
        [
          8.6113006,
          47.7929675
        ],
        [
          8.6112073,
          47.7929687
        ]
      ]
    ]
  }
},
{
  "type": "Feature",
  "id": "way/105901969",
  "properties": {
    "addr:city": "Bibern SH",
    "addr:country": "CH",
    "addr:housenumber": "22",
    "addr:postcode": "8242",
    "addr:street": "Dorfstrasse",
    "amenity": "kindergarten",
    "building": "kindergarten",
    "name": "Kindergarten",
    "id": "way/105901969"
  },
  "geometry": {
    "type": "Polygon",
    "coordinates": [
      [
        [
          8.6776171,
          47.7724381
        ],
        [
          8.677561,
          47.7723515
        ],
        [
          8.6777004,
          47.7723108
        ],
        [
          8.6777565,
          47.7723974
        ],
        [
          8.6776171,
          47.7724381
        ]
      ]
    ]
  }
},
{
  "type": "Feature",
  "id": "way/159146539",
  "properties": {
    "addr:city": "Dörflingen",
    "addr:country": "CH",
    "addr:housenumber": "2",
    "addr:postcode": "8239",
    "addr:street": "Schulstrasse",
    "amenity": "kindergarten",
    "building": "kindergarten",
    "name": "Kindergarten",
    "id": "way/159146539"
  },
  "geometry": {
    "type": "Polygon",
    "coordinates": [
      [
        [
          8.7238562,
          47.7065484
        ],
        [
          8.7237659,
          47.706444
        ],
        [
          8.7238858,
          47.7063971
        ],
        [
          8.7239761,
          47.7065014
        ],
        [
          8.7238562,
          47.7065484
        ]
      ]
    ]
  }
},
{
  "type": "Feature",
  "id": "way/165915194",
  "properties": {
    "addr:city": "Neuhausen am Rheinfall",
    "addr:housenumber": "6",
    "addr:postcode": "8212",
    "addr:street": "Einschlagstrasse",
    "amenity": "kindergarten",
    "building": "kindergarten",
    "building:levels": "1",
    "height": "5",
    "name": "Kindergarten Rosenberg",
    "roof:orientation": "along",
    "roof:shape": "gabled",
    "id": "way/165915194"
  },
  "geometry": {
    "type": "Polygon",
    "coordinates": [
      [
        [
          8.6180291,
          47.6854278
        ],
        [
          8.6182692,
          47.6856763
        ],
        [
          8.6181466,
          47.6857299
        ],
        [
          8.618086,
          47.6856671
        ],
        [
          8.6180576,
          47.6856795
        ],
        [
          8.6179409,
          47.6855587
        ],
        [
          8.6179716,
          47.6855452
        ],
        [
          8.617909,
          47.6854804
        ],
        [
          8.6180291,
          47.6854278
        ]
      ]
    ]
  }
},
{
  "type": "Feature",
  "id": "way/167060532",
  "properties": {
    "addr:city": "Schaffhausen",
    "addr:country": "CH",
    "addr:housenumber": "17",
    "addr:postcode": "8203",
    "addr:street": "Kesselstrasse",
    "amenity": "kindergarten",
    "building": "kindergarten",
    "name": "Kindergarten Kessel 1+2",
    "id": "way/167060532"
  },
  "geometry": {
    "type": "Polygon",
    "coordinates": [
      [
        [
          8.6503522,
          47.7008256
        ],
        [
          8.6502946,
          47.7006089
        ],
        [
          8.650401,
          47.7005952
        ],
        [
          8.6503991,
          47.7005889
        ],
        [
          8.6504519,
          47.7005825
        ],
        [
          8.6504603,
          47.7006145
        ],
        [
          8.6504959,
          47.7006107
        ],
        [
          8.6505406,
          47.7007747
        ],
        [
          8.6505059,
          47.700778
        ],
        [
          8.650515,
          47.700811
        ],
        [
          8.6504635,
          47.7008177
        ],
        [
          8.6504621,
          47.7008122
        ],
        [
          8.6503522,
          47.7008256
        ]
      ]
    ]
  }
},
{
  "type": "Feature",
  "id": "way/167187991",
  "properties": {
    "addr:city": "Schaffhausen",
    "addr:country": "CH",
    "addr:housenumber": "6",
    "addr:postcode": "8203",
    "addr:street": "Unterer Schulweg",
    "amenity": "kindergarten",
    "building": "kindergarten",
    "name": "Kindergarten Buchhalten 1+2",
    "id": "way/167187991"
  },
  "geometry": {
    "type": "Polygon",
    "coordinates": [
      [
        [
          8.653431,
          47.6977315
        ],
        [
          8.6534904,
          47.697665
        ],
        [
          8.6536785,
          47.6977433
        ],
        [
          8.6537167,
          47.6977478
        ],
        [
          8.6537244,
          47.6977195
        ],
        [
          8.6537527,
          47.6977232
        ],
        [
          8.6537496,
          47.697735
        ],
        [
          8.6539285,
          47.6977608
        ],
        [
          8.6539615,
          47.6976553
        ],
        [
          8.6540234,
          47.6976639
        ],
        [
          8.6539647,
          47.6978457
        ],
        [
          8.6536851,
          47.6978061
        ],
        [
          8.65368,
          47.6978219
        ],
        [
          8.6536327,
          47.697816
        ],
        [
          8.653431,
          47.6977315
        ]
      ]
    ]
  }
},
{
  "type": "Feature",
  "id": "way/168246703",
  "properties": {
    "addr:city": "Schaffhausen",
    "addr:country": "CH",
    "addr:housenumber": "8",
    "addr:postcode": "8203",
    "addr:street": "Windeggstrasse",
    "amenity": "kindergarten",
    "building": "kindergarten",
    "name": "Kindegarten Windegg",
    "id": "way/168246703"
  },
  "geometry": {
    "type": "Polygon",
    "coordinates": [
      [
        [
          8.6566133,
          47.6958418
        ],
        [
          8.656564,
          47.6957108
        ],
        [
          8.6567275,
          47.6956819
        ],
        [
          8.6567508,
          47.6957398
        ],
        [
          8.6567845,
          47.6957335
        ],
        [
          8.6568129,
          47.6958076
        ],
        [
          8.6566133,
          47.6958418
        ]
      ]
    ]
  }
},
{
  "type": "Feature",
  "id": "way/172344943",
  "properties": {
    "addr:city": "Schaffhausen",
    "addr:housenumber": "1",
    "addr:postcode": "8200",
    "addr:street": "Munothaldenweg",
    "amenity": "kindergarten",
    "building": "kindergarten",
    "name": "Kindergarten Munothalde",
    "roof:shape": "flat",
    "id": "way/172344943"
  },
  "geometry": {
    "type": "Polygon",
    "coordinates": [
      [
        [
          8.6383103,
          47.6972174
        ],
        [
          8.6386807,
          47.6972674
        ],
        [
          8.6386547,
          47.6973546
        ],
        [
          8.6382843,
          47.6973046
        ],
        [
          8.6383103,
          47.6972174
        ]
      ]
    ]
  }
},
{
  "type": "Feature",
  "id": "way/174010924",
  "properties": {
    "addr:city": "Neuhausen am Rheinfall",
    "addr:housenumber": "5",
    "addr:postcode": "8212",
    "addr:street": "Schweizerhofweg",
    "amenity": "kindergarten",
    "building": "kindergarten",
    "name": "Kindergarten Rhenania",
    "id": "way/174010924"
  },
  "geometry": {
    "type": "Polygon",
    "coordinates": [
      [
        [
          8.6085775,
          47.6796271
        ],
        [
          8.6086065,
          47.6796489
        ],
        [
          8.608646,
          47.6796258
        ],
        [
          8.6087092,
          47.6796741
        ],
        [
          8.608669,
          47.6796974
        ],
        [
          8.6087239,
          47.6797405
        ],
        [
          8.6087665,
          47.6797752
        ],
        [
          8.6088069,
          47.6798095
        ],
        [
          8.6088594,
          47.6798543
        ],
        [
          8.6089017,
          47.6798335
        ],
        [
          8.6089565,
          47.6798833
        ],
        [
          8.6089156,
          47.6799049
        ],
        [
          8.6089409,
          47.679928
        ],
        [
          8.6088823,
          47.6799596
        ],
        [
          8.6088552,
          47.6799362
        ],
        [
          8.6088477,
          47.6799404
        ],
        [
          8.6087886,
          47.6798891
        ],
        [
          8.6087974,
          47.6798844
        ],
        [
          8.6087482,
          47.6798399
        ],
        [
          8.6086675,
          47.6797733
        ],
        [
          8.6086122,
          47.6797314
        ],
        [
          8.6086041,
          47.6797361
        ],
        [
          8.6085418,
          47.6796875
        ],
        [
          8.6085506,
          47.6796825
        ],
        [
          8.6085218,
          47.6796605
        ],
        [
          8.6085775,
          47.6796271
        ]
      ]
    ]
  }
},
{
  "type": "Feature",
  "id": "way/174010997",
  "properties": {
    "addr:city": "Neuhausen am Rheinfall",
    "addr:housenumber": "19",
    "addr:street": "Brunnenwiesenstrasse",
    "amenity": "kindergarten",
    "building": "residential",
    "check_date": "2023-05-24",
    "name": "Kindergarten Rhenania",
    "id": "way/174010997"
  },
  "geometry": {
    "type": "Polygon",
    "coordinates": [
      [
        [
          8.609435,
          47.6807406
        ],
        [
          8.6093086,
          47.6808188
        ],
        [
          8.6091372,
          47.6806931
        ],
        [
          8.6092636,
          47.680615
        ],
        [
          8.609435,
          47.6807406
        ]
      ]
    ]
  }
},
{
  "type": "Feature",
  "id": "way/185904878",
  "properties": {
    "addr:city": "Schaffhausen",
    "addr:country": "CH",
    "addr:housenumber": "1",
    "addr:postcode": "8200",
    "addr:street": "Goldschmiedstrasse",
    "amenity": "kindergarten",
    "building": "kindergarten",
    "name": "Kindergarten Gruben 1+2",
    "id": "way/185904878"
  },
  "geometry": {
    "type": "Polygon",
    "coordinates": [
      [
        [
          8.6442058,
          47.7023726
        ],
        [
          8.644496,
          47.7024083
        ],
        [
          8.6444657,
          47.7025166
        ],
        [
          8.6444097,
          47.70251
        ],
        [
          8.6444037,
          47.7025318
        ],
        [
          8.6444283,
          47.7025346
        ],
        [
          8.6444221,
          47.7025589
        ],
        [
          8.6441961,
          47.702531
        ],
        [
          8.6442017,
          47.7025062
        ],
        [
          8.644214,
          47.7025073
        ],
        [
          8.6442188,
          47.7024858
        ],
        [
          8.6441757,
          47.7024801
        ],
        [
          8.6442058,
          47.7023726
        ]
      ]
    ]
  }
},
{
  "type": "Feature",
  "id": "way/189974879",
  "properties": {
    "addr:city": "Schaffhausen",
    "addr:housenumber": "3",
    "addr:postcode": "8200",
    "addr:street": "Im Lahn",
    "amenity": "kindergarten",
    "building": "kindergarten",
    "name": "Kindergarten im Lahn 1+2",
    "id": "way/189974879"
  },
  "geometry": {
    "type": "Polygon",
    "coordinates": [
      [
        [
          8.6164022,
          47.705931
        ],
        [
          8.6164901,
          47.7059781
        ],
        [
          8.616427,
          47.706032
        ],
        [
          8.6164828,
          47.7060624
        ],
        [
          8.616462,
          47.7060787
        ],
        [
          8.6165999,
          47.7061508
        ],
        [
          8.6165307,
          47.7062106
        ],
        [
          8.6162723,
          47.7060746
        ],
        [
          8.6162918,
          47.7060585
        ],
        [
          8.6162676,
          47.7060456
        ],
        [
          8.6164022,
          47.705931
        ]
      ]
    ]
  }
},
{
  "type": "Feature",
  "id": "way/189974941",
  "properties": {
    "amenity": "kindergarten",
    "name": "Kindergarten Riet",
    "id": "way/189974941"
  },
  "geometry": {
    "type": "Polygon",
    "coordinates": [
      [
        [
          8.6151817,
          47.7042469
        ],
        [
          8.615038,
          47.7040765
        ],
        [
          8.6150338,
          47.7039924
        ],
        [
          8.6152364,
          47.7039149
        ],
        [
          8.6154176,
          47.7041294
        ],
        [
          8.6153724,
          47.704174
        ],
        [
          8.6151817,
          47.7042469
        ]
      ]
    ]
  }
},
{
  "type": "Feature",
  "id": "way/195646167",
  "properties": {
    "addr:city": "Thayngen",
    "addr:country": "CH",
    "addr:housenumber": "30",
    "addr:postcode": "8240",
    "addr:street": "Frohsinnweg",
    "amenity": "kindergarten",
    "building": "kindergarten",
    "name": "Kindergarten Oberbild",
    "id": "way/195646167"
  },
  "geometry": {
    "type": "Polygon",
    "coordinates": [
      [
        [
          8.7028199,
          47.7489953
        ],
        [
          8.7028233,
          47.7489195
        ],
        [
          8.7030001,
          47.7489231
        ],
        [
          8.7030003,
          47.7489187
        ],
        [
          8.703198,
          47.7489227
        ],
        [
          8.7031969,
          47.7489475
        ],
        [
          8.7033043,
          47.7489497
        ],
        [
          8.703301,
          47.7490223
        ],
        [
          8.7031914,
          47.7490201
        ],
        [
          8.7031907,
          47.7490356
        ],
        [
          8.7031124,
          47.749034
        ],
        [
          8.7031146,
          47.7489854
        ],
        [
          8.7030263,
          47.7489837
        ],
        [
          8.7030243,
          47.7490281
        ],
        [
          8.7029421,
          47.7490264
        ],
        [
          8.7029434,
          47.7489978
        ],
        [
          8.7028199,
          47.7489953
        ]
      ]
    ]
  }
},
{
  "type": "Feature",
  "id": "way/195646168",
  "properties": {
    "addr:city": "Thayngen",
    "addr:country": "CH",
    "addr:housenumber": "20",
    "addr:postcode": "8240",
    "addr:street": "Barterweg",
    "amenity": "kindergarten",
    "building": "kindergarten",
    "name": "Kindergarten Engelmann",
    "id": "way/195646168"
  },
  "geometry": {
    "type": "Polygon",
    "coordinates": [
      [
        [
          8.7153258,
          47.7482955
        ],
        [
          8.7154383,
          47.7482546
        ],
        [
          8.7154782,
          47.7483042
        ],
        [
          8.7155873,
          47.7482646
        ],
        [
          8.7156967,
          47.7484006
        ],
        [
          8.7155832,
          47.7484419
        ],
        [
          8.7155433,
          47.7483923
        ],
        [
          8.7154353,
          47.7484316
        ],
        [
          8.7153258,
          47.7482955
        ]
      ]
    ]
  }
},
{
  "type": "Feature",
  "id": "way/195651048",
  "properties": {
    "addr:city": "Thayngen",
    "addr:country": "CH",
    "addr:housenumber": "6",
    "addr:postcode": "8240",
    "addr:street": "Rosengartenweg",
    "amenity": "kindergarten",
    "building": "kindergarten",
    "name": "Kindergarten Merzenbrunnen",
    "roof:shape": "pyramidal",
    "id": "way/195651048"
  },
  "geometry": {
    "type": "Polygon",
    "coordinates": [
      [
        [
          8.709144,
          47.7482787
        ],
        [
          8.7092817,
          47.7482962
        ],
        [
          8.7092565,
          47.7483862
        ],
        [
          8.7093611,
          47.7483994
        ],
        [
          8.7093592,
          47.748406
        ],
        [
          8.7093487,
          47.7484047
        ],
        [
          8.7093323,
          47.7484632
        ],
        [
          8.7093365,
          47.7484637
        ],
        [
          8.7093108,
          47.7485556
        ],
        [
          8.7091734,
          47.7485382
        ],
        [
          8.7091984,
          47.7484489
        ],
        [
          8.7091233,
          47.7484394
        ],
        [
          8.7091243,
          47.748436
        ],
        [
          8.7091507,
          47.7484393
        ],
        [
          8.7091564,
          47.7484189
        ],
        [
          8.7091299,
          47.7484155
        ],
        [
          8.7091355,
          47.7483957
        ],
        [
          8.7091621,
          47.7483991
        ],
        [
          8.7091683,
          47.7483769
        ],
        [
          8.7091183,
          47.7483706
        ],
        [
          8.709144,
          47.7482787
        ]
      ]
    ]
  }
},
{
  "type": "Feature",
  "id": "way/199664877",
  "properties": {
    "addr:city": "Schaffhausen",
    "addr:housenumber": "106",
    "addr:postcode": "8200",
    "addr:street": "Weinsteig",
    "amenity": "kindergarten",
    "building": "kindergarten",
    "name": "Kindergarten Geissberg 2",
    "id": "way/199664877"
  },
  "geometry": {
    "type": "Polygon",
    "coordinates": [
      [
        [
          8.6331296,
          47.7052838
        ],
        [
          8.6329177,
          47.7052384
        ],
        [
          8.6329574,
          47.7051504
        ],
        [
          8.6331689,
          47.7051965
        ],
        [
          8.6331296,
          47.7052838
        ]
      ]
    ]
  }
},
{
  "type": "Feature",
  "id": "way/199664967",
  "properties": {
    "addr:city": "Schaffhausen",
    "addr:housenumber": "80",
    "addr:postcode": "8200",
    "addr:street": "Weinsteig",
    "amenity": "kindergarten",
    "building": "kindergarten",
    "name": "Kindergarten Geissberg 1",
    "id": "way/199664967"
  },
  "geometry": {
    "type": "Polygon",
    "coordinates": [
      [
        [
          8.6327756,
          47.7048813
        ],
        [
          8.6328264,
          47.7047722
        ],
        [
          8.6328074,
          47.7047678
        ],
        [
          8.6328304,
          47.7047204
        ],
        [
          8.6328495,
          47.7047244
        ],
        [
          8.6328611,
          47.7046979
        ],
        [
          8.6329584,
          47.7047192
        ],
        [
          8.6329465,
          47.7047452
        ],
        [
          8.6329501,
          47.704746
        ],
        [
          8.6329278,
          47.7047939
        ],
        [
          8.6329247,
          47.7047934
        ],
        [
          8.6329152,
          47.7048141
        ],
        [
          8.6329319,
          47.7048179
        ],
        [
          8.6328906,
          47.7049056
        ],
        [
          8.6327756,
          47.7048813
        ]
      ]
    ]
  }
},
{
  "type": "Feature",
  "id": "way/200330086",
  "properties": {
    "addr:city": "Schaffhausen",
    "addr:country": "CH",
    "addr:housenumber": "45",
    "addr:postcode": "8200",
    "addr:street": "Hochstrasse",
    "amenity": "kindergarten",
    "building": "kindergarten",
    "name": "Kindegarten Krebsbach",
    "id": "way/200330086"
  },
  "geometry": {
    "type": "Polygon",
    "coordinates": [
      [
        [
          8.6352667,
          47.7037001
        ],
        [
          8.6354069,
          47.7036353
        ],
        [
          8.6354969,
          47.7037197
        ],
        [
          8.6353926,
          47.7037677
        ],
        [
          8.6353332,
          47.7037118
        ],
        [
          8.6352943,
          47.7037287
        ],
        [
          8.6352667,
          47.7037001
        ]
      ]
    ]
  }
},
{
  "type": "Feature",
  "id": "way/201286773",
  "properties": {
    "addr:city": "Schaffhausen",
    "addr:country": "CH",
    "addr:housenumber": "44",
    "addr:postcode": "8200",
    "addr:street": "Bocksrietweg",
    "amenity": "kindergarten",
    "building": "kindergarten",
    "name": "Kindergarten Bocksriet 1+2",
    "id": "way/201286773"
  },
  "geometry": {
    "type": "Polygon",
    "coordinates": [
      [
        [
          8.6446725,
          47.7137508
        ],
        [
          8.6447892,
          47.7138107
        ],
        [
          8.6446818,
          47.7139073
        ],
        [
          8.6445624,
          47.713847
        ],
        [
          8.6445652,
          47.7138444
        ],
        [
          8.6445265,
          47.7138237
        ],
        [
          8.6444738,
          47.7137992
        ],
        [
          8.6445225,
          47.7137504
        ],
        [
          8.6446196,
          47.7137972
        ],
        [
          8.6446725,
          47.7137508
        ]
      ]
    ]
  }
},
{
  "type": "Feature",
  "id": "way/201659993",
  "properties": {
    "addr:city": "Schaffhausen",
    "addr:country": "CH",
    "addr:housenumber": "13",
    "addr:postcode": "8200",
    "addr:street": "St. Peterstrasse",
    "amenity": "kindergarten",
    "building": "kindergarten",
    "name": "Kindergarten St. Peter 1+2",
    "id": "way/201659993"
  },
  "geometry": {
    "type": "Polygon",
    "coordinates": [
      [
        [
          8.6503882,
          47.7169063
        ],
        [
          8.6504206,
          47.716879
        ],
        [
          8.6504282,
          47.7168827
        ],
        [
          8.6504967,
          47.716825
        ],
        [
          8.6507512,
          47.7169638
        ],
        [
          8.6506822,
          47.7170215
        ],
        [
          8.6506887,
          47.7170255
        ],
        [
          8.6506549,
          47.7170532
        ],
        [
          8.6505524,
          47.7169964
        ],
        [
          8.6503882,
          47.7169063
        ]
      ]
    ]
  }
},
{
  "type": "Feature",
  "id": "way/202673886",
  "properties": {
    "addr:city": "Schaffhausen",
    "addr:country": "CH",
    "addr:housenumber": "2",
    "addr:postcode": "8200",
    "addr:street": "Schlempengarten",
    "amenity": "kindergarten",
    "building": "kindergarten",
    "building:colour": "tan",
    "building:levels": "1",
    "building:material": "wood",
    "height": "5",
    "name": "Kindergarten Spiegelgut 1+2",
    "roof:colour": "dimgray",
    "roof:direction": "224",
    "roof:height": "2",
    "roof:orientation": "along",
    "roof:shape": "skillion",
    "id": "way/202673886"
  },
  "geometry": {
    "type": "Polygon",
    "coordinates": [
      [
        [
          8.645301,
          47.7187526
        ],
        [
          8.645543,
          47.7185942
        ],
        [
          8.6456231,
          47.7186495
        ],
        [
          8.6456342,
          47.7186423
        ],
        [
          8.6456788,
          47.7186732
        ],
        [
          8.6456443,
          47.7186958
        ],
        [
          8.6454564,
          47.7188188
        ],
        [
          8.6454206,
          47.7188422
        ],
        [
          8.6453754,
          47.718811
        ],
        [
          8.6453806,
          47.7188076
        ],
        [
          8.645301,
          47.7187526
        ]
      ]
    ]
  }
},
{
  "type": "Feature",
  "id": "way/218003763",
  "properties": {
    "addr:city": "Schaffhausen",
    "addr:housenumber": "19",
    "addr:postcode": "8200",
    "addr:street": "Kasinogässchen",
    "amenity": "kindergarten",
    "building": "kindergarten",
    "building:levels": "1",
    "name": "Kindergarten Vordersteig",
    "roof:levels": "2",
    "roof:shape": "gambrel",
    "id": "way/218003763"
  },
  "geometry": {
    "type": "Polygon",
    "coordinates": [
      [
        [
          8.6295677,
          47.696896
        ],
        [
          8.6294868,
          47.6967472
        ],
        [
          8.6296252,
          47.6967127
        ],
        [
          8.6297066,
          47.6968618
        ],
        [
          8.6295677,
          47.696896
        ]
      ]
    ]
  }
},
{
  "type": "Feature",
  "id": "way/220181149",
  "properties": {
    "addr:city": "Schaffhausen",
    "addr:country": "CH",
    "addr:housenumber": "28",
    "addr:postcode": "8207",
    "addr:street": "Neutrottenstrasse",
    "amenity": "kindergarten",
    "building": "kindergarten",
    "name": "Kindergarten Sonnenberg",
    "survey:date": "2014-10-10",
    "id": "way/220181149"
  },
  "geometry": {
    "type": "Polygon",
    "coordinates": [
      [
        [
          8.6528158,
          47.7196373
        ],
        [
          8.6527478,
          47.7195966
        ],
        [
          8.6527212,
          47.7196163
        ],
        [
          8.6526032,
          47.7195456
        ],
        [
          8.6527006,
          47.7194736
        ],
        [
          8.6527771,
          47.7195204
        ],
        [
          8.6528135,
          47.719494
        ],
        [
          8.6529212,
          47.7195592
        ],
        [
          8.6528158,
          47.7196373
        ]
      ]
    ]
  }
},
{
  "type": "Feature",
  "id": "way/240115099",
  "properties": {
    "addr:city": "Schaffhausen",
    "addr:housenumber": "18",
    "addr:postcode": "8200",
    "addr:street": "Alleeweg",
    "amenity": "kindergarten",
    "building": "kindergarten",
    "name": "Kindergarten Eschengut 1+2",
    "id": "way/240115099"
  },
  "geometry": {
    "type": "Polygon",
    "coordinates": [
      [
        [
          8.6510029,
          47.7065225
        ],
        [
          8.6509758,
          47.7065078
        ],
        [
          8.6509396,
          47.706538
        ],
        [
          8.6508984,
          47.7065156
        ],
        [
          8.6509035,
          47.7065114
        ],
        [
          8.6508168,
          47.7064643
        ],
        [
          8.6510228,
          47.7062926
        ],
        [
          8.6511085,
          47.7063391
        ],
        [
          8.6511147,
          47.706334
        ],
        [
          8.6511563,
          47.7063566
        ],
        [
          8.6510995,
          47.7064039
        ],
        [
          8.6511271,
          47.7064189
        ],
        [
          8.6510029,
          47.7065225
        ]
      ]
    ]
  }
},
{
  "type": "Feature",
  "id": "way/243652881",
  "properties": {
    "addr:city": "Schaffhausen",
    "addr:housenumber": "89",
    "addr:postcode": "8200",
    "addr:street": "Hauentalstrasse",
    "amenity": "kindergarten",
    "building": "kindergarten",
    "name": "Kindergarten Hauental 1+2",
    "id": "way/243652881"
  },
  "geometry": {
    "type": "Polygon",
    "coordinates": [
      [
        [
          8.623655,
          47.7127886
        ],
        [
          8.6236738,
          47.7127544
        ],
        [
          8.6236822,
          47.7127566
        ],
        [
          8.6237201,
          47.712688
        ],
        [
          8.6240273,
          47.7127652
        ],
        [
          8.6239888,
          47.7128349
        ],
        [
          8.6239961,
          47.7128367
        ],
        [
          8.6239779,
          47.7128698
        ],
        [
          8.623655,
          47.7127886
        ]
      ]
    ]
  }
},
{
  "type": "Feature",
  "id": "way/243659466",
  "properties": {
    "addr:city": "Schaffhausen",
    "addr:housenumber": "191",
    "addr:postcode": "8200",
    "addr:street": "Hohlenbaumstrasse",
    "amenity": "kindergarten",
    "building": "kindergarten",
    "name": "Kindergarten Neubrunn 1+2",
    "id": "way/243659466"
  },
  "geometry": {
    "type": "Polygon",
    "coordinates": [
      [
        [
          8.624981,
          47.7086381
        ],
        [
          8.6251496,
          47.7084496
        ],
        [
          8.6252441,
          47.7084881
        ],
        [
          8.6252483,
          47.7084826
        ],
        [
          8.6252941,
          47.7085017
        ],
        [
          8.6252689,
          47.7085308
        ],
        [
          8.6252984,
          47.7085429
        ],
        [
          8.6251892,
          47.7086652
        ],
        [
          8.6251591,
          47.7086533
        ],
        [
          8.6251172,
          47.7087003
        ],
        [
          8.6250718,
          47.7086823
        ],
        [
          8.6250761,
          47.708677
        ],
        [
          8.624981,
          47.7086381
        ]
      ]
    ]
  }
},
{
  "type": "Feature",
  "id": "way/246071144",
  "properties": {
    "addr:city": "Hemmental",
    "addr:housenumber": "11",
    "addr:postcode": "8231",
    "addr:street": "Schlattergarten",
    "amenity": "kindergarten",
    "building": "kindergarten",
    "name": "Kindergarten Hemmental",
    "id": "way/246071144"
  },
  "geometry": {
    "type": "Polygon",
    "coordinates": [
      [
        [
          8.5791864,
          47.7350725
        ],
        [
          8.5791885,
          47.7350703
        ],
        [
          8.5791613,
          47.7350583
        ],
        [
          8.5791752,
          47.7350431
        ],
        [
          8.5792019,
          47.7350541
        ],
        [
          8.5792486,
          47.7350014
        ],
        [
          8.5793871,
          47.7350616
        ],
        [
          8.579324,
          47.7351298
        ],
        [
          8.5791864,
          47.7350725
        ]
      ]
    ]
  }
},
{
  "type": "Feature",
  "id": "way/251421265",
  "properties": {
    "addr:city": "Schaffhausen",
    "addr:housenumber": "13",
    "addr:postcode": "8200",
    "addr:street": "Kreuzgutweg",
    "amenity": "kindergarten",
    "building": "kindergarten",
    "name": "Kindergarten Kreuzgut 1, 2, 3, 4",
    "id": "way/251421265"
  },
  "geometry": {
    "type": "Polygon",
    "coordinates": [
      [
        [
          8.6583947,
          47.7237162
        ],
        [
          8.6584775,
          47.7236439
        ],
        [
          8.6584501,
          47.7236293
        ],
        [
          8.6584916,
          47.7235938
        ],
        [
          8.6585172,
          47.7236078
        ],
        [
          8.6586012,
          47.7235335
        ],
        [
          8.6587132,
          47.7235912
        ],
        [
          8.6586495,
          47.7236471
        ],
        [
          8.6586626,
          47.7236539
        ],
        [
          8.6585805,
          47.723725
        ],
        [
          8.6585694,
          47.7237187
        ],
        [
          8.6585065,
          47.7237747
        ],
        [
          8.6583947,
          47.7237162
        ]
      ]
    ]
  }
},
{
  "type": "Feature",
  "id": "way/251912709",
  "properties": {
    "addr:city": "Beringen",
    "addr:housenumber": "90",
    "addr:postcode": "8222",
    "addr:street": "Gellerstrasse",
    "amenity": "kindergarten",
    "building": "kindergarten",
    "name": "Kindergarten Gellerstrasse",
    "id": "way/251912709"
  },
  "geometry": {
    "type": "Polygon",
    "coordinates": [
      [
        [
          8.5827968,
          47.6977552
        ],
        [
          8.5826911,
          47.6977531
        ],
        [
          8.5826908,
          47.6977844
        ],
        [
          8.5825659,
          47.6977818
        ],
        [
          8.5825661,
          47.6977511
        ],
        [
          8.5824617,
          47.6977495
        ],
        [
          8.5824659,
          47.6976236
        ],
        [
          8.5828042,
          47.6976312
        ],
        [
          8.5827968,
          47.6977552
        ]
      ]
    ]
  }
},
{
  "type": "Feature",
  "id": "way/255434379",
  "properties": {
    "addr:city": "Löhningen",
    "addr:housenumber": "35",
    "addr:postcode": "8224",
    "addr:street": "Schützengasse",
    "amenity": "kindergarten",
    "building": "kindergarten",
    "name": "Kindergarten",
    "id": "way/255434379"
  },
  "geometry": {
    "type": "Polygon",
    "coordinates": [
      [
        [
          8.5515598,
          47.7043805
        ],
        [
          8.5515467,
          47.7043012
        ],
        [
          8.5515962,
          47.7042975
        ],
        [
          8.5515792,
          47.7041943
        ],
        [
          8.5517009,
          47.7041852
        ],
        [
          8.5517135,
          47.7042619
        ],
        [
          8.5518633,
          47.7042507
        ],
        [
          8.5518808,
          47.7043566
        ],
        [
          8.5515598,
          47.7043805
        ]
      ]
    ]
  }
},
{
  "type": "Feature",
  "id": "way/256046316",
  "properties": {
    "addr:city": "Neunkirch",
    "addr:housenumber": "4",
    "addr:street": "Breitiweg",
    "amenity": "kindergarten",
    "building": "kindergarten",
    "name": "Kindergarten Breitiweg 1",
    "id": "way/256046316"
  },
  "geometry": {
    "type": "Polygon",
    "coordinates": [
      [
        [
          8.5019637,
          47.6896028
        ],
        [
          8.5019942,
          47.6895036
        ],
        [
          8.5023367,
          47.6895521
        ],
        [
          8.5023065,
          47.689651
        ],
        [
          8.5019637,
          47.6896028
        ]
      ]
    ]
  }
},
{
  "type": "Feature",
  "id": "way/256046319",
  "properties": {
    "addr:city": "Neunkirch",
    "addr:housenumber": "2",
    "addr:postcode": "8213",
    "addr:street": "Breitiweg",
    "amenity": "kindergarten",
    "building": "kindergarten",
    "name": "Kindergarten Breitiweg 2",
    "id": "way/256046319"
  },
  "geometry": {
    "type": "Polygon",
    "coordinates": [
      [
        [
          8.5018352,
          47.6895032
        ],
        [
          8.5016654,
          47.6894778
        ],
        [
          8.5016752,
          47.6894463
        ],
        [
          8.5017207,
          47.6894527
        ],
        [
          8.5017563,
          47.6893351
        ],
        [
          8.5018821,
          47.689352
        ],
        [
          8.5018352,
          47.6895032
        ]
      ]
    ]
  }
},
{
  "type": "Feature",
  "id": "way/256851177",
  "properties": {
    "addr:city": "Neuhausen am Rheinfall",
    "addr:housenumber": "42",
    "addr:postcode": "8212",
    "addr:street": "Rheingoldstrasse",
    "amenity": "kindergarten",
    "building": "kindergarten",
    "name": "Kindergarten Rheingold",
    "id": "way/256851177"
  },
  "geometry": {
    "type": "Polygon",
    "coordinates": [
      [
        [
          8.6226411,
          47.6819103
        ],
        [
          8.6225526,
          47.6816507
        ],
        [
          8.6226938,
          47.6816281
        ],
        [
          8.6227816,
          47.6818874
        ],
        [
          8.6226411,
          47.6819103
        ]
      ]
    ]
  }
},
{
  "type": "Feature",
  "id": "way/259334905",
  "properties": {
    "addr:city": "Hallau",
    "addr:housenumber": "4",
    "addr:street": "Baumgartenstrasse",
    "amenity": "kindergarten",
    "building": "kindergarten",
    "name": "Kindergarten Selhof",
    "id": "way/259334905"
  },
  "geometry": {
    "type": "Polygon",
    "coordinates": [
      [
        [
          8.4533257,
          47.695492
        ],
        [
          8.4534094,
          47.6953466
        ],
        [
          8.4535355,
          47.6953794
        ],
        [
          8.4534948,
          47.6954518
        ],
        [
          8.4535389,
          47.6954637
        ],
        [
          8.4534971,
          47.6955365
        ],
        [
          8.4533257,
          47.695492
        ]
      ]
    ]
  }
},
{
  "type": "Feature",
  "id": "way/274295218",
  "properties": {
    "addr:city": "Osterfingen",
    "addr:housenumber": "59a",
    "addr:street": "Dorfstrasse",
    "amenity": "kindergarten",
    "building": "yes",
    "name": "Kindergarten",
    "id": "way/274295218"
  },
  "geometry": {
    "type": "Polygon",
    "coordinates": [
      [
        [
          8.4896201,
          47.6634424
        ],
        [
          8.4896164,
          47.6633523
        ],
        [
          8.4897616,
          47.6633496
        ],
        [
          8.4897654,
          47.6634396
        ],
        [
          8.4896201,
          47.6634424
        ]
      ]
    ]
  }
},
{
  "type": "Feature",
  "id": "way/274580465",
  "properties": {
    "addr:city": "Hallau",
    "addr:country": "CH",
    "addr:housenumber": "33",
    "addr:postcode": "8215",
    "addr:street": "Schulgasse",
    "amenity": "kindergarten",
    "building": "kindergarten",
    "name": "Kindergarten Laagass",
    "id": "way/274580465"
  },
  "geometry": {
    "type": "Polygon",
    "coordinates": [
      [
        [
          8.4577314,
          47.6984622
        ],
        [
          8.4577564,
          47.6983724
        ],
        [
          8.457847,
          47.6983834
        ],
        [
          8.4578534,
          47.6983627
        ],
        [
          8.457944,
          47.6983748
        ],
        [
          8.4579145,
          47.6984863
        ],
        [
          8.4578761,
          47.6984813
        ],
        [
          8.4578611,
          47.6985308
        ],
        [
          8.4577557,
          47.6985172
        ],
        [
          8.4577687,
          47.6984678
        ],
        [
          8.4577314,
          47.6984622
        ]
      ]
    ]
  }
},
{
  "type": "Feature",
  "id": "way/276532732",
  "properties": {
    "addr:city": "Oberhallau",
    "addr:housenumber": "7",
    "addr:postcode": "8216",
    "addr:street": "Trottengasse",
    "amenity": "kindergarten",
    "building": "house",
    "building:colour": "white",
    "building:levels": "2",
    "building:material": "plaster",
    "building:use": "education",
    "height": "7.5",
    "level": "0",
    "name": "Kindergarten Oberhallau",
    "operator:type": "public",
    "roof:colour": "rosybrown",
    "roof:height": "2.5",
    "roof:levels": "1",
    "roof:material": "roof_tiles",
    "roof:orientation": "along",
    "roof:shape": "gabled",
    "wheelchair": "no",
    "id": "way/276532732"
  },
  "geometry": {
    "type": "Polygon",
    "coordinates": [
      [
        [
          8.4784007,
          47.7043906
        ],
        [
          8.4782186,
          47.7042646
        ],
        [
          8.4783047,
          47.7042067
        ],
        [
          8.4784892,
          47.704333
        ],
        [
          8.4784007,
          47.7043906
        ]
      ]
    ]
  }
},
{
  "type": "Feature",
  "id": "way/276610146",
  "properties": {
    "addr:city": "Schleitheim",
    "addr:housenumber": "13",
    "addr:postcode": "8226",
    "addr:street": "Brüelstrasse",
    "amenity": "kindergarten",
    "building": "kindergarten",
    "name": "Kindergarten Im Brüel",
    "id": "way/276610146"
  },
  "geometry": {
    "type": "Polygon",
    "coordinates": [
      [
        [
          8.4867265,
          47.7478273
        ],
        [
          8.4868154,
          47.7477498
        ],
        [
          8.4869223,
          47.7478058
        ],
        [
          8.4869446,
          47.7477872
        ],
        [
          8.4869986,
          47.747816
        ],
        [
          8.4869769,
          47.7478345
        ],
        [
          8.4870836,
          47.7478906
        ],
        [
          8.4869946,
          47.7479678
        ],
        [
          8.4868856,
          47.7479106
        ],
        [
          8.486873,
          47.747922
        ],
        [
          8.4868221,
          47.7478953
        ],
        [
          8.4868349,
          47.7478836
        ],
        [
          8.4867265,
          47.7478273
        ]
      ]
    ]
  }
},
{
  "type": "Feature",
  "id": "way/277279605",
  "properties": {
    "addr:city": "Beggingen",
    "addr:housenumber": "4",
    "addr:postcode": "8228",
    "addr:street": "Zollstrasse",
    "amenity": "kindergarten",
    "building": "kindergarten",
    "name": "Kindergarten Beggingen",
    "id": "way/277279605"
  },
  "geometry": {
    "type": "Polygon",
    "coordinates": [
      [
        [
          8.5374873,
          47.767311
        ],
        [
          8.5375145,
          47.7672721
        ],
        [
          8.5374937,
          47.7672648
        ],
        [
          8.5375108,
          47.7672422
        ],
        [
          8.5375319,
          47.7672492
        ],
        [
          8.5375351,
          47.7672444
        ],
        [
          8.5376912,
          47.7672952
        ],
        [
          8.5376996,
          47.7672827
        ],
        [
          8.5377853,
          47.7673111
        ],
        [
          8.5377528,
          47.7673562
        ],
        [
          8.5376672,
          47.7673289
        ],
        [
          8.537633,
          47.767377
        ],
        [
          8.5375621,
          47.7673542
        ],
        [
          8.5375722,
          47.767339
        ],
        [
          8.5374873,
          47.767311
        ]
      ]
    ]
  }
},
{
  "type": "Feature",
  "id": "way/305315995",
  "properties": {
    "amenity": "kindergarten",
    "name": "Kindergarten Burgacker",
    "wheelchair": "yes",
    "id": "way/305315995"
  },
  "geometry": {
    "type": "Polygon",
    "coordinates": [
      [
        [
          8.8593082,
          47.6540871
        ],
        [
          8.85856,
          47.6544306
        ],
        [
          8.8583288,
          47.6541963
        ],
        [
          8.8588036,
          47.6539716
        ],
        [
          8.8590584,
          47.6538668
        ],
        [
          8.8593082,
          47.6540871
        ]
      ]
    ]
  }
},
{
  "type": "Feature",
  "id": "way/315189702",
  "properties": {
    "addr:city": "Beringen",
    "addr:housenumber": "9",
    "addr:postcode": "8222",
    "addr:street": "Haargasse",
    "amenity": "kindergarten",
    "building": "kindergarten",
    "name": "Kindergarten Haargasse",
    "id": "way/315189702"
  },
  "geometry": {
    "type": "Polygon",
    "coordinates": [
      [
        [
          8.5756485,
          47.7000931
        ],
        [
          8.5756103,
          47.7000864
        ],
        [
          8.5756297,
          47.700041
        ],
        [
          8.575694,
          47.7000532
        ],
        [
          8.5756769,
          47.7000953
        ],
        [
          8.5758324,
          47.7001246
        ],
        [
          8.5757904,
          47.7002259
        ],
        [
          8.5758229,
          47.7002319
        ],
        [
          8.575807,
          47.7002706
        ],
        [
          8.5757726,
          47.700265
        ],
        [
          8.5757304,
          47.7003686
        ],
        [
          8.5755756,
          47.700339
        ],
        [
          8.5755575,
          47.7003799
        ],
        [
          8.5754931,
          47.7003676
        ],
        [
          8.5755117,
          47.7003211
        ],
        [
          8.5755497,
          47.7003287
        ],
        [
          8.5756485,
          47.7000931
        ]
      ]
    ]
  }
},
{
  "type": "Feature",
  "id": "way/345571677",
  "properties": {
    "addr:city": "Ramsen",
    "addr:country": "CH",
    "addr:housenumber": "420c",
    "addr:postcode": "8262",
    "addr:street": "Sonnenstrasse",
    "amenity": "kindergarten",
    "building": "yes",
    "name": "Kindergarten Ramsen",
    "id": "way/345571677"
  },
  "geometry": {
    "type": "Polygon",
    "coordinates": [
      [
        [
          8.8142732,
          47.7085534
        ],
        [
          8.8142742,
          47.7085265
        ],
        [
          8.8143203,
          47.7085272
        ],
        [
          8.814334,
          47.708381
        ],
        [
          8.814289,
          47.7083798
        ],
        [
          8.8142907,
          47.7083529
        ],
        [
          8.8144185,
          47.708358
        ],
        [
          8.814418,
          47.7083691
        ],
        [
          8.8145352,
          47.7083729
        ],
        [
          8.8145187,
          47.7085508
        ],
        [
          8.8143998,
          47.7085466
        ],
        [
          8.8143993,
          47.7085583
        ],
        [
          8.8142732,
          47.7085534
        ]
      ]
    ]
  }
},
{
  "type": "Feature",
  "id": "way/353655344",
  "properties": {
    "amenity": "kindergarten",
    "building": "kindergarten",
    "building:colour": "peru",
    "building:levels": "1",
    "building:material": "wood",
    "email": "info@wald-laeufer.ch",
    "height": "5",
    "mobile": "+41 (0)78 736 59 60",
    "name": "Bärenhütte",
    "operator": "Waldläufer",
    "roof:height": "2.5",
    "roof:levels": "1",
    "roof:material": "roof_tiles",
    "roof:orientation": "across",
    "roof:shape": "gabled",
    "start_date": "2021-08-01",
    "website": "https://www.waldläufer.net/",
    "id": "way/353655344"
  },
  "geometry": {
    "type": "Polygon",
    "coordinates": [
      [
        [
          8.5891875,
          47.6843866
        ],
        [
          8.5892693,
          47.6843548
        ],
        [
          8.5893307,
          47.6844262
        ],
        [
          8.5892489,
          47.6844581
        ],
        [
          8.5891875,
          47.6843866
        ]
      ]
    ]
  }
},
{
  "type": "Feature",
  "id": "way/849733617",
  "properties": {
    "addr:city": "Stein am Rhein",
    "addr:housenumber": "5",
    "addr:postcode": "8260",
    "addr:street": "Mühlenstrasse",
    "amenity": "kindergarten",
    "building": "kindergarten",
    "name": "Kindergarten Mühlibach",
    "id": "way/849733617"
  },
  "geometry": {
    "type": "Polygon",
    "coordinates": [
      [
        [
          8.862527,
          47.6604301
        ],
        [
          8.8623452,
          47.6603323
        ],
        [
          8.8624273,
          47.6602473
        ],
        [
          8.8625721,
          47.6602525
        ],
        [
          8.8626337,
          47.6603793
        ],
        [
          8.862527,
          47.6604301
        ]
      ]
    ]
  }
},
{
  "type": "Feature",
  "id": "way/1096228237",
  "properties": {
    "addr:city": "Schaffhausen",
    "addr:country": "CH",
    "addr:housenumber": "31",
    "addr:postcode": "8200",
    "addr:street": "Grünaustieg",
    "amenity": "kindergarten",
    "building": "kindergarten",
    "id": "way/1096228237"
  },
  "geometry": {
    "type": "Polygon",
    "coordinates": [
      [
        [
          8.6447892,
          47.7138107
        ],
        [
          8.6446725,
          47.7137508
        ],
        [
          8.6447935,
          47.7136441
        ],
        [
          8.6449103,
          47.713704
        ],
        [
          8.6447892,
          47.7138107
        ]
      ]
    ]
  }
},
{
  "type": "Feature",
  "id": "way/1173795294",
  "properties": {
    "amenity": "kindergarten",
    "name": "Kindergarten Trasadingen",
    "preschool": "yes",
    "website": "https://wilchingen.ch/schule",
    "id": "way/1173795294"
  },
  "geometry": {
    "type": "Polygon",
    "coordinates": [
      [
        [
          8.4287625,
          47.6678193
        ],
        [
          8.4290162,
          47.6677613
        ],
        [
          8.4292275,
          47.6681874
        ],
        [
          8.4290312,
          47.6682477
        ],
        [
          8.4289611,
          47.6681309
        ],
        [
          8.4289072,
          47.6681433
        ],
        [
          8.4287625,
          47.6678193
        ]
      ]
    ]
  }
},
{
  "type": "Feature",
  "id": "node/30985827",
  "properties": {
    "amenity": "kindergarten",
    "name": "Kindergarten Waldpark",
    "id": "node/30985827"
  },
  "geometry": {
    "type": "Point",
    "coordinates": [
      8.6052119,
      47.6819896
    ]
  }
},
{
  "type": "Feature",
  "id": "node/704608915",
  "properties": {
    "amenity": "kindergarten",
    "name": "Fridau",
    "id": "node/704608915"
  },
  "geometry": {
    "type": "Point",
    "coordinates": [
      8.8569059,
      47.6621704
    ]
  }
},
{
  "type": "Feature",
  "id": "node/1453796485",
  "properties": {
    "addr:city": "Guntmadingen",
    "addr:housename": "Dorfschule",
    "addr:housenumber": "1",
    "addr:postcode": "8223",
    "addr:street": "Neuengasse",
    "amenity": "kindergarten",
    "name": "Kindergarten Guntmadingen",
    "id": "node/1453796485"
  },
  "geometry": {
    "type": "Point",
    "coordinates": [
      8.5569435,
      47.6855415
    ]
  }
},
{
  "type": "Feature",
  "id": "node/2079312727",
  "properties": {
    "amenity": "kindergarten",
    "name": "Kinderkrippe Kimi",
    "id": "node/2079312727"
  },
  "geometry": {
    "type": "Point",
    "coordinates": [
      8.7107479,
      47.7481254
    ]
  }
},
{
  "type": "Feature",
  "id": "node/4429402703",
  "properties": {
    "addr:city": "Lohn (SH)",
    "addr:country": "CH",
    "addr:housenumber": "5",
    "addr:postcode": "8235",
    "addr:street": "Herti",
    "amenity": "kindergarten",
    "name": "Kindergarten Herti",
    "id": "node/4429402703"
  },
  "geometry": {
    "type": "Point",
    "coordinates": [
      8.6663851,
      47.7550409
    ]
  }
},
{
  "type": "Feature",
  "id": "node/9952658919",
  "properties": {
    "addr:city": "Gächlingen",
    "addr:housenumber": "5",
    "addr:postcode": "8214",
    "addr:street": "Gemeindehausplatz",
    "amenity": "kindergarten",
    "email": "psgaechlingen@schulensh.ch",
    "name": "Kindergarten Gächlingen",
    "phone": "+41 52 533 94 82",
    "website": "https://gaechlingen.ch/schule",
    "id": "node/9952658919"
  },
  "geometry": {
    "type": "Point",
    "coordinates": [
      8.4972626,
      47.7019056
    ]
  }
},
{
  "type": "Feature",
  "id": "node/10039396903",
  "properties": {
    "addr:city": "Schaffhausen",
    "addr:housenumber": "11",
    "addr:postcode": "8200",
    "addr:street": "Nelkenstrasse",
    "amenity": "kindergarten",
    "name": "Kindergarten Nelkenstrasse",
    "id": "node/10039396903"
  },
  "geometry": {
    "type": "Point",
    "coordinates": [
      8.6280292,
      47.7059113
    ]
  }
},
{
  "type": "Feature",
  "id": "node/10039479356",
  "properties": {
    "addr:city": "Schaffhausen",
    "addr:housenumber": "21",
    "addr:postcode": "8200",
    "addr:street": "Promenadenstrasse",
    "amenity": "kindergarten",
    "name": "Kindergarten Fäsenstaub",
    "id": "node/10039479356"
  },
  "geometry": {
    "type": "Point",
    "coordinates": [
      8.6283568,
      47.6950304
    ]
  }
},
{
  "type": "Feature",
  "id": "node/10060958875",
  "properties": {
    "amenity": "kindergarten",
    "name": "Kindergarten Schönegg 1",
    "id": "node/10060958875"
  },
  "geometry": {
    "type": "Point",
    "coordinates": [
      8.6170968,
      47.6856917
    ]
  }
},
{
  "type": "Feature",
  "id": "node/10060958876",
  "properties": {
    "amenity": "kindergarten",
    "name": "Kindergarten Schönegg 2",
    "id": "node/10060958876"
  },
  "geometry": {
    "type": "Point",
    "coordinates": [
      8.6171568,
      47.6863892
    ]
  }
},
{
  "type": "Feature",
  "id": "node/10063061374",
  "properties": {
    "addr:city": "Rüdlingen",
    "addr:housenumber": "5",
    "addr:postcode": "8455",
    "addr:street": "Schuelgässli",
    "amenity": "kindergarten",
    "name": "Kindergarten Rhyhüsli und Sunnestrahl",
    "id": "node/10063061374"
  },
  "geometry": {
    "type": "Point",
    "coordinates": [
      8.5717466,
      47.5775949
    ]
  }
},
{
  "type": "Feature",
  "id": "node/10063593554",
  "properties": {
    "addr:city": "Stetten (SH)",
    "addr:housenumber": "2",
    "addr:postcode": "8234",
    "addr:street": "Brämlenstrasse",
    "amenity": "kindergarten",
    "name": "Kindergarten Rietwies",
    "id": "node/10063593554"
  },
  "geometry": {
    "type": "Point",
    "coordinates": [
      8.658494,
      47.7386518
    ]
  }
}
]
}
